{"type": "FeatureCollection", "features": [{"type": "Feature", "properties": {"identifier": "9cd474fc-6735-4b12-b18b-fbdd4c3d9811", "name": "Russendenkmal", "description": "<p data-start=\"527\" data-end=\"863\">Das Russendenkmal befindet sich unterhalb der Wirtschaft zum L&ouml;wen in Hinterschellenberg. In der Nacht vom 2. auf den 3. Mai 1945 &uuml;berschritten die asylsuchenden Reste der &laquo;1. Russischen Nationalarmee der Deutschen Wehrmacht&raquo; unter Generalmajor A. Holmston-Smyslowsky mit rund 500 Personen die damalige Reichsgrenze nach Liechtenstein.</p><p data-start=\"865\" data-end=\"1231\">In der &laquo;Wirtschaft zum L&ouml;wen&raquo; fanden die ersten Verhandlungen statt, die zur Asylgew&auml;hrung durch das F&uuml;rstentum Liechtenstein f&uuml;hrten. Der Gedenkstein erinnert an dieses Ereignis. Er h&auml;lt fest, dass sich Liechtenstein den sowjetischen Auslieferungsforderungen widersetzte und den Fl&uuml;chtlingen nach zweieinhalb Jahren die Ausreise in ein Land ihrer Wahl erm&ouml;glichte.</p>", "image": "https://ltmpimtsoch.sos-ch-dk-2.exoscale-cdn.com/catalog/3/8/c/2/38c2e6563f147e66b661541017ff7407213c5574_Image.jpg", "openstreetmap_id": "node/5752404321"}, "geometry": {"type": "Point", "coordinates": ["9.560846686363222", "47.24166077234459"]}}, {"type": "Feature", "properties": {"identifier": "a0723029-d65b-4471-8a98-c9b6bbc46935", "name": "Schlucher-Treff mit Mini-Cars & Trampolin", "description": "<p>Der Schlucher-Treff in Malbun freut sich im Sommer insbesondere auf die kleinen G&auml;ste. Die Mini-Cart-Bahn, welche mit leisen, umweltfreundlichen Elektrofahrzeugen auftrumpft, l&auml;sst keine W&uuml;nsche offen. F&uuml;r Kinder von f&uuml;nf bis zw&ouml;lf Jahren stehen ein Traktor, ein Formel-1-Wagen, ein Polizei-Motorrad und ein richtiger amerikanischer Truck zur Abfahrt bereit.&nbsp;</p><p>Im Sommer gibt es im Schlucher-Treff noch weitere Attraktionen zu entdecken. Ein grosses Trampolin sorgt draussen f&uuml;r Vergn&uuml;gen und steht zur freien Nutzung direkt neben der Mini-Cart-Bahn. Drinnen warten zudem verschiedene Spielk&auml;sten wie Tischfussball und Airhockey auf engagierte Spieler.&nbsp;</p><p>Das Restaurant l&auml;dt zum Verweilen und Geniessen verschiedenster Gerichte ein.</p><p>Mit dem&nbsp;&laquo;<a href=\"https://tourismus.li/angebote/freizeit/erlebnispass-2/all-inclusive-erlebnispass.html\">ALL INCLUSIVE Erlebnispass</a>&raquo; geniessen Kinder eine Gratis-Runde mit dem Mini-Car.</p>", "url": "https://www.instagram.com/schluchertreff/", "image": "https://ltmpimtsoch.sos-ch-dk-2.exoscale-cdn.com/catalog/9/a/f/e/9afe8d10ae2b09a6276e9b7430f37b2ed9326a0f_FF250710A1_018a.jpg", "openstreetmap_id": "node/4379445754"}, "geometry": {"type": "Point", "coordinates": ["9.60782825946808", "47.10356485058046"]}}]}