{"type": "FeatureCollection", "features": [{"type": "Feature", "properties": {"identifier": "08d6aa8c-628a-4940-9a0d-d301b35adfb6", "name": "Pizza Napoli", "url": "https://www.pizza-napoli.li/", "image": "https://ltmpimtsoch.sos-ch-dk-2.exoscale-cdn.com/catalog/8/7/2/b/872b0f982bef8f7faccd237c38fc3bc43a23a2b3_pizza_napoli_gamprin.jpeg", "openstreetmap_id": "way/982878170"}, "geometry": {"type": "Point", "coordinates": ["9.50896203517914", "47.2108668003258"]}}, {"type": "Feature", "properties": {"identifier": "11646e5c-828f-4886-b4e4-9f71e44d95ca", "name": "Restaurant Specki", "description": "<p>Das Restaurant Specki ist eine Initiative des Vereins f&uuml;r Betreutes Wohnen in Liechtenstein (VBW) und bietet leistungsangepasste Arbeitspl&auml;tze f&uuml;r Menschen mit gesundheitlichen Einschr&auml;nkungen. Die K&uuml;che setzt auf Regionalit&auml;t, Saisonalit&auml;t und Nachhaltigkeit &ndash; t&auml;glich frisch zubereitet und liebevoll serviert. Auf der Speisekarte stehen zwei wechselnde Men&uuml;s: eines vegan, das andere vegetarisch oder mit Fleisch. Die Gerichte entstehen spontan, um Lebensmittelverschwendung zu vermeiden, ganz nach dem Motto: &laquo;Lasst euch &uuml;berraschen&raquo;. Erg&auml;nzt wird das Angebot durch t&auml;glich frisch gebackenen Kuchen, serviert mit feinem Kaffee oder hausgemachtem Eistee.&nbsp;</p>", "url": "https://www.specki.li", "image": "https://ltmpimtsoch.sos-ch-dk-2.exoscale-cdn.com/catalog/b/2/7/c/b27c128623da37a82cfd3a01f6f8268a5d964332_specki_schaan.jpeg", "openstreetmap_id": "node/4723796546"}, "geometry": {"type": "Point", "coordinates": ["9.512416720390322", "47.168764852643264"]}}, {"type": "Feature", "properties": {"identifier": "23aed662-7956-417f-b8b5-9431c4c09789", "name": "J\u00e4gerstube zum Kreuz", "description": "<p>Die J\u00e4gerstube Zum Kreuz ist weitherum bekannt f\u00fcr die sch\u00f6ne Gaststube und den herrlichen Biergarten mit Aussicht auf die Dreischwestern-Bergkette und den Hohen Kasten.</p>", "url": "http://www.kreuz.li", "image": "https://ltmpimtsoch.sos-ch-dk-2.exoscale-cdn.com/catalog/f/1/8/5/f18585573fb4e158245b733933bacbdbd16a2ec8_jaegerstube_zum_kreuz_schellenberg.jpeg", "openstreetmap_id": "node/819181573"}, "geometry": {"type": "Point", "coordinates": ["9.54689383506775", "47.22957575081231"]}}, {"type": "Feature", "properties": {"identifier": "2f9de122-6aab-430b-baf3-a7f44eb136b3", "name": "Bar & Bistro La Piazza", "description": "<p>Das &laquo;La Piazza&raquo; im Herzen von Schaan ist ein beliebter Treffpunkt f&uuml;r Kaffee, Ap&eacute;ro oder einen entspannten Feierabenddrink auf der Terrasse. Von Mittwoch bis Freitag werden feine Tagesmen&uuml;s und ofenfrische Pinsen serviert.</p>", "url": "https://www.lapiazzaschaan.info/", "image": "https://ltmpimtsoch.sos-ch-dk-2.exoscale-cdn.com/catalog/8/b/6/1/8b617d9ed07787db78767b1f96d2aa41f6ca4598_AA0EBB73_F607_4AC3_A268_DE10A947A78B.jpeg", "openstreetmap_id": "node/7831417006"}, "geometry": {"type": "Point", "coordinates": ["9.510045", "47.166844"]}}, {"type": "Feature", "properties": {"identifier": "30707859-1c9a-49e9-a900-b5f261068150", "name": "Restaurant Falknis", "description": "<p>Im gem\u00fctlich eingerichteten Restaurant wirst du mit gutb\u00fcrgerlicher K\u00fcche verw\u00f6hnt. Das Team serviert dir gerne hochwertige Fleischspezialit\u00e4ten aus eigener Produktion, die du auch direkt im Metzgereifachgesch\u00e4ft erwerben kannst.</p>", "url": "https://www.falknis.li/restaurant.html", "image": "https://ltmpimtsoch.sos-ch-dk-2.exoscale-cdn.com/catalog/1/6/d/5/16d5367f0bcc664f0b5b3ea5e9cfbbcc493f461f_restaurant_falknis_balzers.jpeg", "openstreetmap_id": "9794337454"}, "geometry": {"type": "Point", "coordinates": ["9.49602596473949", "47.06054229851574"]}}, {"type": "Feature", "properties": {"identifier": "34fb4302-ed65-440c-a577-96624eebdff2", "name": "King Kebap", "url": "http://kingpizza.li", "image": "https://ltmpimtsoch.sos-ch-dk-2.exoscale-cdn.com/catalog/2/a/b/7/2ab7edf8b5df25bad35167ec8aa323da4730122e_king_kebap_balzers.jpeg", "openstreetmap_id": "node/10872872521"}, "geometry": {"type": "Point", "coordinates": ["9.50796961784363", "47.07653371125007"]}}, {"type": "Feature", "properties": {"identifier": "37dae97e-639a-45a8-8d53-d32ad0ead8a2", "name": "Balu B\u00e4ckerei Konditorei", "description": "<p>Das helle Ambiente l\u00e4dt ein, ein Fr\u00fchst\u00fcck mit feinem Espresso, ein Mittagessen oder ein St\u00fcck Torte zu geniessen. Das Angebot an Brotprodukten, Patisserie und Sandwiches ist gross. Zudem sind t\u00e4glich frische Salate, Wraps und Convenience Menus erh\u00e4ltlich.</p>", "url": "http://www.baluvaduz.li", "image": "https://ltmpimtsoch.sos-ch-dk-2.exoscale-cdn.com/catalog/1/1/2/9/11297b88555eeb33901c3ddf09c8dfe2e8cb63cf_balu.jpeg", "openstreetmap_id": "4759754443"}, "geometry": {"type": "Point", "coordinates": ["9.52284932380162", "47.14051281744882"]}}, {"type": "Feature", "properties": {"identifier": "521b36c5-8a76-48c6-9bd1-8b33272e1e4a", "name": "Alpin Royal Restaurant", "description": "<p>Im modernen Ambiente des\u00a0Alpin Royal Restaurants\u00a0werden kulinarische Gen\u00fcsse zum unvergesslichen Erlebnis. Hier treffen regionale Zutaten auf kreative Raffinesse \u2013 sorgf\u00e4ltig ausgew\u00e4hlt, modern interpretiert und mit Leidenschaft zubereitet. Erg\u00e4nzt wird das kulinarische Erlebnis durch eine\u00a0exquisite Weinkarte, die eine erlesene Auswahl regionaler und internationaler Tropfen bereith\u00e4lt. Ob ein stilvolles Dinner zu zweit oder ein gem\u00fctlicher Abend mit besonderen Menschen \u2013 jedes Gericht wird hier mit Liebe und Sorgfalt zubereitet und serviert.</p><p>Grossz\u00fcgige Fenster er\u00f6ffnen im Alpin Royal Restaurant den Blick auf die umliegende Bergwelt. Das gem\u00fctliche Ambiente l\u00e4dt zum Verweilen, Geniessen und Feiern ein.</p><p>Ob private Feier oder exklusives Firmendinner\u00a0\u2013 das Alpin Royal Restaurant bietet den passenden Rahmen f\u00fcr genussvolle Anl\u00e4sse.</p><p>Das Alpin Royal Restaurant befindet sich im Alpin Royal Hotel &amp; Casino\u00a0in Schaan und ist unabh\u00e4ngig vom Casinobesuch f\u00fcr alle Genussmenschen zug\u00e4nglich.</p>", "url": "https://alpin-royal.li/restaurant/", "image": "https://ltmpimtsoch.sos-ch-dk-2.exoscale-cdn.com/catalog/3/1/b/1/31b16d3a6fcb07999b9617a375c66ca4c5b95911_Titelbild.jpg", "openstreetmap_id": "lat=47.174536&lon=9.510164&zoom=19#map=19/47.174536/9.510165"}, "geometry": {"type": "Point", "coordinates": ["9.510169029235842", "47.174568769391534"]}}, {"type": "Feature", "properties": {"identifier": "563c56ca-8686-4102-8667-bee20f4de5d1", "name": "Hornligrill", "url": "https://www.hornligrill.li", "image": "https://ltmpimtsoch.sos-ch-dk-2.exoscale-cdn.com/catalog/9/8/9/7/989722c870d5abc06ced61a06efeb606e2afcfcb_hornli_grill_triesen.jpeg", "openstreetmap_id": "node/11380070896"}, "geometry": {"type": "Point", "coordinates": ["9.522587656974792", "47.12047917113542"]}}, {"type": "Feature", "properties": {"identifier": "578b6f1e-e999-48f5-a833-f77fb22e5698", "name": "Anatolia - Kebap & Pizza", "url": "https://www.anatolia-imbiss.li", "image": "https://ltmpimtsoch.sos-ch-dk-2.exoscale-cdn.com/catalog/6/d/b/5/6db51fc3e0477baa9d547b5fe48cb4c0fdb7787f_anatolia_nendeln.jpeg", "openstreetmap_id": "node/9888533122"}, "geometry": {"type": "Point", "coordinates": ["9.542977809906008", "47.19826778529326"]}}, {"type": "Feature", "properties": {"identifier": "5dd69311-9096-4ef2-b29d-0fedb6319cbe", "name": "Elisas - Taste of Italian Food", "description": "<p>Sei es frische Antipasti wie beispielsweise eine Aufschnittplatte, frische Salate, &nbsp;hausgemachte gef\u00fcllte Piadina oder Focaccia&nbsp;und verschiedene&nbsp;Pinsa Romana.</p>", "url": "http://elisas-catering.li/", "image": "https://ltmpimtsoch.sos-ch-dk-2.exoscale-cdn.com/catalog/1/f/1/7/1f1788089966bb915be7ad568a0f4def63732ef2_elisas_aussen.jpeg", "openstreetmap_id": "6508876293"}, "geometry": {"type": "Point", "coordinates": ["9.52270030975342", "47.13913969738793"]}}, {"type": "Feature", "properties": {"identifier": "610daedc-eb7e-4c3f-a1bf-f4095a563d26", "name": "Liechtensteiner Braustube", "description": "<p>Das Restaurant Braustube verw&ouml;hnt dich mit kulinarischen K&ouml;stlichkeiten, leckeren Klassikern und feinen, saisonalen Spezialit&auml;ten. Dazu leckeres Brauhaus Bier aus der hausinternen Brauerei, tolles Ambiente, Bar, Biergarten mit viel Platz f&uuml;r dich und deine Freunde.</p><p>Die Braustube eignet sich ideal f&uuml;r Veranstaltungen wie Hochzeits-Ap&eacute;ros, Geburtstage, Pr&auml;sentationen oder&nbsp;Workshops. Das Team der Braustube steht dir gerne bei der Planung deines Anlasses zur Seite und unterst&uuml;tzt dich mit kulinarischem und technischem Know-how.&nbsp;Das Restaurant bietet Platz f&uuml;r 120-150 Personen zum Feiern. Im Brausaal k&ouml;nnen Workshops und Seminare mit bis zu 100&ndash;120 Personen stattfinden.</p><p>Mit dem &laquo;<a href=\"https://tourismus.li/angebote/freizeit/erlebnispass-2/all-inclusive-erlebnispass.html\">ALL INCLUSIVE Erlebnispass</a>&raquo; erh&auml;ltst du eine CHF 4 Reduktion auf das Tasting-Board mit sechs verschiedenen Biersorten des Liechtensteiner Brauhaus.</p>", "url": "https://braustube.li/raeume/seminarraeume/", "image": "https://ltmpimtsoch.sos-ch-dk-2.exoscale-cdn.com/catalog/9/c/f/a/9cfafc0de4721a455c0d501e7579499f641397cf_DSC_8359.jpg", "openstreetmap_id": "9992406417"}, "geometry": {"type": "Point", "coordinates": ["9.516080617904665", "47.17736366491086"]}}, {"type": "Feature", "properties": {"identifier": "63dbdc80-6c8f-4595-8a8e-5d8eb24a2b1b", "name": "Restaurant Mar\u00e9e", "description": "<p>Inspiriert von Natur und Saison zaubert Gault-Millau-Koch Hubertus Real mit seinem Team im Restaurant Mar\u00e9e immer wieder kulinarische K\u00f6stlichkeiten auf den Teller. Sei es ein festliches Men\u00fc oder ein stilvoller Business-Lunch. Nachmittags wird eine kleine Snackkarte angeboten.\u00a0</p><p>Die einfache Genialit\u00e4t der Speisen, der herzliche Charme und die ehrliche Gastfreundschaft machen jedes Essen im Mar\u00e9e zu einem kulinarisch unvergesslichen Erlebnis. F\u00fcr Hubertus Real liegt die Kunst darin:\u00a0\u00abDas richtige Produkt zu finden. Denn Qualit\u00e4t, Einzigartigkeit und Geschichte eines Produktes f\u00fchren zur entsprechenden Inspiration und damit zur Kreation.\u00bb\u00a0Und das kann er perfekt. Gespeist wird wahlweise im hochwertigen und zugleich gem\u00fctlichen Panoramarestaurant oder auf der einzigartigen Terrasse hoch \u00fcber Vaduz: dem Adlernest.</p><p>Ob Klassiker, wie die Kalbfleisch-Spinat Raviolini oder Rochenfl\u00fcgel in Brauner Butter mit Kapern oder aktuelle Saison-Hits, es ist f\u00fcr jeden etwas dabei. Auch vegetarische oder vegane Kulinarikfans finden etwas Feines.</p>", "url": "https://www.sonnenhof.li/", "image": "https://ltmpimtsoch.sos-ch-dk-2.exoscale-cdn.com/catalog/f/8/6/7/f867f6f870ae609a55f2559d3fb52c44881e3218_sonnenhof_restaurant_main_is.jpg", "openstreetmap_id": "node/315637069"}, "geometry": {"type": "Point", "coordinates": ["9.523376226425173", "47.147118381586665"]}}, {"type": "Feature", "properties": {"identifier": "65d4d0a9-1908-4787-9a3e-2d6a830c1878", "name": "Restaurant Heustr\u00e4ffl", "description": "<p>Der &laquo;Heustr&auml;ffl&raquo; ist ein fester Bestandteil in der Triesenberger Gastronomie und l&auml;dt zum Geniessen in entspannter Atmosph&auml;re ein. Auf der Men&uuml;&shy;karte finden sich Pizzen sowie Klassiker wie Schnitzel mit Pommes oder Cordon bleu.</p>", "url": "https://www.local.ch/de/d/triesenberg/9497/restaurant/restaurant-heustraeffl-7_AthOwczmbMNISUoJ7kNw", "image": "https://ltmpimtsoch.sos-ch-dk-2.exoscale-cdn.com/catalog/f/9/c/d/f9cd963676ac8d631263b8b53c4e11038c8e0f11_IMG_20251013_WA0005.jpg", "openstreetmap_id": "way/331281194"}, "geometry": {"type": "Point", "coordinates": ["9.54266667366028", "47.11281669604061"]}}, {"type": "Feature", "properties": {"identifier": "75cb85cf-5024-46d6-875f-9ee2223e695b", "name": "Mai Thai Restaurant", "description": "<p data-start=\"242\" data-end=\"503\">Ob gem\u00fctlich im stilvollen Innenbereich, entspannt im Garten oder ganz bequem als Take-away \u2013 hier geniesst du Thai-K\u00fcche, wie sie sein soll.&nbsp;</p>", "url": "http://www.maithai.li", "image": "https://ltmpimtsoch.sos-ch-dk-2.exoscale-cdn.com/catalog/8/0/2/b/802beaa300736164dec92761107a0adfe2f7fbb1_maithai_mauren.jpeg", "openstreetmap_id": "9783259744"}, "geometry": {"type": "Point", "coordinates": ["9.538391232490541", "47.216500240741745"]}}, {"type": "Feature", "properties": {"identifier": "7d3df5f5-eae7-4818-b3a4-32e74c452efd", "name": "Restaurant Kuro", "description": "<p>Das Restaurant Kuro ist ein Fast-Casual-Restaurant-Konzept, das sich auf asiatische und hawaiianische Gerichte spezialisiert. Mit aktuell zwei Standorten in Buchs (Schweiz) und Schaan bietet das Restaurant Kuro unter anderem folgende Speisen an:</p><ul><li><strong>Pok\u00e9 Bowls</strong>,\u00a0also ein hawaiianisches Gericht, welches die Wurzeln in der japanischen K\u00fcche hat und soviel wie \u00abdiagonal in St\u00fcckchen schneiden\u00bb bedeutet und meist mit rohem Fisch, Reis und Gem\u00fcse serviert wird</li><li><strong>Thai Gerichte</strong>\u00a0wie z.B. verschiedene Currys und thail\u00e4ndische Gerichte beispielsweise mit H\u00e4hnchen, Ente oder auch vegan / vegetarisch</li><li><strong>Frisches Sushi</strong>\u00a0wie z.B. Maki Rolls, California Rolls, Nigiri, bis hin zu Special Rolls</li><li><strong>Snacks</strong>\u00a0wie Gyoza, Fr\u00fchlingsrollen, Tempura Crevetten &amp; Edamame</li></ul>", "url": "https://www.kuro-restaurant.ch/", "image": "https://ltmpimtsoch.sos-ch-dk-2.exoscale-cdn.com/catalog/7/8/f/3/78f32f91e466e89f4af8ac26c1ced575a6da6eae_Kuro.jpeg", "openstreetmap_id": "995386798"}, "geometry": {"type": "Point", "coordinates": ["9.50914978981018", "47.16819228064153"]}}, {"type": "Feature", "properties": {"identifier": "87ff2765-c36d-4484-b216-00cb0fa47e2f", "name": "Restaurant Adler", "description": "<p>&laquo;K&uuml;che und Heimat&raquo; ist das Motto des Restaurants Adler in Vaduz. Regionale K&uuml;che ist kein Trend, sie ist die ewige Konstante in der Esskultur. Nat&uuml;rlich hat sich die K&uuml;che der Alpen den neuen Einfl&uuml;ssen angepasst und die Kochtechniken weiterentwickelt und modernisiert. Das Team des Restaurants Adler geht den Weg der modernen Tradition und spezialisiert sich auf Kreationen aus regionalen Produkten.</p><p>Drei Innenr&auml;ume sowie eine sch&ouml;ne Terrasse bieten eine Sitzplatzkapazit&auml;t f&uuml;r rund 140 Personen.</p>", "url": "http://www.adler.li", "image": "https://ltmpimtsoch.sos-ch-dk-2.exoscale-cdn.com/catalog/7/e/2/4/7e246a851dd5cfb874e1292e6524cdf51c26bd1b_IMG_8405.jpeg", "openstreetmap_id": "4338190789"}, "geometry": {"type": "Point", "coordinates": ["9.52095453445974", "47.14129652268152"]}}, {"type": "Feature", "properties": {"identifier": "913bebc4-8c72-4af4-99bf-c5877bb59fb7", "name": "B\u00e4ckerei Amann", "description": "<p class=\"isSelectedEnd\">Die B&auml;ckerei Konditorei Amann l&auml;dt nicht nur zum Mitnehmen, sondern auch zum Verweilen ein. Im gem&uuml;tlichen Innenbereich und auf den Sitzpl&auml;tzen im Aussenbereich kannst du t&auml;glich frische Backwaren, feine Konditoreispezialit&auml;ten und warme Mittagsgerichte direkt vor Ort geniessen.</p><p class=\"isSelectedEnd\">Ob zum Fr&uuml;hst&uuml;ck, f&uuml;r eine Kaffeepause oder zum Mittagessen: Die entspannte Atmosph&auml;re ist ideal f&uuml;r einen kurzen Zwischenstopp beim Stadtbummel oder eine genussvolle Pause in Vaduz. Die Bestellung erfolgt in Selbstbedienung an der Theke, anschliessend kannst du deine Auswahl bequem am gew&uuml;nschten Platz geniessen.</p><p>Mit dem&nbsp;<span style=\"text-align: center;\">&laquo;</span><a href=\"https://tourismus.li/angebote/freizeit/erlebnispass-2/all-inclusive-erlebnispass.html\">ALL INCLUSIVE Erlebnispass</a><span style=\"text-align: center;\">&raquo; erh&auml;ltst du hier 20% Rabatt auf einen einmaligen Einkauf.</span></p>", "url": "http://www.amann-ag.li", "image": "https://ltmpimtsoch.sos-ch-dk-2.exoscale-cdn.com/catalog/1/c/8/9/1c89cba738478360c14e67fd218b0c107844fc14_Amann3.jpg", "openstreetmap_id": "4581547546"}, "geometry": {"type": "Point", "coordinates": ["9.521402120590212", "47.1387091037243"]}}, {"type": "Feature", "properties": {"identifier": "92c80282-ba14-43af-80c2-f27f131c47e9", "name": "Restaurant Weinstube", "description": "<p>Die saisonal gepr\u00e4gte Speisekarte bietet regionale und internationale Gerichte sowie traditionelle Fonduespezialit\u00e4ten.</p><p>In der Weinstube wird grossen Wert auf einen verantwortungsbewussten Einkauf von lokalen Produkten gelegt.</p><p>Erlesene Weine aus dem reichhaltigen, hauseigenen Angebot machen das Abendessen in der Weinstube zum perfekten Genuss.</p>", "url": "http://www.weinstube.li", "image": "https://ltmpimtsoch.sos-ch-dk-2.exoscale-cdn.com/catalog/a/e/3/a/ae3a44bc2b82eaa7056c214e524638a0fb3e6086_170422_Webseite_Weinstube_Vinothek_Schaechle_341.jpg", "openstreetmap_id": "node/4132104566"}, "geometry": {"type": "Point", "coordinates": ["9.543852210044863", "47.19984966323448"]}}, {"type": "Feature", "properties": {"identifier": "98eec534-c288-4833-8310-d5ad93b2b17a", "name": "Red Mango", "description": "<p>Im Red Mango erwartet G&auml;ste eine authentische kulinarische Reise nach Thailand. Die Gerichte werden frisch zubereitet und basieren auf traditionellen Rezepten, insbesondere aus dem s&uuml;dlichen Teil des Landes. Typisch f&uuml;r die K&uuml;che sind frische Kr&auml;uter und Gew&uuml;rze wie Thai-Basilikum, Limettenbl&auml;tter, Galgant, Chili, Minze oder Thai-Curry, die dem Essen seine charakteristische Tiefe und Ausgewogenheit verleihen.&nbsp;Die Speisen sind leicht, gesund und aromatisch, serviert mit Reis oder Nudeln. Wer die Vielfalt der thail&auml;ndischen K&uuml;che in hoher Qualit&auml;t erleben m&ouml;chte, ist im Red Mango bestens aufgehoben.</p>", "url": "https://www.redmango.li/", "image": "https://ltmpimtsoch.sos-ch-dk-2.exoscale-cdn.com/catalog/6/3/6/d/636dbf4d536b48ba284848977d7f75dc75fd664b_red_mango_thai_restaurant_triesen.jpeg", "openstreetmap_id": "way/284115651"}, "geometry": {"type": "Point", "coordinates": ["9.52420771121979", "47.11721572539516"]}}, {"type": "Feature", "properties": {"identifier": "9d0491a0-7df8-46ce-ac41-061539d1063c", "name": "Gasthof Sch\u00e4fle", "description": "<p>Im Gasthof Sch\u00e4fle trifft gutb\u00fcrgerliche K\u00fcche auf charmant-urchiges Ambiente.</p>", "url": "http://www.schaefle.li", "image": "https://ltmpimtsoch.sos-ch-dk-2.exoscale-cdn.com/catalog/a/f/3/0/af3096bc387e9ade5b7e79f32301b4bc5874cc29_gasthof_schaefle.jpeg", "openstreetmap_id": "way/1057550330"}, "geometry": {"type": "Point", "coordinates": ["9.52495872974396", "47.10832969918287"]}}, {"type": "Feature", "properties": {"identifier": "a741b918-db57-4b10-9bb3-9b0c65421ba6", "name": "Red Mango Thai Takeaway", "description": "<p>Das Essen ist einzigartig und konzentriert sich auf authentische thail\u00e4ndische Aromen, die zum gr\u00f6ssten Teil aus der s\u00fcdlichen Region Thailands stammen. Diese K\u00fcche ist leicht, gesund und ausgeglichen. Zu den Hauptgerichten gibt es Reis oder Nudeln.<br></p>", "url": "https://www.redmango.li/vaduz2/", "image": "https://ltmpimtsoch.sos-ch-dk-2.exoscale-cdn.com/catalog/e/f/c/b/efcb54c5fe4b616492d250f5eb718ba11a959be5_redmango_vaduz.jpeg", "openstreetmap_id": "way/514732573"}, "geometry": {"type": "Point", "coordinates": ["9.520490169525146", "47.14121593721147"]}}, {"type": "Feature", "properties": {"identifier": "a95c3dd3-11d4-4fdc-a105-9d188070422e", "name": "Caf\u00e9 Etagere", "description": "<p>Bei den Milchgetr\u00e4nken hat der Gast die Wahl zwischen Voll-, Soja-, Mager- sowie lactosefreier Milch. Dazu gibt es ofenfrische Br\u00f6tchen, Croissants und eine gesunden Ecke. Als Imbiss hat das Caf\u00e9 eine Auswahl an t\u00e4glich frischen kalten und warmen Sandwiches sowie Salaten und im Winter Suppen. S\u00fcsses sowie Antipasti zum Bier oder C\u00fcpli runden das Angebot ab.</p>", "url": "https://www.greber-ag.li/Genusswelt", "image": "https://ltmpimtsoch.sos-ch-dk-2.exoscale-cdn.com/catalog/8/c/9/2/8c92a9fe8c28bcb89c7419ba0242d4e6241eb893_IMG_3363.jpeg", "openstreetmap_id": "node/6508913012"}, "geometry": {"type": "Point", "coordinates": ["9.520576000213625", "47.14165378715341"]}}, {"type": "Feature", "properties": {"identifier": "b565cbc7-5277-4ce3-926a-732cea198610", "name": "Restaurant Turna", "description": "<p>Hier steht der Chef pers&ouml;nlich in der K&uuml;che und kreiert spitzengastronomische Gerichte aus gesunden, regionalen Zutaten.</p><p data-start=\"226\" data-end=\"481\" data-is-last-node=\"\" data-is-only-node=\"\">K&ouml;stliche heimische Spezialit&auml;ten und verlockende internationale Kreationen kommen frisch auf den Tisch und machen jedes Essen zu einem Genussmoment. Dazu ein gutes Glas Wein und ein wunderbares Ambiente &ndash; perfekt f&uuml;r alle, die mit Leidenschaft geniessen.</p>", "url": "http://www.turna.li", "image": "https://ltmpimtsoch.sos-ch-dk-2.exoscale-cdn.com/catalog/a/e/e/a/aeead679efb1dfe27fdb5930b17c91691e4a01e1_Hotel_Turna_Aussenansicht_Sommer.jpg", "openstreetmap_id": "210655048"}, "geometry": {"type": "Point", "coordinates": ["9.610810875892641", "47.10108906089811"]}}, {"type": "Feature", "properties": {"identifier": "b9a6a19b-366c-4fc6-9a0a-d92e5fe3cbe8", "name": "Gsund & munter", "description": "<p>Es werden haupts&auml;chlich regionale und saisonale Zutaten verwendet - f&uuml;r maximale Frische und Geschmack. Die Gerichte sind von der traditionellen K&uuml;che inspiriert, um Gesundheit und Genuss zu vereinen.&nbsp;</p><p>In einem gem&uuml;tlichen Ambiente kannst du das Essen auch vor Ort im modern eingerichteten Gastraum zu dir nehmen.&nbsp;</p>", "url": "https://www.gsundundmunter.li/", "image": "https://ltmpimtsoch.sos-ch-dk-2.exoscale-cdn.com/catalog/1/b/0/b/1b0bd4dd4729a15f8272af856ba2b222dfc111b3_Theke.jpg", "openstreetmap_id": "/way/240820602"}}, {"type": "Feature", "properties": {"identifier": "bafcdd1c-afe6-4138-8609-053b0e548151", "name": "Dorfbeck D\u00f6rig", "image": "https://ltmpimtsoch.sos-ch-dk-2.exoscale-cdn.com/catalog/c/5/8/a/c58a0a82d763ff7a9c697494febab5ae93dd6d6d_dorfbeck_doerig_vaduz.jpeg", "openstreetmap_id": "way/515889125"}, "geometry": {"type": "Point", "coordinates": ["9.522748589515688", "47.14219017079915"]}}, {"type": "Feature", "properties": {"identifier": "bc230825-9fcc-4dd7-b5da-a3309af47a38", "name": "Liechtensteinisches SchlossCaf\u00e9", "description": "<p data-start=\"427\" data-end=\"644\">Bei sch&ouml;nem Wetter l&auml;dt das Gartencaf&eacute; zum Verweilen ein. F&uuml;r Familien bietet das Caf&eacute; eine Kinderoase, in der sich die kleinen G&auml;ste spielerisch austoben k&ouml;nnen.</p><p data-start=\"646\" data-end=\"847\">Ein besonderes Highlight ist der beliebte WaffelSonntag: Jeweils am 1. und 2. Sonntag im Monat werden von 10:00 bis 17:00 Uhr frisch gebackene Waffeln serviert.</p><p data-start=\"849\" data-end=\"1023\">Das SchlossCaf&eacute; ist auch ohne Eintritt ins Liechtensteinische LandesMuseum zug&auml;nglich und eignet sich perfekt f&uuml;r eine Pause beim Besuch der Vaduzer Museums- und Kulturmeile.</p>", "url": "https://www.landesmuseum.li/de/landesmuseum-besuch-schlosscafe#", "image": "https://ltmpimtsoch.sos-ch-dk-2.exoscale-cdn.com/catalog/8/f/0/4/8f04d6526dbf7f205806567a79707f52caf2bb6f_Liechtensteinisches_LandesMuseum_Vaduz.jpeg", "openstreetmap_id": "way/243055643"}, "geometry": {"type": "Point", "coordinates": ["9.522668123245241", "47.13818057952994"]}}, {"type": "Feature", "properties": {"identifier": "c0028185-293a-4ec4-9382-cac19a221bff", "name": "Restaurant Forum", "description": "<p>Auf der Speisekarte stehen Klassiker wie Schnitzel, Cordon Bleu und Kalbsgeschnetzeltes mit R\u00f6sti. Zum Dessert werden verschiedene Coupes und andere s\u00fcsse Leckereien angeboten.</p>", "url": "https://www.facebook.com/RestaurantForumSchaan/", "image": "https://ltmpimtsoch.sos-ch-dk-2.exoscale-cdn.com/catalog/5/a/8/e/5a8edf58ec3aae621749457e3e7585c5a9729230_restaurant_forum_schaan.jpeg", "openstreetmap_id": "120583011"}, "geometry": {"type": "Point", "coordinates": ["9.507063031196596", "47.15710424723084"]}}, {"type": "Feature", "properties": {"identifier": "c60545ec-1e01-4daa-8491-1acb038c3b4f", "name": "TANG Restaurant", "description": "<p>Das TANG Restaurant in Ruggell l\u00e4dt zu einer kulinarischen Reise durch die traditionelle chinesische K\u00fcche ein. Die Gerichte werden mit frischen, saisonalen Gem\u00fcsesorten und hochwertigen Fleischprodukten aus der Region kombiniert, um ein harmonisches Geschmackserlebnis zu schaffen. In einem einladenden Ambiente wird grosser Wert auf Gastfreundschaft gelegt, w\u00e4hrend sorgf\u00e4ltig zubereitete Spezialit\u00e4ten serviert werden.</p>", "url": "http://www.tang-restaurant.com", "image": "https://ltmpimtsoch.sos-ch-dk-2.exoscale-cdn.com/catalog/c/7/0/d/c70dc4daade7f4f26e0a3aa951f78506bd0adad1_tang_restaurant_ruggell.jpeg", "openstreetmap_id": "977570463"}, "geometry": {"type": "Point", "coordinates": ["9.526909452743533", "47.24214621365317"]}}, {"type": "Feature", "properties": {"identifier": "d9c0c311-2a3f-4067-adec-b9534063e3cd", "name": "Restaurant Pedroni", "description": "<p>Marco kocht f\u00fcr dich feine saisonale und regionale Gerichte, ob f\u00fcr traute Zweisamkeit oder in geselliger Runde.\u00a0Ingo mixt feine Hauscocktails und ber\u00e4t dich gerne bei der Weinauswahl.</p><p>Mittags hast du die Wahl zwischen verschiedenen Hauptgerichten.\u00a0Abends erwarten dich feine K\u00f6stlichkeiten aus Marcos K\u00fcche.</p>", "url": "https://www.pedroni.li/index.html", "image": "https://ltmpimtsoch.sos-ch-dk-2.exoscale-cdn.com/catalog/8/d/7/4/8d7414b82423df37473be633adf5fcf49be07e23_restaurant_pedroni_triesen.jpeg", "openstreetmap_id": "node/570116974"}, "geometry": {"type": "Point", "coordinates": ["9.525361061096193", "47.108344301751806"]}}, {"type": "Feature", "properties": {"identifier": "e583b332-e98c-49e0-bdb4-f76367838210", "name": "B\u00e4ckerei W\u00fcst Balzers", "description": "<p>Neben ofenfrischen Broten und Kleingeb&auml;ck bietet die B&auml;ckerei eine feine Auswahl an Sandwiches, Salaten und s&uuml;ssen Desserts. Wer Schokolade liebt, wird hier ebenso f&uuml;ndig wie Kaffee-Liebhaber. In der Gelateria warten saisonale Glacesorten, und f&uuml;r kleine Aufmerksamkeiten stehen s&uuml;sse Geschenkideen bereit.</p>", "image": "https://ltmpimtsoch.sos-ch-dk-2.exoscale-cdn.com/catalog/9/a/9/7/9a97dc3e4b6fe969897414a54ea8065df7d49acb_baeckerei_wuest_balzers.jpeg", "openstreetmap_id": "way/450223288"}, "geometry": {"type": "Point", "coordinates": ["9.512309432029726", "47.07555101549962"]}}, {"type": "Feature", "properties": {"identifier": "f4a91747-0d0f-4f48-8355-58ce90b51d62", "name": "Landgasthof M\u00fchle", "description": "<p>Im Landgasthof R&ouml;ssle trifft regionale K&uuml;che auf moderne, kreative Ideen. Viele Zutaten kommen direkt von Produzenten aus der Region und werden saisonal ausgew&auml;hlt. Dazu pr&auml;gen viel Holz und gelebte Gastfreundschaft den Charakter des Hauses.</p>", "url": "https://muehle.li/", "image": "https://ltmpimtsoch.sos-ch-dk-2.exoscale-cdn.com/catalog/f/4/5/f/f45f0d84ed38c19b5b1b231ac6dadf696a7c40a6_DSC_2234.jpg", "openstreetmap_id": "way/183330544"}, "geometry": {"type": "Point", "coordinates": ["9.510748386383058", "47.15478836282747"]}}, {"type": "Feature", "properties": {"identifier": "f6c92735-fbaa-4637-9fcf-a03d371b343c", "name": "Restaurant Vibes", "description": "<p>Das Vibes bietet eine vielf\u00e4ltige Auswahl an gesunden Speisen \u2013 von Bowls und Wraps bis hin zu Burgern und Kebab, t\u00e4glich frisch zubereitet. Auch f\u00fcr vegetarische G\u00e4ste gibt es eine grosse Auswahl an frischen Salaten, Gem\u00fcsebowls und vegetarischen Wraps.</p>", "url": "http://www.vibes-restaurants.ch/", "image": "https://ltmpimtsoch.sos-ch-dk-2.exoscale-cdn.com/catalog/9/1/9/2/9192da611fd5ccf4e8bd06d6ba376a72a68b0267_vibes_schaan.jpeg", "openstreetmap_id": "592637235"}, "geometry": {"type": "Point", "coordinates": ["9.509514570236208", "47.16720757908152"]}}]}