{"type": "FeatureCollection", "features": [{"type": "Feature", "properties": {"identifier": "019149c0-3ffb-4bee-ae42-6ccd302e9242", "name": "Restaurant Seeblick", "description": "<p>Das Restaurant serviert eine gutb\u00fcrgerliche K\u00fcche in gem\u00fctlicher Atmosph\u00e4re. Auf der Speisekarte stehen Klassiker wie \u00abK\u00e4skn\u00f6pfle\u00bb, R\u00f6sti und Schnitzel.</p>", "url": "https://www.seeblick.li/", "image": "https://ltmpimtsoch.sos-ch-dk-2.exoscale-cdn.com/catalog/e/a/3/d/ea3d0c6c92edd624f0eb6c1aa35d6d3005ea88f8_restaurant_seeblick_steg_liechtenstein.jpeg", "openstreetmap_id": "way/218439584"}, "geometry": {"type": "Point", "coordinates": ["9.576081633567812", "47.10868778131608"]}}, {"type": "Feature", "properties": {"identifier": "093f022f-a08c-421b-b445-f73c7a91c4b2", "name": "Restaurant Kulm", "description": "<p>Das Restaurant Kulm liegt auf 880\u202fm\u202f&uuml;.\u202fM. im gleichnamigen Hotel in Triesenberg und bietet eine einzigartige Kombination aus kulinarischem Genuss und idyllischer Bergkulisse &uuml;ber dem Rheintal. Besonders der Wintergarten begeistert mit einer der sch&ouml;nsten Aussichten im F&uuml;rstentum &ndash; ein Ort, an dem sich regionale Spezialit&auml;ten und saisonale Gerichte in entspannter Atmosph&auml;re besonders gut geniessen lassen.</p>", "url": "http://www.hotelkulm.li", "image": "https://ltmpimtsoch.sos-ch-dk-2.exoscale-cdn.com/catalog/0/5/b/9/05b935962f695ec7646250246dbcb392baa404f4_restaurant_hotel_kulm_triesenberg.jpeg", "openstreetmap_id": "6896394275"}, "geometry": {"type": "Point", "coordinates": ["9.542742774984024", "47.11828387074247"]}}, {"type": "Feature", "properties": {"identifier": "096c0849-bef8-4e5f-8c0f-3c8e720bfdb9", "name": "Restaurant kommod", "description": "<p>Du wirst das reichhaltige Fr\u00fchst\u00fccksbuffet, die leckere Jause am Vormittag und das t\u00e4glich wechselnde Mittagsmen\u00fc lieben.</p><p>Das Restaurant bietet Platz f\u00fcr rund 100 Personen \u2013 in Kombination mit dem angrenzenden Restaurant \u00abtenn\u00bb k\u00f6nnen hier bis zu 160 G\u00e4ste Firmenfeiern oder private Events geniessen.</p>", "url": "http://www.kommod.li", "image": "https://ltmpimtsoch.sos-ch-dk-2.exoscale-cdn.com/catalog/d/7/3/3/d733fc5cfe25504e7e8feb47140f5ff63636dac6_kommod_hotel_restaurant_ruggell_liechtenstein.jpeg", "openstreetmap_id": "9169393281"}, "geometry": {"type": "Point", "coordinates": ["9.527982607184045", "47.248690142121966"]}}, {"type": "Feature", "properties": {"identifier": "1487ded2-a655-4475-a5ac-b0ff429ed86a", "name": "Restaurant Lisbeth", "description": "<p class=\"_28USrA GEC0sA XN6uKA\"><span class=\"a_GcMg\">Im&nbsp;Kloster St. Elisabeth in Schaan&nbsp;empf&auml;ngt das&nbsp;Restaurant Lisbeth<span class=\"a_GcMg\"> seine G&auml;ste an&nbsp;einem Ort, der Ruhe, Weite und Genuss verbindet.</span></span></p><p class=\"_28USrA GEC0sA XN6uKA\"><span class=\"a_GcMg\">K&uuml;chenchef und Gastgeber Stephan Forsil&nbsp;</span><span class=\"a_GcMg\">vereint in seiner italo-asiatischen K&uuml;che feine Aromen, moderne Leichtigkeit und handwerkliche Pr&auml;zision. Verarbeitet werden hochwertige Produkte sowie frische, erlesene Kr&auml;uter direkt aus dem Klostergarten - klar, aromatisch und voller Geschmack.</span></p><p class=\"_28USrA GEC0sA XN6uKA\"><span class=\"a_GcMg\">Dazu kommen sorgf&auml;ltig ausgew&auml;hlte Weine, Kaffeespezialit&auml;ten aus der kleinen Manufaktur eines befreundeten R&ouml;sters und</span> <span class=\"a_GcMg\">der unvergleichliche Blick auf das&nbsp;Schweizer Alpenpanorama.</span></p>", "url": "https://restaurantlisbeth.li/", "image": "https://ltmpimtsoch.sos-ch-dk-2.exoscale-cdn.com/catalog/7/b/1/5/7b158f0776f1caa50a726a96f4e96c684c507533_restaurant_lisbeth_kloster_schaan.jpeg", "openstreetmap_id": "11227602753"}, "geometry": {"type": "Point", "coordinates": ["9.519867897033693", "47.16673710340733"]}}, {"type": "Feature", "properties": {"identifier": "1a46f8fc-170f-4fd8-a397-7354f7bb6739", "name": "Berggasthaus MATU", "description": "<p>Wenn du nach einem Ort suchst, der nicht nur k\u00f6stliche&nbsp;Bio-Gerichte&nbsp;serviert, sondern auch inmitten atemberaubender Natur liegt, dann heisst dich das Matu herzlich willkommen. Das Team freut sich darauf, dich in dem idyllisch gelegenen&nbsp;Berggasthaus Matu begr\u00fcssen zu d\u00fcrfen und dir unvergessliche Erlebnisse zu bereiten.</p> <p>Das Berggasthaus Matu bietet nicht nur eine kulinarische Oase mit&nbsp;Bio-Spezialit\u00e4ten, sondern auch eine wahre Naturoase. Von der Panorama-Terrasse aus kannst du den Blick \u00fcber das malerische Rheintal schweifen lassen und die majest\u00e4tische Alvierkette bewundern. Hier, umgeben von unber\u00fchrter Natur, kannst du herrlich entspannen und neue Energie tanken.</p>", "url": "http://www.matu.li/", "image": "https://ltmpimtsoch.sos-ch-dk-2.exoscale-cdn.com/catalog/a/a/8/3/aa83b3db75329f72dae9f3e3ae32a76d2fa6ee00_berggasthaus_matu_gaflei_liechtenstein.jpeg", "openstreetmap_id": "121993413"}, "geometry": {"type": "Point", "coordinates": ["9.544324590083011", "47.138444395759215"]}}, {"type": "Feature", "properties": {"identifier": "23aed662-7956-417f-b8b5-9431c4c09789", "name": "J\u00e4gerstube zum Kreuz", "description": "<p>Die J\u00e4gerstube Zum Kreuz ist weitherum bekannt f\u00fcr die sch\u00f6ne Gaststube und den herrlichen Biergarten mit Aussicht auf die Dreischwestern-Bergkette und den Hohen Kasten.</p>", "url": "http://www.kreuz.li", "image": "https://ltmpimtsoch.sos-ch-dk-2.exoscale-cdn.com/catalog/f/1/8/5/f18585573fb4e158245b733933bacbdbd16a2ec8_jaegerstube_zum_kreuz_schellenberg.jpeg", "openstreetmap_id": "node/819181573"}, "geometry": {"type": "Point", "coordinates": ["9.54689383506775", "47.22957575081231"]}}, {"type": "Feature", "properties": {"identifier": "25477eff-8659-4d8b-9911-111abd0d694e", "name": "Georg Brot & Kaffee", "description": "<p>Ein perfekter Cappuccino entsteht, wenn Espresso, frische Milch und cremiger Milchschaum harmonisch zusammenspielen. Bei Georg Brot &amp; Kaffee zaubern erfahrene Baristas kunstvolle Cappuccinos &ndash; auch bekannt als &laquo;Latte Art&raquo;.</p><p>F&uuml;r das feine Geb&auml;ck in der Patisserie kommen nur die besten Zutaten zum Einsatz: aromatische Beeren, saftige Aprikosen, knackige &Auml;pfel und s&uuml;sse Kirschen. Ob eckig, rund oder in besonderen Gr&ouml;ssen &ndash; luftige Quarktorten, cremige Rahmtorten oder klassische Zuger Kirschtorten machen jede Kaffeepause zum Genuss.</p><p>Von Montag bis Freitag zwischen 11:30 und 13:00 Uhr gibt es zudem k&ouml;stliche Mittagsmen&uuml;s. Die Karte bietet eine zus&auml;tzliche Auswahl.</p>", "url": "https://www.georg.li/", "image": "https://ltmpimtsoch.sos-ch-dk-2.exoscale-cdn.com/catalog/f/9/1/d/f91df79b99385e78ba5db48ab90e5bde8829704f_georg_brot_kaffee_eschen_liechtenstein.jpeg", "openstreetmap_id": "4759711537"}, "geometry": {"type": "Point", "coordinates": ["9.523075819015505", "47.21244102030644"]}}, {"type": "Feature", "properties": {"identifier": "28fa0ecb-c1a2-4035-99c2-0e40291b5168", "name": "b_smart restaurant", "description": "<p><span style=\"text-align: center;\">Hier sind Hotelg\u00e4ste genauso willkommen wie Locals \u2013 zum Gesch\u00e4ftsessen oder zum gem\u00fctlichen Abschluss des Tages, auf einen Cocktail, ein Glas Wein oder auf ein Feierabendbier.</span></p><p><span style=\"text-align: center;\">Die Men\u00fckarte \u00fcberzeugt mit einer Auswahl an Klassikern wie dem&nbsp;</span><span style=\"box-sizing: inherit; text-align: center;\">b_smart-Burger</span><span style=\"text-align: center;\">&nbsp;mit Tr\u00fcffel Fries und der&nbsp;</span><span style=\"box-sizing: inherit; text-align: center;\">hausgemachten Pasta</span><span style=\"text-align: center;\">&nbsp;oder regelm\u00e4ssig wechselnden saisonalen Highlights.</span><br></p>", "url": "https://www.b-smarts.net/bendern/restaurant", "image": "https://ltmpimtsoch.sos-ch-dk-2.exoscale-cdn.com/catalog/f/0/4/9/f0494bad92c4807a461cb03e2714b033e6ef36e0_b_smart_restaurant_bendern_liechtenstein.jpeg", "openstreetmap_id": "way/984924361"}, "geometry": {"type": "Point", "coordinates": ["9.502051063802105", "47.20533694585859"]}}, {"type": "Feature", "properties": {"identifier": "292d0fb8-7b47-45fd-bbea-4aed789cfc49", "name": "Restaurant Gasthaus Krone", "description": "<p>Unter dem Schatten eines pr&auml;chtigen Kastanienbaums entspannen und den Sommer in vollen Z&uuml;gen geniessen: Die Gartenterrasse des Landgasthofs Krone in Schellenberg ist der perfekte Ort daf&uuml;r.</p><p>Freu dich auf eine gutb&uuml;rgerliche K&uuml;che mit regionalen Spezialit&auml;ten. Besonders empfehlenswert: Grillabende mit saftigen Spareribs vom Holzkohlengrill.</p>", "url": "http://www.hotelkrone.li", "image": "https://ltmpimtsoch.sos-ch-dk-2.exoscale-cdn.com/catalog/2/5/9/1/2591823b9ca32be246ff47811f55191b11a63beb_restaurant_gasthaus_krone_schellenberg.jpeg", "openstreetmap_id": "way/979391079"}, "geometry": {"type": "Point", "coordinates": ["9.547001123428347", "47.231367977011566"]}}, {"type": "Feature", "properties": {"identifier": "30707859-1c9a-49e9-a900-b5f261068150", "name": "Restaurant Falknis", "description": "<p>Im gem\u00fctlich eingerichteten Restaurant wirst du mit gutb\u00fcrgerlicher K\u00fcche verw\u00f6hnt. Das Team serviert dir gerne hochwertige Fleischspezialit\u00e4ten aus eigener Produktion, die du auch direkt im Metzgereifachgesch\u00e4ft erwerben kannst.</p>", "url": "https://www.falknis.li/restaurant.html", "image": "https://ltmpimtsoch.sos-ch-dk-2.exoscale-cdn.com/catalog/1/6/d/5/16d5367f0bcc664f0b5b3ea5e9cfbbcc493f461f_restaurant_falknis_balzers.jpeg", "openstreetmap_id": "9794337454"}, "geometry": {"type": "Point", "coordinates": ["9.49602596473949", "47.06054229851574"]}}, {"type": "Feature", "properties": {"identifier": "35b3f8ec-4334-434f-8691-33bf5d52a16a", "name": "Made in Italy", "description": "<p>Italienisches Flair mitten in Vaduz: K\u00f6stliches Essen und gem\u00fctliche Atmosph\u00e4re laden inl\u00e4ndische und ausl\u00e4ndische G\u00e4ste zum Geniessen ein.</p>", "url": "http://www.made-in-italy.li", "image": "https://ltmpimtsoch.sos-ch-dk-2.exoscale-cdn.com/catalog/e/d/5/0/ed50e8893a31b008ca816a4c24d4cde38f5b5f57_image00001.jpeg", "openstreetmap_id": "3514910125"}, "geometry": {"type": "Point", "coordinates": ["9.520243406295778", "47.14161724387356"]}}, {"type": "Feature", "properties": {"identifier": "37dae97e-639a-45a8-8d53-d32ad0ead8a2", "name": "Balu B\u00e4ckerei Konditorei", "description": "<p>Das helle Ambiente l\u00e4dt ein, ein Fr\u00fchst\u00fcck mit feinem Espresso, ein Mittagessen oder ein St\u00fcck Torte zu geniessen. Das Angebot an Brotprodukten, Patisserie und Sandwiches ist gross. Zudem sind t\u00e4glich frische Salate, Wraps und Convenience Menus erh\u00e4ltlich.</p>", "url": "http://www.baluvaduz.li", "image": "https://ltmpimtsoch.sos-ch-dk-2.exoscale-cdn.com/catalog/1/1/2/9/11297b88555eeb33901c3ddf09c8dfe2e8cb63cf_balu.jpeg", "openstreetmap_id": "4759754443"}, "geometry": {"type": "Point", "coordinates": ["9.52284932380162", "47.14051281744882"]}}, {"type": "Feature", "properties": {"identifier": "3f8f1243-9710-4a72-8ad2-12fff80c0008", "name": "Dolce Gusto", "description": "<p>Das Ristorante &amp; Pizzeria Dolce Gusto begeistert mit einer t\u00e4glich frischen Auswahl an Pasta, knusprigen Pizzen aus dem Holzofen, sowie Fisch- und Fleischgerichten. Das Restaurant bietet Platz f\u00fcr 150 G\u00e4ste in einem modernen, typisch italienischen Ambiente. In den warmen Monaten erweitert die Terrasse im Innenhof das Platzangebot und l\u00e4dt zum entspannten Genuss ein.</p>", "url": "https://ristorantedolcegusto.li/", "image": "https://ltmpimtsoch.sos-ch-dk-2.exoscale-cdn.com/catalog/7/f/0/0/7f00fccd2fe4f158930d5e3d7f04034cce60e588_dolce_gusto_schaan_restaurant.jpeg", "openstreetmap_id": "998424255"}, "geometry": {"type": "Point", "coordinates": ["9.508296847343447", "47.16565756092783"]}}, {"type": "Feature", "properties": {"identifier": "41621cc9-56f3-4a0f-8cdc-91ca476452ec", "name": "KOKON Restaurant", "description": "<p>Die internationale K\u00fcche im KOKON verspricht globalen Genuss mit lokalen Spezialit\u00e4ten. Dank der Showk\u00fcche des Restaurants kannst du den K\u00fcchenchefs bei der Zubereitung ihrer Kreationen jederzeit \u00fcber die Schulter blicken. Das Restaurant ist ein idealer Treffpunkt zu jeder Gelegenheit \u2013 f\u00fcr ein anregendes Mittagsessen als willkommene Pause, das wohl verdiente Bier mit Freunden nach der Arbeit, oder das stimmungsvolle Dinner mit erlesenen Weinen und Lavasteingrill am Abend.</p>", "url": "http://www.kokon-restaurant.li", "image": "https://ltmpimtsoch.sos-ch-dk-2.exoscale-cdn.com/catalog/6/8/9/9/689912a5d9d65ae1b1b031c4a43f4258654e920a_kokon_restaurant_ruggell_liechtenstein.jpeg", "openstreetmap_id": "9169400768"}, "geometry": {"type": "Point", "coordinates": ["9.52668070793152", "47.24928683800602"]}}, {"type": "Feature", "properties": {"identifier": "42c9a17a-c7c4-4083-a8bc-92b09e92622f", "name": "Pizzeria il Salento", "description": "<p>Die Pizzaria il Salento liegt an der Hauptstrasse in der Gemeinde Triesen. Bekannt ist das Lokal f\u00fcr seine riesigen Pizzas, die mit ihrem hauchd\u00fcnnen und knusprigen Boden eine wahre italienische Gaumenfreude sind.</p>", "url": "https://www.ilsalento.li/", "image": "https://ltmpimtsoch.sos-ch-dk-2.exoscale-cdn.com/catalog/2/0/8/6/2086078c55cbd1257f576405e6952b2b503a5730_pizzeria_il_salento_triesen.jpeg", "openstreetmap_id": "284115676"}, "geometry": {"type": "Point", "coordinates": ["9.524062992885353", "47.11693398998602"]}}, {"type": "Feature", "properties": {"identifier": "46c2753d-c7b0-4338-bc5e-569dfc7bf2da", "name": "Zwei Bar & Lounge", "description": "<p data-start=\"159\" data-end=\"401\">Seit 2004 ist die Bar&nbsp;der Place-to-be in Vaduz. Ob DJ-Sounds am Wochenende, Sommerfeeling in der Outdoor-Bar oder winterlicher Charme in der Zweinachtsbar mit Gl\u00fchwein und Raclette \u2013 hier ist immer etwas los.</p>", "url": "http://www.zwei.li/#!about", "image": "https://ltmpimtsoch.sos-ch-dk-2.exoscale-cdn.com/catalog/6/2/a/f/62af15b9f6a56a782bee2b79ebd13d9edba0c602_zwei_bar_lounge_vaduz.jpeg", "openstreetmap_id": "4759724324"}, "geometry": {"type": "Point", "coordinates": ["9.521766944334704", "47.1392976319315"]}}, {"type": "Feature", "properties": {"identifier": "48e9d296-7a41-43d5-809d-32ac4c77e9a6", "name": "LUDWIGS \u2013 Caf\u00e9 am Sonnenplatz", "description": "<p>Geniesse ein Fr\u00fchst\u00fcck, einen Kaffee mit k\u00f6stlichem Kuchen oder entdecke eine Auswahl an Speisen f\u00fcr den Genuss vor Ort oder  unterwegs. Das warme Ambiente l\u00e4dt zu entspannten Momenten ein.</p>", "url": "https://ludwigs.li/", "image": "https://ltmpimtsoch.sos-ch-dk-2.exoscale-cdn.com/catalog/c/e/5/e/ce5e22d8bd042af22b730579e7a398a1debc3a11_ludwigs_cafe_sonnenplatz_triesen.jpeg", "openstreetmap_id": "way/1058885825"}, "geometry": {"type": "Point", "coordinates": ["9.525350332260134", "47.10916232934824"]}}, {"type": "Feature", "properties": {"identifier": "4b6176fd-5f48-46c5-8e3e-b0a50fb78c1b", "name": "Restaurant Schneeflucht", "description": "<p>In der gem\u00fctlichen Gaststube oder auf der Sonnenterrasse l\u00e4sst es sich bestens entspannen, w\u00e4hrend man die Bergwelt geniesst. Die wechselnden Tagesangebote sorgen f\u00fcr Abwechslung und auf der Speisekarte finden sich auch beliebte Gerichte f\u00fcr Kinder \u2013 perfekt f\u00fcr eine St\u00e4rkung nach dem Pistenvergn\u00fcgen.</p><p>Das Restaurant ist ein reiner Winterbetrieb und ist nur w\u00e4hrend der Skisaison offen.</p>", "url": "https://www.schneeflucht.li/", "image": "https://ltmpimtsoch.sos-ch-dk-2.exoscale-cdn.com/catalog/3/3/6/1/3361f5967dc95120f8cf8fdd2e9d8f170e990f83_restaurant_schneeflucht_malbun_liechtenstein.jpeg", "openstreetmap_id": "way/300512348"}, "geometry": {"type": "Point", "coordinates": ["9.599508047103884", "47.109530878671784"]}}, {"type": "Feature", "properties": {"identifier": "4bf92b3a-5798-476c-9eaa-7575823fe7d8", "name": "Berggasthaus Masescha", "description": "<p>Das Restaurant lockt mit zwei typischen Walserst\u00fcbli, einem Speisesaal und einer Sonnenterrasse, die einen spektakul\u00e4ren Blick auf das Rheintal und die Bergwelt er\u00f6ffnet.&nbsp;</p><p>Auf der Karte findet man wechselnde saisonale Gerichte aus vorwiegend regionalen Zutaten. Die beliebten&nbsp;\u00abMasescha\u00bb Klassiker, wie das Geschnetzelte mit R\u00f6sti, das Wiener Schnitzel oder das Cordon Bleu sind immer erh\u00e4ltlich. \u00dcber die Grenzen bekannt ist \u00abMaria\u2019s gedeckter Apfelkuchen\u00bb, dessen Rezept seit vielen Jahren ein streng geh\u00fctetes Familiengeheimnis ist.</p><p>Das Berggasthaus eignet sich f\u00fcr Sitzungen und Anl\u00e4sse jeglicher Art.</p>  ", "url": "http://www.masescha.li", "image": "https://ltmpimtsoch.sos-ch-dk-2.exoscale-cdn.com/catalog/8/b/d/5/8bd5c9c698117b43b19973e356436f9ec8d1f3ef_berggasthaus_masescha_liechtenstein.jpeg", "openstreetmap_id": "158677256"}, "geometry": {"type": "Point", "coordinates": ["9.543678589739589", "47.131928756890275"]}}, {"type": "Feature", "properties": {"identifier": "4c0a9c15-8f57-4a60-8fff-b840e3e33241", "name": "Hoi-Laden", "description": "<p>Das ausgew&auml;hlte Sortiment reicht von Papierwaren, B&uuml;chern, Kinderbekleidung, lokalen Lebensmitteln bis hin zu auserlesenen Dingen f&uuml;r den K&uuml;chenbedarf oder die Freizeit. Alle Produkte haben eines gemeinsam: Sie werden mit Liebe zum Detail entwickelt und mit Sorgfalt f&uuml;r die Kunden ausgesucht. Ein St&uuml;ck Heimatgef&uuml;hl als Geschenk f&uuml;r Familienangeh&ouml;rige, Freunde, Bekannte, Arbeitskollegen aus dem In- und Ausland oder f&uuml;r sich selbst.</p><p>Mit dem &laquo;<a href=\"https://tourismus.li/angebote/freizeit/erlebnispass-2/all-inclusive-erlebnispass.html\">ALL INCLUSIVE Erlebnispass</a>&raquo; geniesst du im Hoi-Laden kostenlos ein Glas f&uuml;rstlicher Wein, Traubensaft oder einen 32PeaksGin-Tonic.</p>", "url": "http://www.hoi-laden.li", "image": "https://ltmpimtsoch.sos-ch-dk-2.exoscale-cdn.com/catalog/3/4/0/6/34061ff98d015a1023178e3ab0d257f3b98628ef_2022_07_12_Kulturzentrum_Vaduz_0790.JPG", "openstreetmap_id": "node/3685641268"}, "geometry": {"type": "Point", "coordinates": ["9.522749636365354", "47.139283370330254"]}}, {"type": "Feature", "properties": {"identifier": "4d98751d-cf02-45bf-8662-4f48e23aca67", "name": "Restaurant Lio", "description": "<p>Neben Steaks vom 800\u00b0 Southbend Grill, Pizzen aus dem neapolitanischen Holzofen und hausgemachten Pasta-Spezialit\u00e4ten geniesst du auch ausgew\u00e4hlte Weine. Ziel des Restaurants ist es, mit viel Charme, grossem Einsatz und einer willkommenen Prise Humor, Gerichte auf h\u00f6chstem Niveau zu servieren.</p>", "url": "https://www.lio.li/", "image": "https://ltmpimtsoch.sos-ch-dk-2.exoscale-cdn.com/catalog/6/5/8/9/6589d8c4b021113e07a765b92a9627a008593668_restaurant_lio_schaan_liechtenstein.jpeg", "openstreetmap_id": "7831417007"}, "geometry": {"type": "Point", "coordinates": ["9.510136842727663", "47.16792246059505"]}}, {"type": "Feature", "properties": {"identifier": "4df2570d-1c90-43e5-a38b-3337155b3bb5", "name": "Restaurant Edelweiss", "description": "<p>Das Restaurant wird in der vierten Generation von J\u00fcrgen Gassner und Mirjam M\u00fcller gef\u00fchrt.</p><p>Nicht nur w\u00e4hrschafte und traditionelle regionale Kost wie die Triesenberger Wochen gibt es hier zu geniessen, auch diverse kulinarische Themenabende wie Sushi-Abende oder Spezialit\u00e4tenwochen haben ihren festen Platz im Restaurant Edelweiss.<br></p>", "url": "http://www.restaurantedelweiss.li", "image": "https://ltmpimtsoch.sos-ch-dk-2.exoscale-cdn.com/catalog/1/2/f/e/12fef1160c1a3ade5fcbe937cde5868032bef310_restaurant_edelweiss_triesenberg.jpeg", "openstreetmap_id": "297699582"}, "geometry": {"type": "Point", "coordinates": ["9.543912097021526", "47.11855372872113"]}}, {"type": "Feature", "properties": {"identifier": "51d1d5c2-6c28-48fc-b241-fafa54d73663", "name": "Jugendherberge Schaan-Vaduz", "description": "<p>Die Jugendherberge Schaan-Vaduz liegt westlich unterhalb der Landstrasse von Vaduz nach Schaan. In der N&auml;he befinden sich das Schwimmbad M&uuml;hleholz sowie der Minigolfplatz. Ebenfalls in wenigen Minuten erreicht man eine Bushaltestelle. Mit dem Fahrrad kann man von der Jugendherberge aus ausgedehnte Touren unternehmen. Ums Haus laden Liegest&uuml;hle und Sitzgelegenheiten mit Blick in die Rheinebene und ihrer Bergwelt zum Verweilen ein. Zur Infrastruktur geh&ouml;ren zudem eine Spielecke, Tischtennis, Tischfussball sowie ein Ruheraum.</p><p>Das helle und grossz&uuml;gige Haus ist besonders f&uuml;r Trainingslager, Seminare und Familien geeignet: beste Trainingsbedingungen in der Region, vollst&auml;ndig ausger&uuml;steter Seminarraum f&uuml;r bis zu 50 Personen und ger&auml;umige Familienzimmer.</p><p><strong>Zimmer</strong></p><ul><li>12 Doppelzimmer mit Bad</li><li>4 Familienzimmer mit Bad</li><li>Diverse 4- und 6-Bett-Zimmer mit Etagen-Dusche</li></ul><p>Haustiere sind auf Anfrage gestattet. M&ouml;glicherweise fallen Geb&uuml;hren an.</p>", "url": "http://www.youthhostel.ch/en/hostels/schaan-vaduz", "image": "https://ltmpimtsoch.sos-ch-dk-2.exoscale-cdn.com/catalog/f/8/e/7/f8e7f8ede85559dcbf54ddfd9ca96777b768beb1_swiss_youth_hostel_schaan_vaduz_16.jpg", "openstreetmap_id": "1911099986"}, "geometry": {"type": "Point", "coordinates": ["9.506118893623354", "47.156896299073416"]}}, {"type": "Feature", "properties": {"identifier": "521b36c5-8a76-48c6-9bd1-8b33272e1e4a", "name": "Alpin Royal Restaurant", "description": "<p>Im modernen Ambiente des\u00a0Alpin Royal Restaurants\u00a0werden kulinarische Gen\u00fcsse zum unvergesslichen Erlebnis. Hier treffen regionale Zutaten auf kreative Raffinesse \u2013 sorgf\u00e4ltig ausgew\u00e4hlt, modern interpretiert und mit Leidenschaft zubereitet. Erg\u00e4nzt wird das kulinarische Erlebnis durch eine\u00a0exquisite Weinkarte, die eine erlesene Auswahl regionaler und internationaler Tropfen bereith\u00e4lt. Ob ein stilvolles Dinner zu zweit oder ein gem\u00fctlicher Abend mit besonderen Menschen \u2013 jedes Gericht wird hier mit Liebe und Sorgfalt zubereitet und serviert.</p><p>Grossz\u00fcgige Fenster er\u00f6ffnen im Alpin Royal Restaurant den Blick auf die umliegende Bergwelt. Das gem\u00fctliche Ambiente l\u00e4dt zum Verweilen, Geniessen und Feiern ein.</p><p>Ob private Feier oder exklusives Firmendinner\u00a0\u2013 das Alpin Royal Restaurant bietet den passenden Rahmen f\u00fcr genussvolle Anl\u00e4sse.</p><p>Das Alpin Royal Restaurant befindet sich im Alpin Royal Hotel &amp; Casino\u00a0in Schaan und ist unabh\u00e4ngig vom Casinobesuch f\u00fcr alle Genussmenschen zug\u00e4nglich.</p>", "url": "https://alpin-royal.li/restaurant/", "image": "https://ltmpimtsoch.sos-ch-dk-2.exoscale-cdn.com/catalog/3/1/b/1/31b16d3a6fcb07999b9617a375c66ca4c5b95911_Titelbild.jpg", "openstreetmap_id": "lat=47.174536&lon=9.510164&zoom=19#map=19/47.174536/9.510165"}, "geometry": {"type": "Point", "coordinates": ["9.510169029235842", "47.174568769391534"]}}, {"type": "Feature", "properties": {"identifier": "5dd69311-9096-4ef2-b29d-0fedb6319cbe", "name": "Elisas - Taste of Italian Food", "description": "<p>Sei es frische Antipasti wie beispielsweise eine Aufschnittplatte, frische Salate, &nbsp;hausgemachte gef\u00fcllte Piadina oder Focaccia&nbsp;und verschiedene&nbsp;Pinsa Romana.</p>", "url": "http://elisas-catering.li/", "image": "https://ltmpimtsoch.sos-ch-dk-2.exoscale-cdn.com/catalog/1/f/1/7/1f1788089966bb915be7ad568a0f4def63732ef2_elisas_aussen.jpeg", "openstreetmap_id": "6508876293"}, "geometry": {"type": "Point", "coordinates": ["9.52270030975342", "47.13913969738793"]}}, {"type": "Feature", "properties": {"identifier": "610daedc-eb7e-4c3f-a1bf-f4095a563d26", "name": "Liechtensteiner Braustube", "description": "<p>Das Restaurant Braustube verw&ouml;hnt dich mit kulinarischen K&ouml;stlichkeiten, leckeren Klassikern und feinen, saisonalen Spezialit&auml;ten. Dazu leckeres Brauhaus Bier aus der hausinternen Brauerei, tolles Ambiente, Bar, Biergarten mit viel Platz f&uuml;r dich und deine Freunde.</p><p>Die Braustube eignet sich ideal f&uuml;r Veranstaltungen wie Hochzeits-Ap&eacute;ros, Geburtstage, Pr&auml;sentationen oder&nbsp;Workshops. Das Team der Braustube steht dir gerne bei der Planung deines Anlasses zur Seite und unterst&uuml;tzt dich mit kulinarischem und technischem Know-how.&nbsp;Das Restaurant bietet Platz f&uuml;r 120-150 Personen zum Feiern. Im Brausaal k&ouml;nnen Workshops und Seminare mit bis zu 100&ndash;120 Personen stattfinden.</p><p>Mit dem &laquo;<a href=\"https://tourismus.li/angebote/freizeit/erlebnispass-2/all-inclusive-erlebnispass.html\">ALL INCLUSIVE Erlebnispass</a>&raquo; erh&auml;ltst du eine CHF 4 Reduktion auf das Tasting-Board mit sechs verschiedenen Biersorten des Liechtensteiner Brauhaus.</p>", "url": "https://braustube.li/raeume/seminarraeume/", "image": "https://ltmpimtsoch.sos-ch-dk-2.exoscale-cdn.com/catalog/9/c/f/a/9cfafc0de4721a455c0d501e7579499f641397cf_DSC_8359.jpg", "openstreetmap_id": "9992406417"}, "geometry": {"type": "Point", "coordinates": ["9.516080617904665", "47.17736366491086"]}}, {"type": "Feature", "properties": {"identifier": "63dbdc80-6c8f-4595-8a8e-5d8eb24a2b1b", "name": "Restaurant Mar\u00e9e", "description": "<p>Inspiriert von Natur und Saison zaubert Gault-Millau-Koch Hubertus Real mit seinem Team im Restaurant Mar\u00e9e immer wieder kulinarische K\u00f6stlichkeiten auf den Teller. Sei es ein festliches Men\u00fc oder ein stilvoller Business-Lunch. Nachmittags wird eine kleine Snackkarte angeboten.\u00a0</p><p>Die einfache Genialit\u00e4t der Speisen, der herzliche Charme und die ehrliche Gastfreundschaft machen jedes Essen im Mar\u00e9e zu einem kulinarisch unvergesslichen Erlebnis. F\u00fcr Hubertus Real liegt die Kunst darin:\u00a0\u00abDas richtige Produkt zu finden. Denn Qualit\u00e4t, Einzigartigkeit und Geschichte eines Produktes f\u00fchren zur entsprechenden Inspiration und damit zur Kreation.\u00bb\u00a0Und das kann er perfekt. Gespeist wird wahlweise im hochwertigen und zugleich gem\u00fctlichen Panoramarestaurant oder auf der einzigartigen Terrasse hoch \u00fcber Vaduz: dem Adlernest.</p><p>Ob Klassiker, wie die Kalbfleisch-Spinat Raviolini oder Rochenfl\u00fcgel in Brauner Butter mit Kapern oder aktuelle Saison-Hits, es ist f\u00fcr jeden etwas dabei. Auch vegetarische oder vegane Kulinarikfans finden etwas Feines.</p>", "url": "https://www.sonnenhof.li/", "image": "https://ltmpimtsoch.sos-ch-dk-2.exoscale-cdn.com/catalog/f/8/6/7/f867f6f870ae609a55f2559d3fb52c44881e3218_sonnenhof_restaurant_main_is.jpg", "openstreetmap_id": "node/315637069"}, "geometry": {"type": "Point", "coordinates": ["9.523376226425173", "47.147118381586665"]}}, {"type": "Feature", "properties": {"identifier": "75cb85cf-5024-46d6-875f-9ee2223e695b", "name": "Mai Thai Restaurant", "description": "<p data-start=\"242\" data-end=\"503\">Ob gem\u00fctlich im stilvollen Innenbereich, entspannt im Garten oder ganz bequem als Take-away \u2013 hier geniesst du Thai-K\u00fcche, wie sie sein soll.&nbsp;</p>", "url": "http://www.maithai.li", "image": "https://ltmpimtsoch.sos-ch-dk-2.exoscale-cdn.com/catalog/8/0/2/b/802beaa300736164dec92761107a0adfe2f7fbb1_maithai_mauren.jpeg", "openstreetmap_id": "9783259744"}, "geometry": {"type": "Point", "coordinates": ["9.538391232490541", "47.216500240741745"]}}, {"type": "Feature", "properties": {"identifier": "7c7ce552-f48f-432b-a00c-2373ce757107", "name": "Weinlaube", "description": "<p>In der lieblichen \u00abWeinlaube\u00bb in Schellenberg werden dir kulinarische K\u00f6stlichkeiten geboten, die sich je nach Angebot der Natur und Jahreszeit richten. Es brutzelt und schmort in der heimeligen Atmosph\u00e4re der \u00abWeinlaube\u00bb. Wer hinter der Burgruine Schellenberg beim alten Fachwerkhaus ankommt, erkennt auf Anhieb, dass eine Einkehr eine himmlische Wohltat f\u00fcr Gaumen und Seele sein wird. Martin und Michael Real sind bekannt f\u00fcr eine hochstehende, saisonal ausgerichtete K\u00fcche.</p>", "url": "https://www.weinlaube.li", "image": "https://ltmpimtsoch.sos-ch-dk-2.exoscale-cdn.com/catalog/c/3/c/4/c3c40babf815d2d55edfec49bfb2bd2c87ad69b6_restaurant_weinlaube_schellenberg_liechtenstein.jpeg", "openstreetmap_id": "979383301"}, "geometry": {"type": "Point", "coordinates": ["9.555582243383181", "47.232865096774276"]}}, {"type": "Feature", "properties": {"identifier": "7d3df5f5-eae7-4818-b3a4-32e74c452efd", "name": "Restaurant Kuro", "description": "<p>Das Restaurant Kuro ist ein Fast-Casual-Restaurant-Konzept, das sich auf asiatische und hawaiianische Gerichte spezialisiert. Mit aktuell zwei Standorten in Buchs (Schweiz) und Schaan bietet das Restaurant Kuro unter anderem folgende Speisen an:</p><ul><li><strong>Pok\u00e9 Bowls</strong>,\u00a0also ein hawaiianisches Gericht, welches die Wurzeln in der japanischen K\u00fcche hat und soviel wie \u00abdiagonal in St\u00fcckchen schneiden\u00bb bedeutet und meist mit rohem Fisch, Reis und Gem\u00fcse serviert wird</li><li><strong>Thai Gerichte</strong>\u00a0wie z.B. verschiedene Currys und thail\u00e4ndische Gerichte beispielsweise mit H\u00e4hnchen, Ente oder auch vegan / vegetarisch</li><li><strong>Frisches Sushi</strong>\u00a0wie z.B. Maki Rolls, California Rolls, Nigiri, bis hin zu Special Rolls</li><li><strong>Snacks</strong>\u00a0wie Gyoza, Fr\u00fchlingsrollen, Tempura Crevetten &amp; Edamame</li></ul>", "url": "https://www.kuro-restaurant.ch/", "image": "https://ltmpimtsoch.sos-ch-dk-2.exoscale-cdn.com/catalog/7/8/f/3/78f32f91e466e89f4af8ac26c1ced575a6da6eae_Kuro.jpeg", "openstreetmap_id": "995386798"}, "geometry": {"type": "Point", "coordinates": ["9.50914978981018", "47.16819228064153"]}}, {"type": "Feature", "properties": {"identifier": "81b832d3-744d-4f32-abfe-e4b0f61c4c5b", "name": "Bergst\u00fcbli", "description": "<p>Das Restaurant Bergst\u00fcbli in Steg begr\u00fcsst seine G\u00e4ste auf rund 1200 m \u00fc. M. inmitten einer idyllischen Berglandschaft. Das kleine, urige Restaurant ist der ideale Ort, um nach einer Wanderung oder einem Ausflug in der Natur einzukehren und regionale Spezialit\u00e4ten zu geniessen. Besonders beliebt sind\u00a0die traditionellen K\u00e4skn\u00f6pfle mit Apfelmus.</p>", "url": "https://www.bergstuebli.li/", "image": "https://ltmpimtsoch.sos-ch-dk-2.exoscale-cdn.com/catalog/4/2/7/2/427275e307c0585b6df7e1ae7d1d77dbf4463529_restaurant_bergstuebli_steg_liechtenstein.jpeg", "openstreetmap_id": "450505713"}, "geometry": {"type": "Point", "coordinates": ["9.576666662241148", "47.11273963596935"]}}, {"type": "Feature", "properties": {"identifier": "81e840fb-3c95-43d9-b9e6-596776b6105a", "name": "Sigis Veloshop", "url": "https://www.sigis-veloshop-balzers.li/", "image": "https://ltmpimtsoch.sos-ch-dk-2.exoscale-cdn.com/catalog/8/5/a/e/85ae7728db8e553e04e716877750bb70c9c3f420_image00025.jpeg", "openstreetmap_id": "node/1395171725"}, "geometry": {"type": "Point", "coordinates": ["9.511992931365969", "47.078228156774465"]}}, {"type": "Feature", "properties": {"identifier": "87ff2765-c36d-4484-b216-00cb0fa47e2f", "name": "Restaurant Adler", "description": "<p>&laquo;K&uuml;che und Heimat&raquo; ist das Motto des Restaurants Adler in Vaduz. Regionale K&uuml;che ist kein Trend, sie ist die ewige Konstante in der Esskultur. Nat&uuml;rlich hat sich die K&uuml;che der Alpen den neuen Einfl&uuml;ssen angepasst und die Kochtechniken weiterentwickelt und modernisiert. Das Team des Restaurants Adler geht den Weg der modernen Tradition und spezialisiert sich auf Kreationen aus regionalen Produkten.</p><p>Drei Innenr&auml;ume sowie eine sch&ouml;ne Terrasse bieten eine Sitzplatzkapazit&auml;t f&uuml;r rund 140 Personen.</p>", "url": "http://www.adler.li", "image": "https://ltmpimtsoch.sos-ch-dk-2.exoscale-cdn.com/catalog/7/e/2/4/7e246a851dd5cfb874e1292e6524cdf51c26bd1b_IMG_8405.jpeg", "openstreetmap_id": "4338190789"}, "geometry": {"type": "Point", "coordinates": ["9.52095453445974", "47.14129652268152"]}}, {"type": "Feature", "properties": {"identifier": "913bebc4-8c72-4af4-99bf-c5877bb59fb7", "name": "B\u00e4ckerei Amann", "description": "<p class=\"isSelectedEnd\">Die B&auml;ckerei Konditorei Amann l&auml;dt nicht nur zum Mitnehmen, sondern auch zum Verweilen ein. Im gem&uuml;tlichen Innenbereich und auf den Sitzpl&auml;tzen im Aussenbereich kannst du t&auml;glich frische Backwaren, feine Konditoreispezialit&auml;ten und warme Mittagsgerichte direkt vor Ort geniessen.</p><p class=\"isSelectedEnd\">Ob zum Fr&uuml;hst&uuml;ck, f&uuml;r eine Kaffeepause oder zum Mittagessen: Die entspannte Atmosph&auml;re ist ideal f&uuml;r einen kurzen Zwischenstopp beim Stadtbummel oder eine genussvolle Pause in Vaduz. Die Bestellung erfolgt in Selbstbedienung an der Theke, anschliessend kannst du deine Auswahl bequem am gew&uuml;nschten Platz geniessen.</p><p>Mit dem&nbsp;<span style=\"text-align: center;\">&laquo;</span><a href=\"https://tourismus.li/angebote/freizeit/erlebnispass-2/all-inclusive-erlebnispass.html\">ALL INCLUSIVE Erlebnispass</a><span style=\"text-align: center;\">&raquo; erh&auml;ltst du hier 20% Rabatt auf einen einmaligen Einkauf.</span></p>", "url": "http://www.amann-ag.li", "image": "https://ltmpimtsoch.sos-ch-dk-2.exoscale-cdn.com/catalog/1/c/8/9/1c89cba738478360c14e67fd218b0c107844fc14_Amann3.jpg", "openstreetmap_id": "4581547546"}, "geometry": {"type": "Point", "coordinates": ["9.521402120590212", "47.1387091037243"]}}, {"type": "Feature", "properties": {"identifier": "92c80282-ba14-43af-80c2-f27f131c47e9", "name": "Restaurant Weinstube", "description": "<p>Die saisonal gepr\u00e4gte Speisekarte bietet regionale und internationale Gerichte sowie traditionelle Fonduespezialit\u00e4ten.</p><p>In der Weinstube wird grossen Wert auf einen verantwortungsbewussten Einkauf von lokalen Produkten gelegt.</p><p>Erlesene Weine aus dem reichhaltigen, hauseigenen Angebot machen das Abendessen in der Weinstube zum perfekten Genuss.</p>", "url": "http://www.weinstube.li", "image": "https://ltmpimtsoch.sos-ch-dk-2.exoscale-cdn.com/catalog/a/e/3/a/ae3a44bc2b82eaa7056c214e524638a0fb3e6086_170422_Webseite_Weinstube_Vinothek_Schaechle_341.jpg", "openstreetmap_id": "node/4132104566"}, "geometry": {"type": "Point", "coordinates": ["9.543852210044863", "47.19984966323448"]}}, {"type": "Feature", "properties": {"identifier": "95c0f1ee-5261-443e-a020-138bd7c51f88", "name": "Restaurant Kainer", "description": "Schon der Blick von der Sonnenterrasse ist ein echtes Highlight. Doch das Restaurant in Triesenberg hat noch viel mehr zu bieten als nur ein grandioses Panorama. Seit \u00fcber 20 Jahren kommen Stammg\u00e4ste vor allem wegen der ausgezeichneten K\u00fcche. Mit Herz und Charme werden hier feinste K\u00f6stlichkeiten aus der Region serviert.", "url": "http://www.kainer.li", "image": "https://ltmpimtsoch.sos-ch-dk-2.exoscale-cdn.com/catalog/7/9/5/6/7956bf76af58dc285e8e97283e0445cb1a1b55c2_restaurant_kainer_triesenberg.jpeg", "openstreetmap_id": "298497572"}, "geometry": {"type": "Point", "coordinates": ["9.543476700782778", "47.11730334552838"]}}, {"type": "Feature", "properties": {"identifier": "98eec534-c288-4833-8310-d5ad93b2b17a", "name": "Red Mango", "description": "<p>Im Red Mango erwartet G&auml;ste eine authentische kulinarische Reise nach Thailand. Die Gerichte werden frisch zubereitet und basieren auf traditionellen Rezepten, insbesondere aus dem s&uuml;dlichen Teil des Landes. Typisch f&uuml;r die K&uuml;che sind frische Kr&auml;uter und Gew&uuml;rze wie Thai-Basilikum, Limettenbl&auml;tter, Galgant, Chili, Minze oder Thai-Curry, die dem Essen seine charakteristische Tiefe und Ausgewogenheit verleihen.&nbsp;Die Speisen sind leicht, gesund und aromatisch, serviert mit Reis oder Nudeln. Wer die Vielfalt der thail&auml;ndischen K&uuml;che in hoher Qualit&auml;t erleben m&ouml;chte, ist im Red Mango bestens aufgehoben.</p>", "url": "https://www.redmango.li/", "image": "https://ltmpimtsoch.sos-ch-dk-2.exoscale-cdn.com/catalog/6/3/6/d/636dbf4d536b48ba284848977d7f75dc75fd664b_red_mango_thai_restaurant_triesen.jpeg", "openstreetmap_id": "way/284115651"}, "geometry": {"type": "Point", "coordinates": ["9.52420771121979", "47.11721572539516"]}}, {"type": "Feature", "properties": {"identifier": "9da37fe2-cc99-4898-9baf-5c2c08f459b7", "name": "Artis Bistro", "description": "<p>Im Bistro werden t\u00e4glich Zmorga, Zn\u00fcni, Zmittag und Zvieri angeboten. Ein regelm\u00e4ssig wechselndes Wochenmen\u00fc wird erg\u00e4nzt von feinen Kuchen, Kaffees und Getr\u00e4nken.</p>", "url": "http://www.artisbistro.li", "image": "https://ltmpimtsoch.sos-ch-dk-2.exoscale-cdn.com/catalog/3/b/e/a/3beaacab4a6d4e179d92b2d4533d888de7807bea_artis_bistro_vaduz.jpeg", "openstreetmap_id": "way/364548705"}, "geometry": {"type": "Point", "coordinates": ["9.521310925483705", "47.12407084486464"]}}, {"type": "Feature", "properties": {"identifier": "a02d4aca-44f9-4c6e-8156-55907b63813b", "name": "MIZU", "description": "<p>Mitten in Vaduz verbindet das Restaurant MIZU die Aromen Asiens mit westlicher Kochkunst. In modernem Ambiente geniessen G\u00e4ste eine kreative Fusion-K\u00fcche, die Tradition und Innovation geschmackvoll vereint.</p>", "url": "http://www.mizu.li", "image": "https://ltmpimtsoch.sos-ch-dk-2.exoscale-cdn.com/catalog/6/e/1/2/6e129de61fb3becaa180b58f2ff25851b96b630e_restaurant_mizu_vaduz.jpeg", "openstreetmap_id": "3685648630"}, "geometry": {"type": "Point", "coordinates": ["9.522732496261598", "47.13966883491731"]}}, {"type": "Feature", "properties": {"identifier": "a1347d21-1ec5-4a18-9428-e9ffc62af263", "name": "Landgasthof R\u00f6ssle", "description": "<p>Im Landgasthof R\u00f6ssle kommen die G\u00e4ste in der Gaststube, im l\u00e4ndlich Stil gehaltenen Saal sowie auf der grossen Terrasse zum unbeschwerten und unvergessenen Genuss.</p><p>Auf der Speisekarte stehen Klassiker wie Cordon Bleu und Schnitzel sowie die Liechtensteiner Spezialit\u00e4t\u00a0\u00abK\u00e4skn\u00f6pfle\u00bb.</p>", "url": "http://www.roessle.li", "image": "https://ltmpimtsoch.sos-ch-dk-2.exoscale-cdn.com/catalog/2/7/d/7/27d7da76fee8b94b36ae4c6a229bf74fe4dee4fc_landgasthof_roessle_ruggell.jpeg", "openstreetmap_id": "256767080"}, "geometry": {"type": "Point", "coordinates": ["9.524376688287342", "47.24365852898617"]}}, {"type": "Feature", "properties": {"identifier": "a29fc317-974d-4c9f-bff8-11f3b1736c16", "name": "Gasthaus zum Engel", "description": "<p>Das Gasthaus zum Engel in Balzers ist eine gem\u00fctliche Dorfbeiz, die Jung und Alt zusammenbringt. In den denkmalgesch\u00fctzten R\u00e4umlichkeiten herrscht eine gesellige Atmosph\u00e4re, ideal zum Verweilen und Austauschen. Neben einer grossen Auswahl an Getr\u00e4nken gibt es auch eine kleine Speisekarte mit Klassikern wie Pommes Frites, Hamburgern und Pizzen.</p>", "url": "https://www.engelbalzers.li/de/", "image": "https://ltmpimtsoch.sos-ch-dk-2.exoscale-cdn.com/catalog/a/4/4/f/a44fc75d5a39533ff4b912d0a651a4ca8f156cd9_gasthaus_zum_engel_balzers.jpeg", "openstreetmap_id": "way/1056869040"}, "geometry": {"type": "Point", "coordinates": ["9.506832361221315", "47.068382632813424"]}}, {"type": "Feature", "properties": {"identifier": "a2d4421d-c724-4c71-a243-03de3037c1f5", "name": "Gaflei Stuba", "description": "<p>Die Gaflei Stuba auf 1483 m \u00fc. M. ist ein kulinarischer R\u00fcckzugsort mit beeindruckender Aussicht auf Liechtenstein, das Rheintal und die umliegende Bergwelt. Als Teil des Clinicum Alpinum bietet sie eine regionale und saisonale K\u00fcche auf h\u00f6chstem Niveau. Auf der Terrasse kannst du bei Kaffee und Kuchen oder einem Ap\u00e9ro den Blick in die Weite schweifen lassen. Die Speisekarte wird laufend an die Jahreszeiten angepasst, um die besten lokalen Zutaten in den Mittelpunkt zu stellen.</p>", "url": "https://gaflei-stuba.li/", "image": "https://ltmpimtsoch.sos-ch-dk-2.exoscale-cdn.com/catalog/a/7/a/9/a7a94d0745f232d3b46de9068401d3255bb4cdd6_restaurant_gaflei_stuba_liechtenstein.jpeg", "openstreetmap_id": "6498132784"}, "geometry": {"type": "Point", "coordinates": ["9.54417407512665", "47.14289053623251"]}}, {"type": "Feature", "properties": {"identifier": "a3793777-3ca9-4c90-ac4d-f38c50aca71b", "name": "Restaurant Engel", "description": "<p>Im Restaurant Engel erwartet dich eine vielf\u00e4ltige Auswahl an regionalen und asiatischen Gerichten \u2013 ganzt\u00e4gig serviert, f\u00fcr den grossen wie den kleinen Hunger. Hausgemachte Klassiker wie Apfelstrudel, Kaiserschmarren und verschiedene Coupes runden das kulinarische Angebot ab. Dazu gibt es eine feine Auswahl an heimischen Weinen, Bieren, Softdrinks und Kaffeespezialit\u00e4ten.</p><p>F\u00fcr alle, die es eilig haben, bietet der Take-Away-Service die ideale L\u00f6sung. S\u00e4mtliche Speisen, Getr\u00e4nke und Snacks \u2013 von Sandwiches bis zum Men\u00fc \u2013 k\u00f6nnen vorab reserviert und bequem mitgenommen werden. </p><p>Mit 130 Innenpl\u00e4tzen, einer gem\u00fctlichen Stube f\u00fcr ca. 20 Personen und 80 Sitzpl\u00e4tzen auf der Sonnenterrasse unterhalb von Schloss Vaduz ist das Engel auch bestens geeignet f\u00fcr Familienfeiern, Betriebsanl\u00e4sse oder Versammlungen aller Art.</p>", "url": "https://www.restaurant-engel.li/", "image": "https://ltmpimtsoch.sos-ch-dk-2.exoscale-cdn.com/catalog/d/f/d/9/dfd92c823c02e0a32fe3a6ab895ee3eb9a123e0e_restaurant_engel_vaduz.jpeg", "openstreetmap_id": "315636971"}, "geometry": {"type": "Point", "coordinates": ["9.52258603525656", "47.140759776660154"]}}, {"type": "Feature", "properties": {"identifier": "a741b918-db57-4b10-9bb3-9b0c65421ba6", "name": "Red Mango Thai Takeaway", "description": "<p>Das Essen ist einzigartig und konzentriert sich auf authentische thail\u00e4ndische Aromen, die zum gr\u00f6ssten Teil aus der s\u00fcdlichen Region Thailands stammen. Diese K\u00fcche ist leicht, gesund und ausgeglichen. Zu den Hauptgerichten gibt es Reis oder Nudeln.<br></p>", "url": "https://www.redmango.li/vaduz2/", "image": "https://ltmpimtsoch.sos-ch-dk-2.exoscale-cdn.com/catalog/e/f/c/b/efcb54c5fe4b616492d250f5eb718ba11a959be5_redmango_vaduz.jpeg", "openstreetmap_id": "way/514732573"}, "geometry": {"type": "Point", "coordinates": ["9.520490169525146", "47.14121593721147"]}}, {"type": "Feature", "properties": {"identifier": "a95c3dd3-11d4-4fdc-a105-9d188070422e", "name": "Caf\u00e9 Etagere", "description": "<p>Bei den Milchgetr\u00e4nken hat der Gast die Wahl zwischen Voll-, Soja-, Mager- sowie lactosefreier Milch. Dazu gibt es ofenfrische Br\u00f6tchen, Croissants und eine gesunden Ecke. Als Imbiss hat das Caf\u00e9 eine Auswahl an t\u00e4glich frischen kalten und warmen Sandwiches sowie Salaten und im Winter Suppen. S\u00fcsses sowie Antipasti zum Bier oder C\u00fcpli runden das Angebot ab.</p>", "url": "https://www.greber-ag.li/Genusswelt", "image": "https://ltmpimtsoch.sos-ch-dk-2.exoscale-cdn.com/catalog/8/c/9/2/8c92a9fe8c28bcb89c7419ba0242d4e6241eb893_IMG_3363.jpeg", "openstreetmap_id": "node/6508913012"}, "geometry": {"type": "Point", "coordinates": ["9.520576000213625", "47.14165378715341"]}}, {"type": "Feature", "properties": {"identifier": "ad7a5d8a-84c9-4d6b-8a3d-e2b74c223580", "name": "SCANAUA", "description": "<p>Im SCANAUA in Schaan erlebst du kreative Gerichte und eine vielf\u00e4ltige Getr\u00e4nkeauswahl in entspannter Atmosph\u00e4re. Perfekt f\u00fcr Mittagessen, Dinner oder Feierabenddrinks.</p><p>Auch f\u00fcr romantische Hochzeiten oder gesellige Feiern \u2013 die Lokalit\u00e4t bietet den idealen Rahmen f\u00fcr unvergessliche Anl\u00e4sse. G\u00e4ste k\u00f6nnen sich auf individuell abgestimmte Men\u00fcs freuen, die saisonale K\u00f6stlichkeiten und kreative \u00dcberraschungen beinhalten. Die Kombination aus heimischer K\u00fcche, perfektem Ambiente und pers\u00f6nlichem Service macht jedes Event zu einem besonderen Erlebnis. Eine fr\u00fchzeitige Anmeldung wird empfohlen.</p>", "url": "https://scanaua.li/", "image": "https://ltmpimtsoch.sos-ch-dk-2.exoscale-cdn.com/catalog/9/4/f/0/94f0fc6b884421c796750fd717bde542efd9b2a4_restaurant_scanaua_schaan.jpeg", "openstreetmap_id": "7892467130"}, "geometry": {"type": "Point", "coordinates": ["9.508801102638245", "47.16561379318065"]}}, {"type": "Feature", "properties": {"identifier": "ad94e368-fae3-4699-b44c-df2152be0ebb", "name": "Vaduz on Ice", "description": "<p>W&auml;hrend zwei Monaten (Anfang November - Anfang Januar) kann man auf dem Rathausplatz in Vaduz auf dem Eisfeld seine Runden drehen oder an den Verpflegungsst&auml;nden leckere Getr&auml;nke und Snacks konsumieren und dem Geschehen auf dem Platz zusehen.&nbsp;Ausserdem findet eine Vielzahl an tollen Events f&uuml;r Gross und Klein statt. <a href=\"https://www.vaduz-on-ice.li/events/\">Hier</a> findest du eine &Uuml;bersicht &uuml;ber alle Veranstaltungen.</p><p>Mit dem &laquo;<a href=\"https://tourismus.li/angebote/freizeit/erlebnispass-2/all-inclusive-erlebnispass.html\">ALL INCLUSIVE Erlebnispass</a>&raquo; geniesst du freien Eintritt zum Schlittschuhlaufen auf dem Eisplatz.</p>", "url": "https://www.vaduz-on-ice.li/", "image": "https://ltmpimtsoch.sos-ch-dk-2.exoscale-cdn.com/catalog/2/5/7/3/2573b08e9be87de02a9706b38bafd18e74da93b2__AMD0003.jpg", "openstreetmap_id": "way/297699608"}, "geometry": {"type": "Point", "coordinates": ["9.522142410278322", "47.140555483154884"]}}, {"type": "Feature", "properties": {"identifier": "b1841deb-d9e5-4522-bef3-35902d33cf46", "name": "Alpen-Minigolf Malbun", "description": "<p>Insgesamt 18 Bahnen mit verschiedenen Schwierigkeitsstufen f&uuml;hren vom Ortseingang Malbun durch das ganze Dorf. Geschick, Geduld und Zielstrebigkeit sind gefordert, wenn es heisst, der kleine Ball muss ins kleine Loch. Zum Absolvieren des Minigolf-Parcours werden etwa 1.5 Stunden berechnet. Schl&auml;ger und B&auml;lle k&ouml;nnen beim Malbun Center bezogen werden. Gespielt werden kann jeweils von Mitte Juni bis Ende Oktober.</p><p>Die Minigolf-Stationen sind von Mitte Juni bis Ende Oktober aufgestellt.</p><p>Mit dem &laquo;<a href=\"https://tourismus.li/angebote/freizeit/erlebnispass-2/all-inclusive-erlebnispass.html\">ALL INCLUSIVE Erlebnispass</a>&raquo; spielst du eine Runde Minigolf gratis.</p>", "image": "https://ltmpimtsoch.sos-ch-dk-2.exoscale-cdn.com/catalog/6/3/f/b/63fb70bcb22b3219b55e4db7683078a404ee60f3_240719_freizeit_malbun_familie_sommer_003__64_.jpg", "openstreetmap_id": "node/1869027437"}, "geometry": {"type": "Point", "coordinates": ["9.607951641082764", "47.10324652065617"]}}, {"type": "Feature", "properties": {"identifier": "b565cbc7-5277-4ce3-926a-732cea198610", "name": "Restaurant Turna", "description": "<p>Hier steht der Chef pers&ouml;nlich in der K&uuml;che und kreiert spitzengastronomische Gerichte aus gesunden, regionalen Zutaten.</p><p data-start=\"226\" data-end=\"481\" data-is-last-node=\"\" data-is-only-node=\"\">K&ouml;stliche heimische Spezialit&auml;ten und verlockende internationale Kreationen kommen frisch auf den Tisch und machen jedes Essen zu einem Genussmoment. Dazu ein gutes Glas Wein und ein wunderbares Ambiente &ndash; perfekt f&uuml;r alle, die mit Leidenschaft geniessen.</p>", "url": "http://www.turna.li", "image": "https://ltmpimtsoch.sos-ch-dk-2.exoscale-cdn.com/catalog/a/e/e/a/aeead679efb1dfe27fdb5930b17c91691e4a01e1_Hotel_Turna_Aussenansicht_Sommer.jpg", "openstreetmap_id": "210655048"}, "geometry": {"type": "Point", "coordinates": ["9.610810875892641", "47.10108906089811"]}}, {"type": "Feature", "properties": {"identifier": "b8e004c0-01e8-48b8-815d-096e484fc65b", "name": "Chapter Two", "description": "<p class=\"MsoNormal\"><span lang=\"DE-LI\" style=\"mso-ansi-language: DE-LI;\">K&uuml;chenchef Martin Weber und sein Team interpretieren Liechtensteins kulinarisches Erbe neu &ndash; mutig, modern und mit Hingabe. Klassiker werden dekonstruiert, heimische Zutaten &uuml;berraschend kombiniert. Jedes Gericht wird so zu einer Geschichte, die im Ged&auml;chtnis bleibt.</span></p><p class=\"MsoNormal\"><span lang=\"DE-LI\" style=\"mso-ansi-language: DE-LI;\">Martin Weber steht f&uuml;r eine K&uuml;che, in der Leidenschaft auf Pr&auml;zision trifft. Ausgebildet im Restaurant Brunnenst&ouml;cki, verfeinerte er sein K&ouml;nnen in renommierten H&auml;usern wie dem Steirereck Wien, Schloss M&ouml;nchstein und D&ouml;llerer. Neun Jahre lang pr&auml;gte er das Incantare in Heiden mit zwei Michelin-Sternen. Nun bringt er seine Handschrift ins Chapter Two &ndash; regional verwurzelt, international inspiriert.</span></p>", "url": "https://www.chaptertwo.li/", "image": "https://ltmpimtsoch.sos-ch-dk-2.exoscale-cdn.com/catalog/c/6/2/a/c62ac9e80d821c745f65124db8049b8d7ce0a676_chapter_two_vaduz_restaurant.jpeg", "openstreetmap_id": "315636967"}, "geometry": {"type": "Point", "coordinates": ["9.522763425765161", "47.139994495358565"]}}, {"type": "Feature", "properties": {"identifier": "ba3c1da5-fb4f-45e1-bf02-9c0fd3656f4a", "name": "Restaurant JUFA Hotel", "description": "<p>Im <span data-start=\"28\" data-end=\"58\" style=\"\">Restaurant des JUFA Hotels</span> in <span data-start=\"62\" data-end=\"72\" style=\"\">Malbun</span> erwarten dich <span data-start=\"87\" data-end=\"117\" style=\"\">hausgemachte Spezialit\u00e4ten</span> und <span data-start=\"122\" data-end=\"149\" style=\"\">internationale Gerichte</span> \u2013 frisch zubereitet mit Zutaten von <span data-start=\"186\" data-end=\"212\" style=\"\">regionalen Lieferanten</span>. Besonders beliebt sind die <span data-start=\"241\" data-end=\"263\" style=\"\">Malbuner Bratwurst</span> und die <span data-start=\"272\" data-end=\"296\" style=\"\">selbstgemachte Pinsa</span>. Erg\u00e4nzt wird das kulinarische Angebot durch eine <span data-start=\"385\" data-end=\"412\" style=\"\">feine Auswahl an Weinen</span>, die das Essen perfekt abrunden \u2013 ideal f\u00fcr einen genussvollen Aufenthalt in den Bergen.</p>", "url": "https://www.jufahotels.com/hotel/malbun/", "image": "https://ltmpimtsoch.sos-ch-dk-2.exoscale-cdn.com/catalog/8/7/5/9/8759a5ab7efc6fee799230c78f187078c7adea4d_restaurant_jufa_hotel_malbun.jpeg", "openstreetmap_id": "298855537"}, "geometry": {"type": "Point", "coordinates": ["9.604893922805788", "47.104908652000546"]}}, {"type": "Feature", "properties": {"identifier": "bcc0a710-f1e4-4e32-bff6-d583177a8f9d", "name": "Restaurant V\u00f6geli", "description": "<p>Der Chef pers\u00f6nlich garantiert die hohe Qualit\u00e4t der K\u00f6stlichkeiten aus K\u00fcche und Keller.</p><p>Bei sch\u00f6nem Wetter bist du eingeladen, dich auf der grossz\u00fcgig konzipierten Sonnenterrasse mit Aussenbar kulinarisch verw\u00f6hnen zu lassen und das einzigartige Bergpanorama auf dich wirken zu lassen.<br></p>", "url": "https://www.alpenhotel.li/das-alpenhotel/philosophie", "image": "https://ltmpimtsoch.sos-ch-dk-2.exoscale-cdn.com/catalog/4/e/3/f/4e3f38b77d349dc110da520ee801f743d69228f1_Alpenhotel_Malbun_001.jpg", "openstreetmap_id": "210655065"}, "geometry": {"type": "Point", "coordinates": ["9.608010649681093", "47.10271022188679"]}}, {"type": "Feature", "properties": {"identifier": "be5d2d19-ab2f-4570-886c-9a8d1a4201b7", "name": "Restaurant tenn", "description": "<p>Im Restaurant tenn verschmelzen regionale Produkte mit feiner Weltk\u00fcche zu einem echten Genusserlebnis. Eine exquisite Weinauswahl, kreative Drinks und ein modernes, gem\u00fctliches Ambiente schaffen den perfekten Rahmen f\u00fcr genussvolle Momente. Der aufmerksame Service rundet das Erlebnis ab.</p><p>Ob mit Freunden und Familie, Kollegen oder Businesspartnern \u2013 das tenn ist der ideale Ort zum Geniessen und Feiern. Hochwertige Qualit\u00e4tsprodukte von ausgew\u00e4hlten regionalen Partnern bilden die Grundlage des Gourmetkonzepts, das den Gaumen verw\u00f6hnt.</p><p></p><p>Das Team unterst\u00fctzt dich auch gerne bei der Planung und Organisation deines Events.</p>", "url": "http://www.tenn.li/", "image": "https://ltmpimtsoch.sos-ch-dk-2.exoscale-cdn.com/catalog/f/b/5/f/fb5f1ff35f1b368b458fa511425191bfa0dd6669_restaurant_tenn_ruggell_liechtenstein.jpeg", "openstreetmap_id": "1057150519"}, "geometry": {"type": "Point", "coordinates": ["9.528002812505227", "47.24872928337317"]}}, {"type": "Feature", "properties": {"identifier": "c0028185-293a-4ec4-9382-cac19a221bff", "name": "Restaurant Forum", "description": "<p>Auf der Speisekarte stehen Klassiker wie Schnitzel, Cordon Bleu und Kalbsgeschnetzeltes mit R\u00f6sti. Zum Dessert werden verschiedene Coupes und andere s\u00fcsse Leckereien angeboten.</p>", "url": "https://www.facebook.com/RestaurantForumSchaan/", "image": "https://ltmpimtsoch.sos-ch-dk-2.exoscale-cdn.com/catalog/5/a/8/e/5a8edf58ec3aae621749457e3e7585c5a9729230_restaurant_forum_schaan.jpeg", "openstreetmap_id": "120583011"}, "geometry": {"type": "Point", "coordinates": ["9.507063031196596", "47.15710424723084"]}}, {"type": "Feature", "properties": {"identifier": "c4ae1148-1366-4a86-88e0-80fd3af5f611", "name": "Malbipark-Bistro", "description": "<p data-start=\"0\" data-end=\"89\">Das Bistro verw&ouml;hnt dich mit aromatischem Kaffee, einer feinen Auswahl an Bieren, Wein, Prosecco und Ap&eacute;ro-Getr&auml;nken &ndash; dazu gibt es eine kleine, aber feine Speisekarte.</p><p data-start=\"0\" data-end=\"89\">&Uuml;ber die Sommermonate bleibt das Bistro geschlossen.</p>", "url": "https://www.malbipark.li/", "image": "https://ltmpimtsoch.sos-ch-dk-2.exoscale-cdn.com/catalog/0/f/7/c/0f7cd672aba9aa4a221cc44ec212ce88d06fecb7_malbi_bistro_malbun_liechtenstein.jpeg", "openstreetmap_id": "way/210655127"}, "geometry": {"type": "Point", "coordinates": ["9.606635392301314", "47.10254191798611"]}}, {"type": "Feature", "properties": {"identifier": "c60545ec-1e01-4daa-8491-1acb038c3b4f", "name": "TANG Restaurant", "description": "<p>Das TANG Restaurant in Ruggell l\u00e4dt zu einer kulinarischen Reise durch die traditionelle chinesische K\u00fcche ein. Die Gerichte werden mit frischen, saisonalen Gem\u00fcsesorten und hochwertigen Fleischprodukten aus der Region kombiniert, um ein harmonisches Geschmackserlebnis zu schaffen. In einem einladenden Ambiente wird grosser Wert auf Gastfreundschaft gelegt, w\u00e4hrend sorgf\u00e4ltig zubereitete Spezialit\u00e4ten serviert werden.</p>", "url": "http://www.tang-restaurant.com", "image": "https://ltmpimtsoch.sos-ch-dk-2.exoscale-cdn.com/catalog/c/7/0/d/c70dc4daade7f4f26e0a3aa951f78506bd0adad1_tang_restaurant_ruggell.jpeg", "openstreetmap_id": "977570463"}, "geometry": {"type": "Point", "coordinates": ["9.526909452743533", "47.24214621365317"]}}, {"type": "Feature", "properties": {"identifier": "c6d7f847-84a6-4e91-938e-29110a50795d", "name": "CAFE im Kunstmuseum", "description": "<p>Das Restaurant befindet sich im international bekannten Kunstmuseum Liechtenstein in Vaduz. Die G\u00e4ste sch\u00e4tzen die feinen Sushi, Sashimi und Reissalat-Lunches, die t\u00e4glich von japanischen Meistern geboten werden.<br></p>", "url": "https://www.adler.li/cafe-im-kunstmuseum", "image": "https://ltmpimtsoch.sos-ch-dk-2.exoscale-cdn.com/catalog/2/8/7/b/287b57fba6c424de262cba32e225f315b0a62341_cafe_im_kunstmuseum_vaduz.jpeg", "openstreetmap_id": "node/6508895111"}, "geometry": {"type": "Point", "coordinates": ["9.522378444671633", "47.13942801259835"]}}, {"type": "Feature", "properties": {"identifier": "c7f80e31-fcc9-4d15-bfa7-05f12ac25796", "name": "Restaurant zur alten Eiche", "description": "<p>Geniess die abwechslungsreichen Men&uuml;s aus der modernen und kreativen K&uuml;che und lass dich von den vielf&auml;ltigen Aromen begeistern.</p><p>Die Weinauswahl umfasst erlesene Tropfen aus Liechtenstein, der Schweiz, &Ouml;sterreich, Italien, Frankreich und Spanien. Zu jedem Gericht findet sich der passende Wein.</p>", "url": "http://www.alteeiche.li", "image": "https://ltmpimtsoch.sos-ch-dk-2.exoscale-cdn.com/catalog/f/1/a/1/f1a110efef92e0887f5c0cef651adb5f16745b54_restaurant_zur_alten_eiche_triesen.jpeg", "openstreetmap_id": "way/166817626"}, "geometry": {"type": "Point", "coordinates": ["9.527246967842684", "47.08632999496385"]}}, {"type": "Feature", "properties": {"identifier": "c823ab25-081d-41b8-9ee2-d21bab9508b7", "name": "PUR Restaurant & Bar", "description": "<p>Das PUR ist der ideale Ort f\u00fcr genussvolle Momente.</p><p>Zur Mittagszeit erwartet dich ein abwechslungsreiches Angebot unter dem Motto k\u00f6stlich \u2013 frisch \u2013 schnell: Von wechselnden Wochenkarten \u00fcber kreative Burger-Variationen bis hin zu asiatischen und traditionellen Men\u00fcs.</p><p>Am Abend steht PUR f\u00fcr h\u00f6chste Qualit\u00e4t. Ob saftige Steaks vom Grill, raffinierte Burger, feine Pasta oder vegetarische Gerichte \u2013 hier kommt nur das Beste auf den Teller.</p><p>In den warmen Monaten l\u00e4dt die gem\u00fctliche Terrasse dazu ein, den Abend entspannt unter freiem Himmel ausklingen zu lassen.</p>", "url": "https://www.pur.li", "image": "https://ltmpimtsoch.sos-ch-dk-2.exoscale-cdn.com/catalog/1/f/2/d/1f2de1448e29d27f37dd3fcf510f1b6553e17c36_pur_restaurant_bar_schaan.jpeg", "openstreetmap_id": "1057895190"}, "geometry": {"type": "Point", "coordinates": ["9.510045647621157", "47.166645912157264"]}}, {"type": "Feature", "properties": {"identifier": "c90131cf-dad5-401b-83af-8123f6680103", "name": "Gasthof L\u00f6wen", "description": "<p>Wer in Vaduz auf der Suche nach einem besonderen Genusserlebnis ist, wird im Gasthof L\u00f6wen f\u00fcndig. Das geschichtstr\u00e4chtige Haus hat \u00fcber die Jahrhunderte unz\u00e4hlige G\u00e4ste empfangen und l\u00e4dt heute mit seiner warmen, gem\u00fctlichen Atmosph\u00e4re zum Verweilen ein. Ob regionale Spezialit\u00e4ten oder feine Klassiker \u2013 hier geniesst du Qualit\u00e4t in einem einzigartigen Ambiente.</p>", "url": "http://www.hotel-loewen.li", "image": "https://ltmpimtsoch.sos-ch-dk-2.exoscale-cdn.com/catalog/e/9/4/c/e94c9514707b8c42995df4daf7fd68c3b75a4a6e_gasthof_loewen_vaduz.jpeg", "openstreetmap_id": "336434357"}, "geometry": {"type": "Point", "coordinates": ["9.518811106681826", "47.14267178732114"]}}, {"type": "Feature", "properties": {"identifier": "cba68c76-0091-4c84-8882-199018d49e89", "name": "Pizzeria Restaurant Gitzih\u00f6ll", "description": "<p>Das <span data-start=\"29\" data-end=\"62\">Restaurant Gitzih&ouml;ll</span> in <span data-start=\"66\" data-end=\"76\">Malbun</span> f&auml;llt durch seine <span data-start=\"95\" data-end=\"110\">H&ouml;hlenoptik</span> auf und sorgt f&uuml;r eine <span data-start=\"134\" data-end=\"181\">gem&uuml;tliche Atmosph&auml;re</span>. Auf der Speisekarte stehen unter anderem&nbsp;<span data-start=\"210\" data-end=\"229\">Pizzas, Pasta und Schnitzel.</span></p><p><span data-start=\"210\" data-end=\"229\">Das Restaurant bietet w&auml;hrend den &Ouml;ffnungszeiten auch Take-Away an.</span></p>", "url": "http://www.gitzihoell.li", "image": "https://ltmpimtsoch.sos-ch-dk-2.exoscale-cdn.com/catalog/4/d/b/3/4db33b84e76987fd46055f0927c6839b410cc8c2_pizzeria_restaurant_gitzihoell_malbun.jpeg", "openstreetmap_id": "210655044"}, "geometry": {"type": "Point", "coordinates": ["9.610043764114382", "47.10080059663041"]}}, {"type": "Feature", "properties": {"identifier": "cec195e6-2cd7-4706-a03b-244c9c457cd7", "name": "Centrum Grill & Caf\u00e9", "description": "<p>Das Centrum Grill &amp; Caf&eacute; befindet sich im Zentrum von Vaduz. Auf der vielseitigen Speisekarte stehen Kebap, Falafel, Pizza und weitere Klassiker. Drinnen bietet das Lokal &uuml;ber 60 Sitzpl&auml;tze, auf der sonnigen Terrasse ist Platz f&uuml;r rund 50 G&auml;ste &ndash; ideal also auch f&uuml;r gr&ouml;ssere Gruppen. Besonders attraktiv: Ab 20 Personen gibt es Gruppenrabatte.&nbsp;</p>", "url": "https://www.centrum.li/", "image": "https://ltmpimtsoch.sos-ch-dk-2.exoscale-cdn.com/catalog/6/2/d/c/62dcdebf6858640a77972b4c0770b736ebc0eb51_centrum_grill_cafe_vaduz.jpeg", "openstreetmap_id": "way/514861114"}, "geometry": {"type": "Point", "coordinates": ["9.522110223770143", "47.141201329110835"]}}, {"type": "Feature", "properties": {"identifier": "d1055e66-3f3d-4fb4-8049-0e4caf78eb0a", "name": "Altenbach", "description": "<p>Das Altenbach steht f\u00fcr kreative, frische und hochwertige K\u00fcche. Hier treffen traditionelle, italienische, amerikanische und asiatische Einfl\u00fcsse aufeinander \u2013 immer mit einem \u00fcberraschenden Twist. Die entspannte Atmosph\u00e4re und das trendige Design machen das Altenbach zu einem Treffpunkt f\u00fcr Geniesser, die das Besondere suchen.</p>", "url": "https://www.altenbach.li/", "image": "https://ltmpimtsoch.sos-ch-dk-2.exoscale-cdn.com/catalog/f/a/3/5/fa35f45e73e16a353079fab9cf4bc623878a093d_restaurant_altenbach_vaduz.jpeg", "openstreetmap_id": "515448248"}, "geometry": {"type": "Point", "coordinates": ["9.521863460540773", "47.14118316968769"]}}, {"type": "Feature", "properties": {"identifier": "d609c093-2dff-4a0c-8754-77ec332057ee", "name": "Osteria Adler", "description": "<p>Die Osteria Adler bietet klassische italienische K\u00fcche in gem\u00fctlicher Atmosph\u00e4re. G\u00e4ste erwartet eine Auswahl an authentischen Gerichten \u2013 von knusprigen Pizzas \u00fcber hausgemachte Pasta bis hin zu weiteren Spezialit\u00e4ten aus verschiedenen Regionen Italiens.</p><p>Im Fokus stehen traditionelle Rezepte, sorgf\u00e4ltig zubereitet mit frischen Zutaten. </p>", "url": "https://www.instagram.com/osteria.adler/", "image": "https://ltmpimtsoch.sos-ch-dk-2.exoscale-cdn.com/catalog/b/f/0/0/bf00719be477bd575bf517bf32506447fb9a753f_osteria_adler_triesen.jpeg", "openstreetmap_id": "node/280014962"}, "geometry": {"type": "Point", "coordinates": ["9.525243043899538", "47.10653018351199"]}}, {"type": "Feature", "properties": {"identifier": "d6a58dcf-f27e-4b71-9f0d-c9269022152e", "name": "FAGO by meier", "description": "<p>Ob zum gem\u00fctlichen Abendessen im Restaurant oder auf ein Feierabendgetr\u00e4nk in der Raucherbar \u2013 Stephanie und Sandro Meier und ihr Team verw\u00f6hnen ihre G\u00e4ste mit raffiniert zubereiteten, saisonalen Speisen und einer Auswahl erlesener Weine.</p><p>In den Sommermonaten l\u00e4dt der stilvolle Gastgarten zum Verweilen und Geniessen im Freien ein. Das Restaurant bietet zudem ausreichend Platz f\u00fcr Feiern jeder Art \u2013 von der Geburtstagsrunde \u00fcber Taufen bis hin zur Hochzeit.</p>", "url": "http://www.fago.li", "image": "https://ltmpimtsoch.sos-ch-dk-2.exoscale-cdn.com/catalog/7/3/f/6/73f6cfb01b3e91c26a0f57507efbe20b12f0d494_fago_by_meier_eschen_restaurant.jpeg", "openstreetmap_id": "node/12121889951"}, "geometry": {"type": "Point", "coordinates": ["9.522770740238084", "47.21110426294684"]}}, {"type": "Feature", "properties": {"identifier": "d9c0c311-2a3f-4067-adec-b9534063e3cd", "name": "Restaurant Pedroni", "description": "<p>Marco kocht f\u00fcr dich feine saisonale und regionale Gerichte, ob f\u00fcr traute Zweisamkeit oder in geselliger Runde.\u00a0Ingo mixt feine Hauscocktails und ber\u00e4t dich gerne bei der Weinauswahl.</p><p>Mittags hast du die Wahl zwischen verschiedenen Hauptgerichten.\u00a0Abends erwarten dich feine K\u00f6stlichkeiten aus Marcos K\u00fcche.</p>", "url": "https://www.pedroni.li/index.html", "image": "https://ltmpimtsoch.sos-ch-dk-2.exoscale-cdn.com/catalog/8/d/7/4/8d7414b82423df37473be633adf5fcf49be07e23_restaurant_pedroni_triesen.jpeg", "openstreetmap_id": "node/570116974"}, "geometry": {"type": "Point", "coordinates": ["9.525361061096193", "47.108344301751806"]}}, {"type": "Feature", "properties": {"identifier": "da508253-3a57-4e79-824d-061c5aee37a3", "name": "Zentrum Balzers", "description": "<p>Im Zentrum Balzers geniessen G&auml;ste authentische italienische K&uuml;che. In herzlicher Atmosph&auml;re serviert das Restaurant frisch zubereitete Pasta, feine Antipasti, klassische Pizze und ausgew&auml;hlte Fleischgerichte. Wer zur Mittagszeit einkehrt, darf sich auf ein w&ouml;chentlich wechselndes Tagesmen&uuml; freuen.</p>", "url": "https://www.zentrum-balzers.li/", "image": "https://ltmpimtsoch.sos-ch-dk-2.exoscale-cdn.com/catalog/a/a/7/8/aa789fcc701810a1da078250abf6b96ea7a7426b_restaurant_zentrum_balzers.jpeg", "openstreetmap_id": "1056869016"}, "geometry": {"type": "Point", "coordinates": ["9.503549337387087", "47.067063572440595"]}}, {"type": "Feature", "properties": {"identifier": "db255aa3-4943-4ebe-a3e4-92536246a428", "name": "Giessen Coffeehouse", "description": "<p>Im Giessen Coffeehouse in Vaduz erwartet dich eine vielf\u00e4ltige Auswahl an frisch zubereiteten Speisen und Getr\u00e4nken. Von hochwertigem Kaffee und Tee \u00fcber Smoothies, New-York-Style-Bagels, Salate und Suppen bis hin zu hausgemachtem S\u00fcssem \u2013 hier wird auf beste Qualit\u00e4t und Bio-Zutaten geachtet.</p><p>Geniessen kannst du die Spezialit\u00e4ten in der gem\u00fctlichen Lounge, auf der \u00fcberdachten Terrasse oder im gr\u00fcnen Garten. Ob Fr\u00fchst\u00fcck, Mittagessen oder eine kleine Auszeit am Nachmittag \u2013 alle Speisen und Getr\u00e4nke gibt es auch zum Mitnehmen.</p>", "url": "https://giessen.li/coffeehouse/", "image": "https://ltmpimtsoch.sos-ch-dk-2.exoscale-cdn.com/catalog/6/9/5/d/695dca61ebc3687deb4127516eec922d10f4d81c_ff_093.JPG", "openstreetmap_id": "node/929809055"}, "geometry": {"type": "Point", "coordinates": ["9.520050287246706", "47.13297988304543"]}}, {"type": "Feature", "properties": {"identifier": "e583b332-e98c-49e0-bdb4-f76367838210", "name": "B\u00e4ckerei W\u00fcst Balzers", "description": "<p>Neben ofenfrischen Broten und Kleingeb&auml;ck bietet die B&auml;ckerei eine feine Auswahl an Sandwiches, Salaten und s&uuml;ssen Desserts. Wer Schokolade liebt, wird hier ebenso f&uuml;ndig wie Kaffee-Liebhaber. In der Gelateria warten saisonale Glacesorten, und f&uuml;r kleine Aufmerksamkeiten stehen s&uuml;sse Geschenkideen bereit.</p>", "image": "https://ltmpimtsoch.sos-ch-dk-2.exoscale-cdn.com/catalog/9/a/9/7/9a97dc3e4b6fe969897414a54ea8065df7d49acb_baeckerei_wuest_balzers.jpeg", "openstreetmap_id": "way/450223288"}, "geometry": {"type": "Point", "coordinates": ["9.512309432029726", "47.07555101549962"]}}, {"type": "Feature", "properties": {"identifier": "e790c7e0-bd27-4dea-bacd-634ee0715c55", "name": "Restaurant R\u00f6ssle", "description": "<p>Im R\u00f6ssle werden von Montag bis Freitag t\u00e4glich wechselnde Mittagsmen\u00fcs angeboten. Am Abend kannst du dein Lieblingsmen\u00fc \u00e0 la carte w\u00e4hlen. Alle Speisen werden t\u00e4glich frisch zubereitet und mit saisonalen Produkten kombiniert.</p> <p>Nebst der Gaststube verf\u00fcgt das R\u00f6ssle \u00fcber einen Saal, welcher sich ideal f\u00fcr Familien-, Firmen- oder Vereinsfeiern eignet.</p>", "url": "http://www.restaurant-roessle.li", "image": "https://ltmpimtsoch.sos-ch-dk-2.exoscale-cdn.com/catalog/7/9/6/f/796fb0fe3ffbed8e62bd722bf732fdc752295d18_restaurant_roessle_schaan.jpeg", "openstreetmap_id": "node/1069966292"}, "geometry": {"type": "Point", "coordinates": ["9.508597254753115", "47.164443043655076"]}}, {"type": "Feature", "properties": {"identifier": "e817fd4f-d838-4011-a7e0-d740870045a1", "name": "Restaurant Torkel", "description": "<p>Das Restaurant befindet sich in einem mittelalterlichen Geb\u00e4ude, den Innenraum beherrscht ein aus einem St\u00fcck gefertigter Torkelbaum. Ende der 1960er Jahre wurde das Geb\u00e4ude zum Restaurant ausgebaut. Zwischen Trauben, Weinreben und einem bunt gemischten Publikum l\u00e4sst es sich vorz\u00fcglich ein k\u00f6stliches Essen geniessen.</p><p>Ivo Berger hat den Anspruch, stets den Gast und dessen Geschmack im Fokus zu haben. Nicht Trends nachzulaufen, sondern mit einer guten Portion Demut gegen\u00fcber den kulinarischen Vorg\u00e4ngern, das eigene K\u00f6nnen stets weiter auszubauen. Das Verwenden hochwertigster Produkte aus dem In- und Ausland ist f\u00fcr ihn keine Selbstverst\u00e4ndlichkeit, sondern ein Privileg. Zu den ausgezeichneten Speisen kannst du aus einem Sortiment von 300 Weinen aus allen Regionen Europas ausw\u00e4hlen.</p><p> Eine \u00fcberdachte und geheizte Terrasse \u00fcberrascht mit einer herrlichen Aussicht.</p>  ", "url": "http://www.torkel.li/", "image": "https://ltmpimtsoch.sos-ch-dk-2.exoscale-cdn.com/catalog/d/6/e/8/d6e8ea166dfd574c0794d1879a6fb6c53cf32989_restaurant_torkel_gourmet_vaduz.jpeg", "openstreetmap_id": "326059436"}, "geometry": {"type": "Point", "coordinates": ["9.519513845443727", "47.14421152877399"]}}, {"type": "Feature", "properties": {"identifier": "e971fac6-81e7-4fe5-ba9e-13a58404627a", "name": "Ristorante Cesare", "description": "<p>Mit viel Liebe zum Detail werden anspruchsvolle und kreative Gerichte aus frischen und naturnahen Zutaten gezaubert. Lassen sie sich hausgemachte Pasta, mediterrane Fischspezialit\u00e4ten oder das legend\u00e4re Risotto auf der Zunge zergehen, w\u00e4hrend sie in r\u00f6mischem Ambiente die Zeit vergessen.</p>", "url": "http://www.adler.li", "image": "https://ltmpimtsoch.sos-ch-dk-2.exoscale-cdn.com/catalog/0/a/1/8/0a18779b23f401c69322f28da2e73e1dbb74b552_ristorante_cesare_vaduz.jpeg", "openstreetmap_id": "node/315636972"}, "geometry": {"type": "Point", "coordinates": ["9.522791500706848", "47.14057371340195"]}}, {"type": "Feature", "properties": {"identifier": "e99a8e5e-b90e-46a9-adcb-22ed5bfb12ad", "name": "Gasthof Au", "description": "<p>Der Gasthof Au in Vaduz geh\u00f6rt zu den \u00e4ltesten Gastst\u00e4tten in Liechtensteins Hauptort und bietet eine urige Atmosph\u00e4re, in der sich Jung und Alt wohlf\u00fchlen. Die frische, gutb\u00fcrgerliche K\u00fcche begeistert mit traditionellen Gerichten, die in der gem\u00fctlichen Gaststube oder im idyllischen Garten serviert werden. Der Gasthof kannst du auch f\u00fcr Veranstaltungen mieten.</p>", "url": "http://www.gasthof-au.li", "image": "https://ltmpimtsoch.sos-ch-dk-2.exoscale-cdn.com/catalog/f/2/d/4/f2d456a1bf6a339e940b320d2ac19ea1daec6ef7_2021_12_03_LM_Shooting_Kulinarik_und_Kultur_in_Vaduz_0356.JPG", "openstreetmap_id": "164674458"}, "geometry": {"type": "Point", "coordinates": ["9.522029757499697", "47.13224996023379"]}}, {"type": "Feature", "properties": {"identifier": "ea9709ab-cec1-4b69-85d6-7854d9ab9629", "name": "Il Rifugio", "description": "<p>Hier erwarten dich feine Pizzen zum Mitnehmen.</p>", "image": "https://ltmpimtsoch.sos-ch-dk-2.exoscale-cdn.com/catalog/0/f/c/5/0fc584b7f8ff45fb2c3f04c6c5aa4990a2c0e749_il_rifugio_takeaway_mauren_liechtenstein.jpeg", "openstreetmap_id": "way/982211578"}, "geometry": {"type": "Point", "coordinates": ["9.541014432907106", "47.2196228307708"]}}, {"type": "Feature", "properties": {"identifier": "f60a30eb-83c3-41f5-a669-0aaf5e28b150", "name": "Restaurant Alpspitz", "description": "<p>Im Restaurant Alpspitz trifft traditionelle K\u00fcche auf moderne Kreationen, zubereitet aus regionalen und saisonalen Zutaten. Besonders hervorzuheben ist das exklusive Fleischangebot aus dem hauseigenen Dry Ager. G\u00e4ste erwartet eine breite Palette an kulinarischen Highlights \u2013 von klassischen Gerichten bis hin zu innovativen Neuinterpretationen. Das Restaurant befindet sich im Grand Casino Liechtenstein, kann aber unabh\u00e4ngig davon besucht werden.</p>", "url": "https://restaurant-alpspitz.li", "image": "https://ltmpimtsoch.sos-ch-dk-2.exoscale-cdn.com/catalog/a/5/6/4/a564e94abd3e0501b575ad4b1a3385d03003b510_alpspitz_grand_casino_bendern_liechtenstein.jpeg", "openstreetmap_id": "node/12119882214"}, "geometry": {"type": "Point", "coordinates": ["9.502685666084291", "47.20498557561466"]}}, {"type": "Feature", "properties": {"identifier": "f685835c-6c09-4b31-b847-20f7ad62034f", "name": "Restaurant new castle", "description": "<p>Das Restaurant l\u00e4dt zur Kaffeepause, zum Mittag- oder Abendessen oder zu einem Feierabendbier ein und bietet eine Sonnenterrasse mit Blick auf Schloss Vaduz.&nbsp;</p>", "url": "http://www.new-castle.li", "image": "https://ltmpimtsoch.sos-ch-dk-2.exoscale-cdn.com/catalog/9/6/b/a/96ba1f8ef0d03433029d6f5a8c9c0b70bd08e9de_restaurant_new_castle_vaduz.jpeg", "openstreetmap_id": "4759723754"}, "geometry": {"type": "Point", "coordinates": ["9.521300196647646", "47.13992787112641"]}}, {"type": "Feature", "properties": {"identifier": "f6c92735-fbaa-4637-9fcf-a03d371b343c", "name": "Restaurant Vibes", "description": "<p>Das Vibes bietet eine vielf\u00e4ltige Auswahl an gesunden Speisen \u2013 von Bowls und Wraps bis hin zu Burgern und Kebab, t\u00e4glich frisch zubereitet. Auch f\u00fcr vegetarische G\u00e4ste gibt es eine grosse Auswahl an frischen Salaten, Gem\u00fcsebowls und vegetarischen Wraps.</p>", "url": "http://www.vibes-restaurants.ch/", "image": "https://ltmpimtsoch.sos-ch-dk-2.exoscale-cdn.com/catalog/9/1/9/2/9192da611fd5ccf4e8bd06d6ba376a72a68b0267_vibes_schaan.jpeg", "openstreetmap_id": "592637235"}, "geometry": {"type": "Point", "coordinates": ["9.509514570236208", "47.16720757908152"]}}, {"type": "Feature", "properties": {"identifier": "f92b6412-7300-4874-90dc-4ce2ca317885", "name": "St. Martins Pub am Platz", "description": "<p>Entstanden ist mit dem PAP ein Ort f\u00fcr gesellige Abende und Gespr\u00e4che in Gesellschaft. Ein Treffpunkt f\u00fcr Eschen-Nendeln und das ganze Land, manchmal auch mit internationalen G\u00e4sten oder den Nachbarn aus dem Dreil\u00e4ndereck.</p>", "url": "https://www.pap.li/", "image": "https://ltmpimtsoch.sos-ch-dk-2.exoscale-cdn.com/catalog/f/8/d/c/f8dc87f556822e085fe99a44c4e3088a0603ec84_st_martins_pub_am_platz_pap_eschen.jpeg", "openstreetmap_id": "9218632092"}, "geometry": {"type": "Point", "coordinates": ["9.524557168283861", "47.2123678490269"]}}, {"type": "Feature", "properties": {"identifier": "fb361bbe-d612-4c64-8668-d5cffd279957", "name": "Restaurant Vivid", "description": "<p>Im Restaurant Vivid in Triesen erwartet dich ein kulinarisches Erlebnis der besonderen Art. Die exzellente K\u00fcche kombiniert sorgf\u00e4ltig ausgew\u00e4hlte, regionale Produkte mit der internationalen Erfahrung des Inhabers und K\u00fcchenchefs. Dabei entstehen gesunde und genussvolle Speisen, die von feinen Weinen aus der Region perfekt erg\u00e4nzt werden.</p>", "url": "https://restaurantvivid.li/", "image": "https://ltmpimtsoch.sos-ch-dk-2.exoscale-cdn.com/catalog/e/9/4/e/e94e524a0f5027391a30388333ae4bd6b1fcd983_restaurant_vivid_hotel_schatzmann_triesen.jpeg", "openstreetmap_id": "6508771889"}, "geometry": {"type": "Point", "coordinates": ["9.52366674822122", "47.11818235054985"]}}, {"type": "Feature", "properties": {"identifier": "fe883b54-94f7-498e-ab9b-4769762ac3ed", "name": "Brasserie Burg", "description": "<p style=\"box-sizing: inherit; line-height: 21px; font-variant-numeric: lining-nums;\">Die Brasserie Burg ist ein charmantes Restaurant, das seine G\u00e4ste nicht nur mit k\u00f6stlichen Gerichten am Mittag und Abend verw\u00f6hnt, sondern auch zu einer gem\u00fctlichen Kaffeepause oder einem entspannten Feierabendbier einl\u00e4dt.</p><p style=\"box-sizing: inherit; line-height: 21px; font-variant-numeric: lining-nums;\">Nur einige Schritte vom Busparkplatz entfernt offeriert das Restaurant feinste Steinofen-Pizzas, Sandwiches, Burgers und hausgemachte Pasta. Darunter finden sich auch ausreichend vegetarische und vegane Speisen.</p>", "url": "http://www.adler.li", "image": "https://ltmpimtsoch.sos-ch-dk-2.exoscale-cdn.com/catalog/8/a/2/b/8a2b3bb470ca98ffba0cf2baadfb57e1f87bf26f_brasserie_burg_vaduz.jpeg", "openstreetmap_id": "node/4759741819"}, "geometry": {"type": "Point", "coordinates": ["9.522748018101746", "47.140586711335125"]}}]}