{"type": "FeatureCollection", "features": [{"type": "Feature", "properties": {"identifier": "2022c090-07d1-4362-a24e-8f71486a4297", "name": "Park Hotel Sonnenhof", "description": "<p>Durch seine idyllische Lage im Herzen von Liechtenstein, ungef&auml;hr auf der H&ouml;he von Schloss Vaduz und umgeben von der hoteleigenen Parkanlage mit Quellwasser-Schwimmbad und Sauna, ist der Sonnenhof ein idealer Ort zum Entspannen. Das Restaurant sowie die Hotelzimmer sind mit viel Liebe zum Detail gestaltet. Sie verf&uuml;gen &uuml;ber Balkon bzw. Terrasse mit Aussicht auf die lokalen Weinberge, das Rheintal und die Schweizer Alpen. Die Besucher erwartet eine diskrete, leg&egrave;re Eleganz zum Wohlf&uuml;hlen sowie Familiengeist und inspirierende K&uuml;che.</p><p>Mit der Zustimmung des Hotels sind Haustiere grunds&auml;tzlich erlaubt. Es f&auml;llt eine entsprechende Geb&uuml;hr an.</p>", "url": "https://www.sonnenhof.li", "image": "https://ltmpimtsoch.sos-ch-dk-2.exoscale-cdn.com/catalog/d/f/d/b/dfdbbb2f38334fd9a300726b036b6b2861de9b7b_Aussenansicht3.jpg", "openstreetmap_id": "315637069"}, "geometry": {"type": "Point", "coordinates": ["9.523318906607185", "47.14713960081027"]}}, {"type": "Feature", "properties": {"identifier": "21f3a2a8-909b-436a-b01f-f621dc7bc4b3", "name": "Vaduzerhof by b_smart", "description": "<p>Nur rund vier Autominuten von der Autobahn A13 entfernt, befindet sich der Vaduzerhof by b_smart im Zentrum vom Hauptort Vaduz. Das historische Hotel ist im 1844 erbauten Geb&auml;ude untergebracht, in welchem der Liechtensteiner Landtag von 1862 &ndash; 1867 tagte.</p><p>Einchecken kann man selbst&auml;ndig rund um die Uhr am Check-in Terminal und anschliessend eines der 35 Zimmer beziehen. Nutze die Zentrumslage und flaniere durch die Fussg&auml;ngerzone Vaduz oder entspannen dich im Kellergew&ouml;lbe in der Sauna.</p><p>Egal ob Gesch&auml;ftsreise oder Ferientrip ins F&uuml;rstentum Liechtenstein &ndash; der Vaduzerhof bietet den idealen zentralen Ausgangspunkt.</p><p>Haustiere sind erlaubt, jedoch f&auml;llt eine Geb&uuml;hr von CHF 25 pro Nacht an.</p>", "url": "https://www.vaduzerhof.net/", "image": "https://ltmpimtsoch.sos-ch-dk-2.exoscale-cdn.com/catalog/c/f/c/f/cfcf685eea2ef05d1e1fc0cdcdd1b9da2261a7b3_4862_VADUZERHOF.jpg", "openstreetmap_id": "243055650"}, "geometry": {"type": "Point", "coordinates": ["9.52168643474579", "47.14120143372696"]}}, {"type": "Feature", "properties": {"identifier": "33e1cc9c-c894-44a3-ab03-51acb09201ad", "name": "Hotel-Gasthof L\u00f6wen", "description": "<p>Die Zimmer sind mit eleganten Stilm&ouml;beln und bequemen Betten ausgestattet. Mit viel Liebe zum Detail bietet das Hotel seinen G&auml;sten historisches Ambiente und zeitgem&auml;ssen Komfort.</p><p>Das Zentrum von Vaduz ist nur wenige Gehminuten entfernt.</p><p>Mit der Zustimmung des Hotels sind Haustiere grunds&auml;tzlich erlaubt. Es f&auml;llt m&ouml;glicherweise eine entsprechende Geb&uuml;hr an.</p>", "url": "https://www.hotel-loewen.li/tagungen/", "image": "https://ltmpimtsoch.sos-ch-dk-2.exoscale-cdn.com/catalog/9/e/d/5/9ed5001c6bd1e9ee6c416248c6f7ad33789eb2bf_2013_hotel_l__wen_vaduz_01__1_.jpg", "openstreetmap_id": "336434357"}, "geometry": {"type": "Point", "coordinates": ["9.518821835517885", "47.14269373220092"]}}, {"type": "Feature", "properties": {"identifier": "3c87193c-b4aa-4a2d-9da1-ec467fe92bf6", "name": "Alpin Royal Hotel", "description": "<p>Inmitten eines wirtschaftlich starken Umfelds und mit Blick auf die beeindruckende Bergwelt Liechtensteins und der Schweiz heisst das Alpin Royal Hotel sowohl anspruchsvolle Gesch\u00e4ftsreisende als auch Urlauber willkommen, die stilvollen Komfort und naturnahe Erholung sch\u00e4tzen.</p><p>Die 26 modernen Zimmer und f\u00fcnf grossz\u00fcgigen Suiten bieten ideale Voraussetzungen f\u00fcr erholsame Tage. Ein reichhaltiges Fr\u00fchst\u00fccksbuffet ist im Zimmerpreis inbegriffen. Am Abend verw\u00f6hnt das hauseigene Restaurant mit regional inspirierter K\u00fcche und einer erlesenen Auswahl an Weinen seine G\u00e4ste.</p><p>Dank kostenfreier Tiefgarage und der N\u00e4he zur Autobahn A13 bei Buchs - nur sechs Minuten entfernt - gestaltet sich die Anreise besonders bequem.</p><p>Aktive G\u00e4ste finden in der Umgebung vielf\u00e4ltige M\u00f6glichkeiten: Ob Wandern, Radfahren oder ein spannender Abend im Alpin Royal Casino - Freizeitvergn\u00fcgen ist garantiert.</p><p>Ganz gleich, ob gesch\u00e4ftlicher Aufenthalt oder entspannte Auszeit: Das Alpin Royal Hotel steht f\u00fcr Erholung, Genuss und unvergessliche\u00a0#RoyalMoments\u00a0- mitten in Liechtenstein.</p>", "url": "https://alpin-royal.li/hotel/", "image": "https://ltmpimtsoch.sos-ch-dk-2.exoscale-cdn.com/catalog/2/0/0/9/2009ab321eaf18e2e7f6eab789f36e5a8b2254de_10___KPZ_1297_2.jpg", "openstreetmap_id": "lat=47.174536&lon=9.510164&zoom=19#map=19/47.174536/9.510165"}, "geometry": {"type": "Point", "coordinates": ["9.510115385055544", "47.17457711028904"]}}, {"type": "Feature", "properties": {"identifier": "41c17a39-4f2c-42b4-a35a-f15989d36520", "name": "Kloster by b_smart", "description": "<p>G&auml;ste geniessen die historischen Grundmauern des&nbsp;Klosters St. Elisabeth&nbsp;mit einer einzigartigen Aussicht auf Schaan und Liechtenstein. Das modern renovierte Hotel&nbsp;Kloster by b_smart&nbsp;hat beim Umbau die Historie des Hauses ber&uuml;cksichtigt und l&auml;dt auf eine einzigartige Entdeckungsreise ein.&nbsp;</p><p>Direkt vor den Toren des Klosters liegt der Wirtschafts- und Industriestandort Liechtenstein. Somit eignet sich das Hotel perfekt f&uuml;r Gesch&auml;fts- wie auch Freizeitreisende. Durch den modernen Stil des Hotels, welcher sich mit dem historischen Kloster vereint, entsteht&nbsp;ein einzigartiges G&auml;steerlebnis.</p><p>Mit 19 hellen und modernen Zimmern bietet das Kloster by b_smart genug Platz, um sich wohl zu f&uuml;hlen.</p><p>Mit der Zustimmung des Hotels sind Haustiere grunds&auml;tzlich erlaubt. Es f&auml;llt eine entsprechende Geb&uuml;hr an.</p>", "url": "https://www.kloster-schaan.net/", "image": "https://ltmpimtsoch.sos-ch-dk-2.exoscale-cdn.com/catalog/b/3/1/a/b31af89e88c8ccad2a0bda171e597bd571dc7ed4_kloster_22.jpg", "openstreetmap_id": "11227602753"}, "geometry": {"type": "Point", "coordinates": ["9.519996643066408", "47.1668392021193"]}}, {"type": "Feature", "properties": {"identifier": "472bf920-6ad3-48cf-bd74-40251c223002", "name": "Gasthaus Krone", "description": "<p>Das Gasthaus ist ruhig gelegen und idealer Ausgangspunkt f\u00fcr Ausfl\u00fcge und leichte Wanderungen. Entspannen kann man im hauseigenen Hallenbad.</p><p>Ab einem Aufenthalt von sieben Tagen erhalten G\u00e4ste einen \u00abLong Stay Rabatt\u00bb.</p>", "url": "http://www.hotelkrone.li", "image": "https://ltmpimtsoch.sos-ch-dk-2.exoscale-cdn.com/catalog/c/d/5/b/cd5b0a2f01bc775e16d3a4ab67200b8c23992c84_2013_hotel_krone_schellenberg_01.jpg", "openstreetmap_id": "way/979391079"}, "geometry": {"type": "Point", "coordinates": ["9.546990394592287", "47.231371638188136"]}}, {"type": "Feature", "properties": {"identifier": "47a5ec25-bf69-415d-bc29-7d4b300a3b30", "name": "JUFA Hotel Malbun", "description": "<p>Das moderne Hotel liegt im Hochtal Malbun, eingebettet in die Alpen Turna und Pradamee, in der Gemeinde Triesenberg.</p><p>Im JUFA Hotel Malbun f&uuml;hlen sich Familien besonders wohl. Mit der Kinderspielelandschaft, den hoteleigenen Familienangeboten, angefangen beim Kinderspielbereich und der hoteleigenen Kinderbetreuung in den Ferien, &uuml;ber gef&uuml;hrte Wanderungen, bis hin zur Kleinsporthalle, kommt bei Gross und Klein garantiert keine Langeweile auf.</p><p>Durch die unmittelbare Lage inmitten der Berge geniessen die G&auml;ste im Sommer wie im Winter den Komfort, direkt beim Hotel mit verschiedensten Freizeitaktivit&auml;ten starten zu k&ouml;nnen. Sei es zu einer Wanderung auf die umliegenden Gipfel oder zu einem sportlichen Skitag auf 1600 &ndash; 2000 m &uuml;. M.</p><p>Malbun hat all seine Angebote gezielt auf die Bed&uuml;rfnisse von Kindern, Eltern und Begleitpersonen ausgerichtet. Das JUFA Hotel tr&auml;gt zudem das G&uuml;tesiegel &laquo;TOP Familienhotel&raquo;.</p><p><strong>Das JUFA Hotel Malbun&nbsp;bietet:</strong></p><ul><li>58 Zimmer</li><li>Alle Zimmer mit Allergiker-Ausstattung, Dusche, WC, TV, Safe, WLan</li><li>Caf&eacute;/Bar sowie Restaurant</li><li>Sonnenterrasse direkt an der Skipiste</li><li>Alpin Wellness (Sauna, Dampfbad, Infrarot, Ruhezone)</li><li>Multifunktionsr&auml;ume (Seminar, Aufenthaltsr&auml;ume f&uuml;r Gruppen)</li><li>Indoor Kleinkinderspielbereich &laquo;Kinderland&raquo; und Outdoorspielplatz</li><li>Kleinsporthalle (10 x 18 m)</li><li>Fitnessraum</li><li>Skistall und Trockenraum</li><li>Kinderbetreuung in den Ferien</li></ul><p>Haustiere sind grunds&auml;tzlich erlaubt. Es f&auml;llt eine entsprechende Geb&uuml;hr an.</p>", "url": "https://www.jufa.eu", "image": "https://ltmpimtsoch.sos-ch-dk-2.exoscale-cdn.com/catalog/6/d/0/1/6d0162b2b87966bd6990ef2ac1249dca4a1099c7_JUFA_Sommer_1.jpg", "openstreetmap_id": "298855537"}, "geometry": {"type": "Point", "coordinates": ["9.604952931404116", "47.10495579492308"]}}, {"type": "Feature", "properties": {"identifier": "4fef856a-5c35-4ff7-9506-891f694097f7", "name": "B&B Hotel Liechtenstein-Eschen", "description": "<p data-start=\"379\" data-end=\"728\">Die Zimmer sind hell und freundlich gestaltet und &uuml;berzeugen mit klarem Design sowie einer Ausstattung, die auf die Bed&uuml;rfnisse von Reisenden zugeschnitten ist. Ganz gleich, ob gesch&auml;ftlich unterwegs, auf Entdeckungstour durch die kulturellen Highlights des F&uuml;rstentums oder auf der Suche nach Naturerlebnissen &ndash; das Hotel ist ein idealer Ausgangspunkt.</p><p data-start=\"730\" data-end=\"821\">Jeden Morgen erwartet die G&auml;ste ein abwechslungsreiches und reichhaltiges Fr&uuml;hst&uuml;cksbuffet.</p>", "url": "https://www.hotel-bb.com/de/hotel/liechtenstein-eschen", "image": "https://ltmpimtsoch.sos-ch-dk-2.exoscale-cdn.com/catalog/e/c/f/2/ecf21a7a99bcb61945c6a2eb1aa3e0314d4ba0a3_CSP_10282024_Ospelt_Flow_014.jpg", "openstreetmap_id": "lat=47.206554&lon=9.536532"}, "geometry": {"type": "Point", "coordinates": ["9.536626338958742", "47.20648692050958"]}}, {"type": "Feature", "properties": {"identifier": "51d1d5c2-6c28-48fc-b241-fafa54d73663", "name": "Jugendherberge Schaan-Vaduz", "description": "<p>Die Jugendherberge Schaan-Vaduz liegt westlich unterhalb der Landstrasse von Vaduz nach Schaan. In der N&auml;he befinden sich das Schwimmbad M&uuml;hleholz sowie der Minigolfplatz. Ebenfalls in wenigen Minuten erreicht man eine Bushaltestelle. Mit dem Fahrrad kann man von der Jugendherberge aus ausgedehnte Touren unternehmen. Ums Haus laden Liegest&uuml;hle und Sitzgelegenheiten mit Blick in die Rheinebene und ihrer Bergwelt zum Verweilen ein. Zur Infrastruktur geh&ouml;ren zudem eine Spielecke, Tischtennis, Tischfussball sowie ein Ruheraum.</p><p>Das helle und grossz&uuml;gige Haus ist besonders f&uuml;r Trainingslager, Seminare und Familien geeignet: beste Trainingsbedingungen in der Region, vollst&auml;ndig ausger&uuml;steter Seminarraum f&uuml;r bis zu 50 Personen und ger&auml;umige Familienzimmer.</p><p><strong>Zimmer</strong></p><ul><li>12 Doppelzimmer mit Bad</li><li>4 Familienzimmer mit Bad</li><li>Diverse 4- und 6-Bett-Zimmer mit Etagen-Dusche</li></ul><p>Haustiere sind auf Anfrage gestattet. M&ouml;glicherweise fallen Geb&uuml;hren an.</p>", "url": "http://www.youthhostel.ch/en/hostels/schaan-vaduz", "image": "https://ltmpimtsoch.sos-ch-dk-2.exoscale-cdn.com/catalog/f/8/e/7/f8e7f8ede85559dcbf54ddfd9ca96777b768beb1_swiss_youth_hostel_schaan_vaduz_16.jpg", "openstreetmap_id": "1911099986"}, "geometry": {"type": "Point", "coordinates": ["9.506118893623354", "47.156896299073416"]}}, {"type": "Feature", "properties": {"identifier": "5418c195-8b56-4212-b294-81b3940a2689", "name": "Hotel Central by Residence", "description": "<p>Das Hotel Central befindet sich am zentralsten Ort der liechtensteinischen Hauptstadt und bietet moderne und elegante Zimmer mit Schwerpunkt auf hochwertigen Materialien, exzellentem Service und traditionellem Essen.</p><p>Elegant, modern und atemberaubend, eine neue Definition von Luxus: Diese 17&nbsp;Zimmer und Suiten wurden 2019 erbaut und befinden sich im Neubau des Residence Hotels. Der bemerkenswerte Blick &uuml;ber die Stadt begeistert die G&auml;ste und das Hotel z&auml;hlt viele&nbsp;Stammg&auml;ste. Im Winter kann man die strahlende Wintersonne mit der frischen Bergluft geniessen und die Landschaft feiern. Im Sommer macht der frische Grasgeruch in Kombination mit einem k&uuml;hlen Wind aus dem S&uuml;den den Balkon noch angenehmer.</p><p>F&uuml;r dieses Projekt wurden nur die besten Materialien und M&ouml;bel ausgew&auml;hlt. Alle Zimmer sind unterschiedlich und sehen wie eine Boutique aus, mit einem uneingeschr&auml;nkten Sinn f&uuml;r Stil und einem Auge f&uuml;rs Detail. Mit weichen Oberfl&auml;chen und hellen Farben wirst du dich zweifellos wie zu Hause f&uuml;hlen.</p>", "url": "https://www.residence.li", "image": "https://ltmpimtsoch.sos-ch-dk-2.exoscale-cdn.com/catalog/9/f/8/0/9f80291ae8eef8d6979a538ce3c0101fc4adbc0e_2__.jpg", "openstreetmap_id": "way/496365016"}, "geometry": {"type": "Point", "coordinates": ["9.522930113414194", "47.140200811185714"]}}, {"type": "Feature", "properties": {"identifier": "5e67025e-1de3-4731-8f16-24caca073056", "name": "Hotel Schatzmann", "description": "<p>Das Hotel Schatzmann in Triesen liegt nur zwei Kilometer s\u00fcdlich von Vaduz, sodass das Zentrum des Hauptorts in wenigen Minuten mit dem Auto oder \u00f6ffentlichen Verkehrsmitteln zu erreichen ist. Umgeben von einer atemberaubenden Berglandschaft bietet das famili\u00e4r gef\u00fchrte Hotel eine herzliche Atmosph\u00e4re und komfortable Unterk\u00fcnfte.</p><p>Die Standard-Zimmer im Haupthaus sind im alpenl\u00e4ndischen Stil gehalten und mit 3 Sternen klassifiziert. Besonders ruhig gelegen ist der Anbau, in dem sich moderne 4-Sterne-Zimmer und Suiten befinden. G\u00e4ste profitieren zudem vom freien Zugang zum Fitnesscenter im Nebenhaus, das mit den neuesten Ger\u00e4ten ausgestattet ist.\u00a0</p><p>Haustiere sind grunds\u00e4tzlich erlaubt. Es f\u00e4llt m\u00f6glicherweise eine entsprechende Geb\u00fchr an.</p>", "url": "https://schatzmann.li/", "image": "https://ltmpimtsoch.sos-ch-dk-2.exoscale-cdn.com/catalog/4/6/9/5/4695d1f2873d4645e7c92b18baad40a0af21ba9e_Hotel_Schatzmann_Triesen__1_.jpg", "openstreetmap_id": "272649999"}, "geometry": {"type": "Point", "coordinates": ["9.523488879203798", "47.11819772684304"]}}, {"type": "Feature", "properties": {"identifier": "7575db7e-72d3-4b17-9911-9e6624315299", "name": "Landhaus Boutique Motel", "description": "<p>Das Landhaus Boutique Motel bietet einen stilvoll eingerichteten R\u00fcckzugsort mit Blick auf die Berge. Dank der g\u00fcnstigen Lage sind Vaduz und Feldkirch in nur zehn Minuten erreichbar, w\u00e4hrend Restaurants und Einkaufsm\u00f6glichkeiten in unmittelbarer N\u00e4he liegen. G\u00e4sten stehen kostenfreie Parkpl\u00e4tze direkt vor dem Geb\u00e4ude zur Verf\u00fcgung, ebenso wie eine gute Anbindung an \u00f6ffentliche Verkehrsmittel. Die N\u00e4he zur Grenze von \u00d6sterreich und der Schweiz macht das Motel zu einer praktischen Wahl f\u00fcr Gesch\u00e4ftsreisende und Urlauber.</p><p>Mit der Zustimmung des Hotels sind Haustiere grunds\u00e4tzlich erlaubt. Es f\u00e4llt eine entsprechende Geb\u00fchr an.</p>", "url": "https://www.landhaus-nendeln.li/", "image": "https://ltmpimtsoch.sos-ch-dk-2.exoscale-cdn.com/catalog/7/f/f/2/7ff249a2589df9d26be313c867043ed9ca726a15_f__r_Simplebooking.jpg", "openstreetmap_id": "way/997717205"}, "geometry": {"type": "Point", "coordinates": ["9.544115066528322", "47.20032353092113"]}}, {"type": "Feature", "properties": {"identifier": "7c9a43b3-b64b-43bf-ada8-a5bea55e1c94", "name": "Landgasthof R\u00f6ssle", "description": "<p>Seit Generationen steht der Landgasthof R\u00f6ssle f\u00fcr echte liechtensteinische Gastfreundschaft, gutb\u00fcrgerliche K\u00fcche und eine herzliche, entspannte Atmosph\u00e4re. Der traditionsreiche Familienbetrieb verbindet kulinarische Qualit\u00e4t mit pers\u00f6nlicher Betreuung und bietet dar\u00fcber hinaus komfortable Zimmer im gem\u00fctlichen Landhausstil.</p><p>Auch Familien sind hier bestens aufgehoben: F\u00fcr Kinder gibt es einen hauseigenen Spielplatz, der viel Raum f\u00fcr Spass und Bewegung.</p>", "url": "http://www.roessle.li", "image": "https://ltmpimtsoch.sos-ch-dk-2.exoscale-cdn.com/catalog/2/6/4/9/2649799eba21ce911030872b64a212dd644b34de_2013_hotel_r__ssle_ruggell_01.jpg", "openstreetmap_id": "256767080"}, "geometry": {"type": "Point", "coordinates": ["9.524475932121279", "47.24364230016901"]}}, {"type": "Feature", "properties": {"identifier": "7d3ad8e7-2e70-4cac-bbda-4b994baf14ea", "name": "Hotel Turna Malbun", "description": "<p>Gastlich, herzlich, urig: Das traditionelle Familienhotel Turna begeistert seit mehr als 50 Jahren seine G&auml;ste. Das Hotel war stets im Besitz der Gastronomen-Familie Lampert. Durch echte Gastfreundschaft, herzhaftes Essen und eine ganz in Holz gehaltene Ausstattung f&uuml;hlen sich G&auml;ste hier &laquo;daheim&raquo;. Das Hotel ist im Herzen von Malbun direkt bei der Sesselbahn Malbun-Sareis in herrlicher Umgebung gelegen.</p><p><strong>Das Hotel Turna Verw&ouml;hnspektrum</strong>:</p><ul><li>gepflegtes Restaurant mit regionalen Spezialit&auml;ten</li><li>Sonnenterrasse mit Liegest&uuml;hlen, Tischtennis und Kinderspielger&auml;ten</li><li>Saunalandschaft mit Kneippbecken, Ruheraum und Hallenbad</li><li>Kinderspielzimmer</li></ul><p>Drei Zimmer sind behindertengerecht mit entsprechenden Toiletten und Duschen eingerichtet, auch das Restaurant, die Stockwerke, der Eingangsbereich und der Lift sind behindertengerecht.</p><p>Das Hotel Turna wurde durch hotelleriesuisse als&nbsp;Top-Familienhotel&nbsp;ausgezeichnet.</p><p>Haustiere sind gestattet. M&ouml;glicherweise fallen Geb&uuml;hren an.</p>", "url": "http://www.turna.li", "image": "https://ltmpimtsoch.sos-ch-dk-2.exoscale-cdn.com/catalog/f/8/4/a/f84a0bfad28d2f2619b78f33378d2264fbf97733_Hotel_Turna_Aussenansicht_Sommer.jpg", "openstreetmap_id": "210655048"}, "geometry": {"type": "Point", "coordinates": ["9.610846472941427", "47.101095642321575"]}}, {"type": "Feature", "properties": {"identifier": "811c1588-7044-478f-9b26-025db849a3f3", "name": "Haus Gutenberg", "description": "<p>Das G\u00e4ste-, Bildungs- und Seminarhaus liegt auf dem&nbsp;<span style=\"text-align: center;\">\u00ab</span>guten Berg<span style=\"text-align: center;\">\u00bb</span>&nbsp;in Balzers. Unterhalb der Burg Gutenberg erbaut, ist es ein Ort, der Kraft ausstrahlt und Menschen zur Ruhe kommen l\u00e4sst. Inmitten der Weinberge, in einzigartiger Umgebung \u00fcbernachten G\u00e4ste in einem der hellen und freundlichen Zimmer. Ausserdem stehen die modernen, hellen Seminarr\u00e4ume f\u00fcr Meetings oder Seminare zur Verf\u00fcgung.<br> Eine Zimmerbuchung ist unabh\u00e4ngig von einer Seminarbuchung m\u00f6glich.</p>  ", "url": "https://www.haus-gutenberg.li/tagungsort/seminarraeume.html", "image": "https://ltmpimtsoch.sos-ch-dk-2.exoscale-cdn.com/catalog/3/0/f/9/30f98f1a5893afb2e1b26dfece11a3bda953f24b_20150614_0030_resized.jpg", "openstreetmap_id": "165294616"}, "geometry": {"type": "Point", "coordinates": ["9.499145150184633", "47.06369819508099"]}}, {"type": "Feature", "properties": {"identifier": "8197dc40-65cc-4abb-b7b9-ed817080f14c", "name": "Grand Casino Hotel Liechtenstein", "description": "<p>G\u00e4ste erwarten zehn stilvolle Doppelzimmer und eine ger\u00e4umige Suite mit beeindruckendem Blick auf die liechtensteinische und Schweizer Bergwelt. Das reichhaltige Fr\u00fchst\u00fcck sorgt f\u00fcr einen gelungenen Start in den Tag, w\u00e4hrend das hauseigene Restaurant Alpspitz kulinarische Highlights am Abend bietet. Dank der direkten Anbindung an die Schweizer Rheintal-Autobahn A13 und den kostenfreien Parkpl\u00e4tzen ist eine bequeme Anreise garantiert. F\u00fcr besondere Genussmomente l\u00e4dt die Rooftop Bar im 4. Stock mit edlen Getr\u00e4nken und traumhafter Aussicht ein.</p>", "url": "https://gchotel.li/", "image": "https://ltmpimtsoch.sos-ch-dk-2.exoscale-cdn.com/catalog/5/c/0/b/5c0b3b489c3afec55348ced9c4e68c733e812f5c_Grand_Casino_Hotel__3_.jpeg", "openstreetmap_id": "984924363"}, "geometry": {"type": "Point", "coordinates": ["9.502597517743133", "47.205194495342994"]}}, {"type": "Feature", "properties": {"identifier": "92ad0473-93e8-444b-9b13-a61925b2c5fe", "name": "b_smart hotel Bendern", "description": "<p>Nur f\u00fcnf Autominuten von der Schweizer Autobahn A13 entfernt, liegt das Hotel inmitten des Industrie- und Wirtschaftsstandortes F\u00fcrstentum Liechtenstein. Einchecken kann man rund um die Uhr und ohne Zeitverlust am Check-in Terminal. Neben den 57 topmodernen Zimmern bietet das b_smart hotel auch einen exklusiven Fitness- und Wellnessbereich. Egal ob f\u00fcr Businessreisende oder f\u00fcr Urlauber, ob f\u00fcr kurze oder l\u00e4ngere Aufenthalte - im b_smart hotel im F\u00fcrstentum Liechtenstein zu \u00fcbernachten lohnt sich.</p><p>Mit der Zustimmung des Hotels sind Haustiere grunds\u00e4tzlich erlaubt. Es f\u00e4llt eine entsprechende Geb\u00fchr an.</p>", "url": "https://www.b-smarts.net/bendern/meeting-events", "image": "https://ltmpimtsoch.sos-ch-dk-2.exoscale-cdn.com/catalog/1/2/d/c/12dc3547ceb2dcddfe1960a5706e031ae214d90f__C__Hannes_Niederkofler_HQ_1658.jpg", "openstreetmap_id": "984924361"}, "geometry": {"type": "Point", "coordinates": ["9.502149225729234", "47.20525821699224"]}}, {"type": "Feature", "properties": {"identifier": "b15dc365-27cf-4666-8c6a-51a2a10c0d01", "name": "Hotel kommod", "description": "<p>Herzlich willkommen im Naherholungsgebiet Ruggell.\u00a0Ob Businessgast oder Urlauber \u2013 das moderne Self-Check-in-Hotel kommod empf\u00e4ngt seine G\u00e4ste in ruhiger Lage in Ruggell, 1.5 km von der Autobahn A13 entfernt.</p><p>Die geschmackvoll und modern eingerichteten Zimmer mit kostenfreiem WLAN verf\u00fcgen \u00fcber schallisolierte, raumhohe Fenster, die ge\u00f6ffnet werden k\u00f6nnen, einen Flachbild-TV, einen Safe sowie ein Bad mit einer Regendusche und einem beleuchteten Schminkspiegel.</p><p>Mit seinen verschiedenen R\u00e4umlichkeiten ist das kommod auch eine ideale Location\u00a0f\u00fcr erfolgreiche Tagungen, Seminare und Veranstaltungen.\u00a0G\u00e4sten stehen zudem kostenlose Leihfahrr\u00e4der zur Verf\u00fcgung \u2013 ideal, um die Umgebung aktiv und flexibel zu erkunden.</p><p>Das <a href=\"https://tourismus.dev.cms.tso.ch/map/poi/restaurant-tenn-be5d2d19-ab2f-4570-886c-9a8d1a4201b7.html\" rel=\"noopener noreferrer\" target=\"_blank\">Restaurant\u00a0\u00abtenn\u00bb</a>, das sich im Hotel befindet, serviert regionale und internationale K\u00fcche. Die hauseigene Bar mit einer Snackkarte, kostenlose Parkpl\u00e4tze in der \u00fcberdachten Garage sowie mehrere Tagungs- und Businesseinrichtungen im Hotel runden das Angebot ab.</p><p>Der Check-in ist rund um die Uhr \u00fcber einen Check-in-Automaten direkt im Hoteleingang selbstst\u00e4ndig m\u00f6glich.</p><p>Mit der Zustimmung des Hotels sind Haustiere grunds\u00e4tzlich erlaubt. Es f\u00e4llt eine entsprechende Geb\u00fchr pro Nacht an.</p>", "url": "https://www.kommod.li/de/seminare-events/seminarraum-anfrage/", "image": "https://ltmpimtsoch.sos-ch-dk-2.exoscale-cdn.com/catalog/9/5/c/5/95c5ca613578ef66ba8908849de083465209386c_Kommod_Hotelzimmer_4.jpg", "openstreetmap_id": "9169393281"}, "geometry": {"type": "Point", "coordinates": ["9.528279304504396", "47.24859854702802"]}}, {"type": "Feature", "properties": {"identifier": "ba2d6e80-de33-4be5-a541-100f886a3388", "name": "Hotel Falknerei Galina", "description": "<p>Das Hotel liegt im idyllischen Bergdorf Malbun, dem einzigen Skigebiet im F\u00fcrstentum Liechtenstein, auf 1600 m \u00fc. M. Nach einer erholsamen Nacht werden die G\u00e4ste mit einem reichhaltigen Fr\u00fchst\u00fccksbuffet verw\u00f6hnt.</p><p>Im Winter geht\u2019s vom Skiraum aus direkt auf die Piste oder in 2-3 Minuten Fussweg auf den Eisplatz oder zum Schlitteln. Die Schneesportschule, das Ski-Kinderparadies <a href=\"https://tourismus.dev.cms.tso.ch/map/poi/malbi-park-d51eea1f-6bd6-45f3-8891-00ca606586a1.html\" rel=\"noopener noreferrer\" target=\"_blank\">malbi-park</a> oder das Sportgesch\u00e4ft <a href=\"https://tourismus.dev.cms.tso.ch/map/poi/malbun-sport-9c757e6b-ea49-4a77-ae7f-c3cfd2f9f8cc.html\" rel=\"noopener noreferrer\" target=\"_blank\">Malbun Sport</a> sind ebenfalls nur wenige Gehminuten entfernt. Parken k\u00f6nnen G\u00e4ste kostenlos, direkt vor dem Hotel.</p><p>Von Juni bis Anfang Oktober bietet das Galina mit seiner Falknerei eine spektakul\u00e4re Greifvogel-Show sowie privat gef\u00fchrte, weltweit einzigartige Adler- und Harris-Hawk-Erlebnisse\u00a0an. Hierbei erlebst du die faszinierende Welt von Steinadler, Falke, Uhu &amp; Co. hautnah.</p><p>Mit der Zustimmung des Hotels sind Haustiere grunds\u00e4tzlich erlaubt. Es f\u00e4llt eine entsprechende Geb\u00fchr an.</p>", "url": "https://www.galina.li", "image": "https://ltmpimtsoch.sos-ch-dk-2.exoscale-cdn.com/catalog/a/a/e/a/aaea7019f042fd4cb66344550ed726e4a811db77_galina_2026_01_02_0088.jpg", "openstreetmap_id": "way/210655136"}, "geometry": {"type": "Point", "coordinates": ["9.608223873582316", "47.10226223726954"]}}, {"type": "Feature", "properties": {"identifier": "c2e73a58-01d8-44ea-913c-15acdedf5cdd", "name": "Giessen Hotel & Coffeehouse", "description": "<p>Das Giessen Hotel &amp; Coffeehouse in Vaduz bietet alles f\u00fcr einen komfortablen Aufenthalt in Liechtenstein. Das Drei-Sterne-Haus \u00fcberzeugt mit einer gem\u00fctlichen Atmosph\u00e4re, stilvollen Zimmern, einem servierten Fr\u00fchst\u00fcck als \u201eBuffet-\u00e0-la-carte\u201c\u00a0und kostenlosem WLAN im gesamten Geb\u00e4ude. Dank des 24/7 Self-Check-in-Systems reisen G\u00e4ste jederzeit flexibel an.</p><p>Radfahrer und Outdoor-Fans profitieren von einer Fahrradgarage und E-Bike-Ladestationen, w\u00e4hrend das Stadtzentrum von Vaduz in nur 10 Gehminuten erreichbar ist.</p><p>Hunde sind auf Anmeldung willkommen (CHF 20/Nacht/Hund).</p>", "url": "https://giessen.li/meeting/", "image": "https://ltmpimtsoch.sos-ch-dk-2.exoscale-cdn.com/catalog/e/b/f/2/ebf29b2b9bccfd5d68b1bf9bde19fdee2982588e_Hotel_Giessen_Zimmer.jpg", "openstreetmap_id": "node/929809055"}, "geometry": {"type": "Point", "coordinates": ["9.520313143730165", "47.132932401429855"]}}, {"type": "Feature", "properties": {"identifier": "d5cce0ca-da52-4c82-83c4-e7ed9bb17cf4", "name": "b_smart motel Schaan", "description": "<p>Das b_smart motel \u00fcberzeugt mit topmodernem Design, flexibler 24/7 Self-Check-in-M\u00f6glichkeit und einem attraktiven Preis-Leistungs-Verh\u00e4ltnis. Mit 15 komfortablen Zimmern bietet es einen entspannten Aufenthalt mitten in Liechtenstein. Dank der zentralen Lage sind Unternehmen im Wirtschafts- und Industriestandort Liechtenstein schnell erreichbar. Ein Fr\u00fchst\u00fcck ist inklusive, damit G\u00e4ste gest\u00e4rkt in den Tag starten k\u00f6nnen.</p><p>Mit der Zustimmung des Hotels sind Haustiere grunds\u00e4tzlich erlaubt. Es f\u00e4llt eine entsprechende Geb\u00fchr an.</p>", "url": "https://www.b-smarts.net/schaan", "image": "https://ltmpimtsoch.sos-ch-dk-2.exoscale-cdn.com/catalog/4/6/e/0/46e0257c5c19a55be1f4b84e5c50c32758d5bdd5_b_smart_motel_Schaan_22__1_.jpg", "openstreetmap_id": "12174710073"}, "geometry": {"type": "Point", "coordinates": ["9.51914274818941", "47.17874669713654"]}}, {"type": "Feature", "properties": {"identifier": "e2ea1184-ac14-430f-b360-79c60e5d254c", "name": "Residence", "description": "<p>Das Residence besteht seit dem Jahr 2003 und fasziniert G\u00e4ste seitdem durch sein klassisches Interieur, das Komfort und Eleganz kombiniert. Ob Familienaufenthalt, romantischer Kurzurlaub oder Gesch\u00e4ftsreise - das Residence bietet f\u00fcr jeden Anlass geeignete Zimmer und passt sich den Bed\u00fcrfnissen der G\u00e4ste an. Der Fokus liegt dabei stets auf dem Komfort, der Liebe zum Detail und einem aufrichtigen, heimeligen Gef\u00fchl.</p><p>Das Boutique-Hotel umfasst insgesamt 46 Zimmer und ist in zwei Bereiche mit ganz unterschiedlichem Stil unterteilt: das Residence Hotel mit 29 Zimmern und das modern-luxuri\u00f6se Central mit 17 Zimmern.</p><p>Mit der Zustimmung des Hotels sind Haustiere grunds\u00e4tzlich erlaubt. Es f\u00e4llt eine entsprechende Geb\u00fchr an.</p>", "url": "https://residence.li/", "image": "https://ltmpimtsoch.sos-ch-dk-2.exoscale-cdn.com/catalog/2/c/7/b/2c7bc5abe6ca31219836319773d89753aa3341ca_aussen.jpg", "openstreetmap_id": "node/315636967"}, "geometry": {"type": "Point", "coordinates": ["9.522807598114014", "47.14001179871589"]}}, {"type": "Feature", "properties": {"identifier": "e64eadb6-138a-40e6-a169-799b7cdf3156", "name": "Hotel Weinstube", "description": "<p>Das Hotel Weinstube in Nendeln bietet eine famili\u00e4re Atmosph\u00e4re und l\u00e4dt zum Entspannen oder f\u00fcr Seminare in angenehmer Umgebung ein. Die zentral gelegene Unterkunft grenzt direkt an die Natur des Liechtensteiner Unterlands und bietet eine erholsame Auszeit. Im dazugeh\u00f6rigen Restaurant Weinstube kannst du aus \u00fcber 200 Weinsorten w\u00e4hlen und regionale K\u00f6stlichkeiten geniessen.</p><p>Haustiere sind auf Anfrage gestattet. M\u00f6glicherweise fallen Geb\u00fchren an.</p>  ", "url": "http://www.weinstube.li", "image": "https://ltmpimtsoch.sos-ch-dk-2.exoscale-cdn.com/catalog/1/1/d/d/11dd17d0aee8d38972cb7891c4ecb3ac873161c2_170422_Webseite_Weinstube_Vinothek_Sch__chle_454.jpg", "openstreetmap_id": "node/4132104566"}, "geometry": {"type": "Point", "coordinates": ["9.543841588552096", "47.19986657860388"]}}, {"type": "Feature", "properties": {"identifier": "fe2e7d3c-066d-46b1-a1d2-c6158538c743", "name": "Familienhotel Gorfion Liechtenstein", "description": "<p>F&uuml;r das Familienhotel Gorfion Liechtenstein, inmitten der malerischen Bergwelt von Malbun, beginnt ein neues Kapitel. Mit dem feierlichen Spatenstich am 24. April 2025 fiel der Startschuss f&uuml;r das gr&ouml;sste Umbauprojekt in der Geschichte des Hauses: Bis zum 04. Dezember 2026 entsteht ein Ort, der moderne Architektur mit famili&auml;rer Herzlichkeit und alpiner Gem&uuml;tlichkeit vereint - und Familienurlaub auf ein neues Niveau hebt:</p><p>Alle &auml;lteren Zimmer werden umgebaut bzw. vergr&ouml;ssert, es werden zus&auml;tzliche Familiensuiten entstehen, die Restaurants und der Buffetbereich werden vergr&ouml;ssert, der Happy-Club und der Bereich f&uuml;r unbetreutes Spielen wird vergr&ouml;ssert, es entsteht ein zweites Schwimmbad mit Aussenbereich, Kleinkindbereich und Wasserrutsche, der Wellnessbereich wird erweitert, ein Fitnessraum direkt im Haus und vieles mehr. Ihr d&uuml;rft gespannt sein!</p><p>Im Gorfion sind auch Vierbeiner willkommen (jedoch keine Hunde auf der Rassenliste <span data-teams=\"true\">&laquo;Potentiell gef&auml;hrliche Hunde&raquo;)</span>. Pro Nacht und Hund wird CHF 60 verrechnet (unabh&auml;ngig von der Gr&ouml;sse).</p>", "url": "https://gorfion.li/", "image": "https://ltmpimtsoch.sos-ch-dk-2.exoscale-cdn.com/catalog/4/4/b/5/44b517afd32a27fba2d0a1d6493e23caa4061978_1626e_Gorfion_2025_Aussen_Sommer_01.jpg", "openstreetmap_id": "10763310417"}, "geometry": {"type": "Point", "coordinates": ["9.608986973762514", "47.101268093475"]}}]}