{"type": "FeatureCollection", "features": [{"type": "Feature", "properties": {"identifier": "02d223d9-41ce-4a2e-a765-1f1ea4653643", "name": "Pfarrkirche St. Fridolin", "description": "<p>Die katholische Pfarrkirche St. Fridolin in Ruggell liegt auf 433 m &uuml;. M. und blickt auf eine lange Geschichte zur&uuml;ck. Im Nordwesten der heutigen Kirche wurde 1614 eine Kapelle errichtet, die 1617 dem heiligen Fridolin geweiht wurde. Nach Erweiterungen in den Jahren 1668 und 1851 sowie einer erneuten Weihe 1674 wurde der schlichte, einschiffige Bau 1900/01 abgetragen. Die heutige Kirche entstand zwischen 1897 und 1903 nach Pl&auml;nen des Wiener Architekten Gustav Ritter von Neumann. Ruggell wurde 1874 durch Abkurung von Bendern zur eigenst&auml;ndigen Pfarrei erhoben.</p>", "image": "https://ltmpimtsoch.sos-ch-dk-2.exoscale-cdn.com/catalog/4/b/0/8/4b085e68df53be0b8d3a7e897934511a6b49c406_Kirche_St_Florin_2.jpg", "openstreetmap_id": "way/977381553"}, "geometry": {"type": "Point", "coordinates": ["9.528794288635256", "47.24102261252736"]}}, {"type": "Feature", "properties": {"identifier": "356de53d-2d04-40d7-8b9b-ee4223e966d4", "name": "Malbun Center", "description": "<p>Das Malbun Center befindet sich direkt am Ortseingang von Malbun beim Schlucher-Treff. Hier erhalten G&auml;ste kompetente Beratung zu Erlebnissen und Wanderungen im Liechtensteiner Berggebiet sowie allgemeine Informationen &uuml;ber Liechtenstein. Zudem gibt es eine Auswahl an kostenlosen Brosch&uuml;ren, die einen &Uuml;berblick &uuml;ber das F&uuml;rstentum bieten.</p><p>Auch den Souvenir-Stempel (kostenlos f&uuml;r alle mit dem &laquo;<a href=\"https://tourismus.li/angebote/freizeit/erlebnispass-2/all-inclusive-erlebnispass.html\">ALL INCLUSIVE Erlebnispass</a>&raquo;) kannst du dir hier holen.&nbsp;</p><p><strong>Malbun bietet vielf&auml;ltige Erlebnisse:</strong></p><ul><li><a href=\"https://tourismus.li/map/poi/outdoor-adventure-rooms-malbun-284526dc-1e92-4f4d-ae3f-50baaaa358e4.html\" target=\"_blank\" rel=\"noopener noreferrer\">Outdoor Adventure Rooms</a></li><li><a href=\"https://tourismus.li/map/poi/forscherweg-malbun-0d6f3c43-3e69-4041-a9dc-65c2e066b518.html\" target=\"_blank\" rel=\"noopener noreferrer\">Forscherweg</a></li><li><a href=\"https://tourismus.li/map/poi/detektiv-trail-auf-schatzsuche-in-malbun-71fe1cc8-8cbe-41b0-bd99-4098833c4e3e.html\" target=\"_blank\" rel=\"noopener noreferrer\">Detektiv-Trail</a> (<span data-teams=\"true\">w&auml;hrend der Sommersaison</span>)</li><li><a href=\"https://tourismus.li/map/poi/alpen-minigolf-malbun-b1841deb-d9e5-4522-bef3-35902d33cf46.html\" target=\"_blank\" rel=\"noopener noreferrer\">Alpen-Minigolf</a> (<span data-teams=\"true\">w&auml;hrend der Sommersaison</span>)</li><li><a href=\"https://tourismus.li/map/poi/alpherzweg-malbun-d88331f4-1aea-4247-b137-2a39f9eae7b8.html\" target=\"_blank\" rel=\"noopener noreferrer\">Alpherzweg Malbun</a> (<span data-teams=\"true\">w&auml;hrend der Sommersaison</span>)</li><li><a href=\"https://tourismus.li/map/poi/schaukelpfad-441ea744-e860-4639-aefe-3a550599a8f6.html\" target=\"_blank\" rel=\"noopener noreferrer\">Schaukelpfad</a> (<span data-teams=\"true\">w&auml;hrend der Sommersaison</span>)</li></ul>", "image": "https://ltmpimtsoch.sos-ch-dk-2.exoscale-cdn.com/catalog/f/6/9/f/f69fbb0e72aec607e2f460422edb0fd10c663aeb_Malbun_Center____Urs_Conrad_.jpg", "openstreetmap_id": "node/1869027437"}, "geometry": {"type": "Point", "coordinates": ["9.607951641082764", "47.10323981393031"]}}, {"type": "Feature", "properties": {"identifier": "35c528b1-b61c-4d46-a81d-5946bfdcbf00", "name": "Kapelle St. Wendelin und Martin", "description": "<p>Die Kapelle St. Wendelin und Martin befindet sich im Maiens&auml;ss Steg und liegt direkt an der Strasse ins Malbun. Sie wurde bereits im ausgehenden 17. Jahrhundert erstmals erw&auml;hnt und pr&auml;gt seither das Landschaftsbild des Saminatals. Als kulturelles Wahrzeichen von Steg steht sie seit 1951 unter liechtensteinischem Denkmalschutz und wurde zuletzt im Jahr 2016 renoviert.</p>", "image": "https://ltmpimtsoch.sos-ch-dk-2.exoscale-cdn.com/catalog/9/1/d/8/91d8ca8e50b1294cec55e235c5aa56ed16258488_image00001.jpeg", "openstreetmap_id": "way/218439566"}, "geometry": {"type": "Point", "coordinates": ["9.578533173675009", "47.111940497302584"]}}, {"type": "Feature", "properties": {"identifier": "3e794723-f107-4c3c-b71c-14481a68c27a", "name": "Rofenbergkapelle", "description": "<p>Die dem Heiligen Kreuz geweihte Rofenbergkapelle liegt im Ortsteil Rofaberg der Gemeinde Eschen und wurde vermutlich in der ersten H&auml;lfte des 16. Jahrhunderts errichtet. Sie befindet sich an einem markanten Standort auf 494 m &uuml;. M., wo einst der historische Verkehrsweg ins Toggenburg vorbeif&uuml;hrte. Die Kapelle ist ein bedeutendes Wahrzeichen der Gemeinde Eschen-Nendeln.</p>", "image": "https://ltmpimtsoch.sos-ch-dk-2.exoscale-cdn.com/catalog/0/7/d/3/07d33d4dfbd88b0505a97738a050d85f53d1d451_Rofenbergkapell_Eschen.jpeg", "openstreetmap_id": "way/979830296"}, "geometry": {"type": "Point", "coordinates": ["9.51751828619708", "47.21239728182386"]}}, {"type": "Feature", "properties": {"identifier": "43f69f8f-8814-412b-b8e5-d6ec3b308ee2", "name": "Kapelle St. Sebastian", "description": "<p>Sie steht n&ouml;rdlich des urspr&uuml;nglichen Standorts aus dem Pestjahr 1639. Der schlichte Bau geh&ouml;rt zur Pfarrei Eschen und ist bis heute ein Ort der Besinnung.</p>", "image": "https://ltmpimtsoch.sos-ch-dk-2.exoscale-cdn.com/catalog/8/1/1/a/811a760bdd373a788516398bb521a7bd039c8db5_kapelle_nendeln.jpeg", "openstreetmap_id": "way/220893974"}, "geometry": {"type": "Point", "coordinates": ["9.544839262962343", "47.19924032309368"]}}, {"type": "Feature", "properties": {"identifier": "44749619-978a-4e81-ac71-41ea99dfc437", "name": "Pfarrkirche St. Gallus", "description": "<p>Die urspr&uuml;ngliche Pfarrkirche St. Gallus lag 120 m nord&ouml;stlich der heutigen Kirche und wurde um 1458 erstmals erw&auml;hnt. Ausgrabungen haben Teile dieses fr&uuml;heren Kirchenbaus freigelegt. Die heutige Kirche an der Dorfstrasse entstand zwischen 1841 und 1843 nach Pl&auml;nen des Wiener Architekten Georg Wingelm&uuml;ller. In den Jahren 1991 bis 1994 wurde das Gotteshaus umfassend umgebaut und neugestaltet.</p>", "image": "https://ltmpimtsoch.sos-ch-dk-2.exoscale-cdn.com/catalog/2/f/7/2/2f72091f27ff09d81a0152a28510ec6116c46fc6_kirche_triesen.jpeg", "openstreetmap_id": "way/44932036"}, "geometry": {"type": "Point", "coordinates": ["9.530280232429506", "47.10627772681848"]}}, {"type": "Feature", "properties": {"identifier": "5196b078-aaa7-4f41-9824-210fcb1867cc", "name": "Resonare auf Krest", "description": "<p>Eine Skulptur, die angefasst und betreten werden darf, sogar soll.</p><p>Sie spricht alle wichtigen Sinneskan\u00e4le an. Der Besucher darf die Skulptur alleine oder mit mehreren Personen betreten und \u00fcber die Sprech- und H\u00f6rmuscheln in Interaktion mit ihr treten. Gibt er einen Laut in die Sprechmuschel ab, entstehen durch den Resonanzk\u00f6rper Schwingungen, die auch im eigenen K\u00f6rper sp\u00fcrbar sind. Dadurch ist sie nicht nur visuell sondern auch auditiv und kin\u00e4sthetisch wahrnehmbar und Besuchende k\u00f6nnen Kunst richtig erleben.</p><p><a href=\"https://eisenplastiker.li/\" rel=\"noopener noreferrer\" target=\"_blank\">Informationen zum K\u00fcnstler Edgar B\u00fcchel</a></p>", "image": "https://ltmpimtsoch.sos-ch-dk-2.exoscale-cdn.com/catalog/8/e/2/5/8e2589140d8e19026dfec22f27680ed790851c96_Resonare_Krest.jpeg", "openstreetmap_id": "way/979524824"}, "geometry": {"type": "Point", "coordinates": ["9.511286783249057", "47.21623620640483"]}}, {"type": "Feature", "properties": {"identifier": "5709461d-03d7-4a31-8da9-0868f5abda9a", "name": "Kapelle Mariahilf", "description": "<p>Die Kapelle Mariahilf liegt im Ortsteil M&auml;ls, eingebettet in eine kleine Parkanlage und umgeben von einem Wohnquartier. Ihre genaue Entstehungszeit ist unklar, doch schriftlich erw&auml;hnt wurde sie erstmals im Jahr 1690. Einer Sage zufolge wurde sie als Dank f&uuml;r die Hilfe der Muttergottes im Kampf gegen einen Drachen beim Ellhorn errichtet &ndash; daran erinnert die Drachenkopf-Windfahne auf dem Turm. Baugeschichtliche Untersuchungen deuten auf eine Vorg&auml;ngerkapelle aus dem fr&uuml;hen 16. Jahrhundert hin. Das heutige Erscheinungsbild geht auf Umbauten im 18. Jahrhundert zur&uuml;ck, einschliesslich des Turms und der barocken Alt&auml;re. Die Kapelle ist ein beliebter Ort f&uuml;r Andachten und Hochzeitsfeiern und beherbergt die &auml;lteste Kirchenglocke Liechtensteins.</p>", "image": "https://ltmpimtsoch.sos-ch-dk-2.exoscale-cdn.com/catalog/d/9/f/3/d9f3017e4dc4c7c991df3513f1eb32f841a9085e_mariahilf_kapelle_balzers.jpeg", "openstreetmap_id": "way/160973200"}, "geometry": {"type": "Point", "coordinates": ["9.490020275115969", "47.06084004918612"]}}, {"type": "Feature", "properties": {"identifier": "63caedff-fe9b-4f43-816b-4edcf84b1bcb", "name": "Pfarrkirche St. Nikolaus", "description": "<p>Am Fusse der mittelalterlichen Burg Gutenberg liegt die Pfarrkirche St. Nikolaus: ein herausragendes Beispiel neuromanischer Architektur. Errichtet nach den Pl&auml;nen des f&uuml;rstlichen Hofarchitekten Gustav Ritter von Neumann und vollendet im Jahr 1912, wurde der Bau massgeblich von F&uuml;rst Johann II. von Liechtenstein finanziert, der zwei Drittel der Kosten &uuml;bernahm. Zu seinem 50-j&auml;hrigen Regierungsjubil&auml;um widmete ihm die Gemeinde Balzers die Kirche als &laquo;F&uuml;rst-Johann-Jubil&auml;umskirche&raquo;.</p>", "image": "https://ltmpimtsoch.sos-ch-dk-2.exoscale-cdn.com/catalog/f/0/f/1/f0f1e1757453a794224c0e36266291522646555f__1400791.jpg", "openstreetmap_id": "way/165294627"}, "geometry": {"type": "Point", "coordinates": ["9.502208235726522", "47.06532061685992"]}}, {"type": "Feature", "properties": {"identifier": "6756e8d7-0c13-4e21-9103-cc66d87f7400", "name": "Dux-Kapelle", "description": "<p>Die katholische Kapelle befindet sich am Duxweg in Schaan und wurde im Jahr 1716 erbaut, an einem Ort, an dem sich bereits zuvor ein kleines Gotteshaus befand. Die Kapelle mit ihren drei Alt&auml;ren ist der Muttergottes gewidmet und steht seit 1951 unter Denkmalschutz. In unmittelbarer N&auml;he wurden 1887 bei Grabarbeiten zwei r&ouml;mische Legion&auml;rshelme aus dem 1. Jahrhundert n.\u202fChr. entdeckt, die heute in den Museen von Bregenz und Z&uuml;rich aufbewahrt werden.</p>", "image": "https://ltmpimtsoch.sos-ch-dk-2.exoscale-cdn.com/catalog/f/7/4/5/f745eb9936903a543a16b7a6b3ea34058feeba52_kapelle_dux_schaan.jpeg", "openstreetmap_id": "way/318285001"}, "geometry": {"type": "Point", "coordinates": ["9.519202709198", "47.16584721232595"]}}, {"type": "Feature", "properties": {"identifier": "679feddf-a035-4548-8747-53d0fc0ecf4e", "name": "Alter Grenzstein", "description": "<p>Der Grenzstein ist ein geschichtstr&auml;chtiger Ort im S&uuml;den Liechtensteins. Rund um den Stein erz&auml;hlt man sich die bekannte Sage vom &laquo;starken J&ouml;rg&raquo;: Zwischen Balzers und Maienfeld war man sich lange nicht einig, wo die Grenze verlaufen sollte. Der kr&auml;ftige Balzner J&ouml;rg sollte deshalb den schweren Grenzstein, den ihm vier B&uuml;ndner &auml;chzend gebracht hatten, so weit wie m&ouml;glich gegen S&uuml;den tragen. Dort, wo er den Stein erstmals absetzte, wurde schliesslich die Grenze festgelegt.</p>", "image": "https://ltmpimtsoch.sos-ch-dk-2.exoscale-cdn.com/catalog/4/d/7/1/4d711759bcdefa80bf4027b63dfaf9c45890ac06_IMG_9301.JPG", "openstreetmap_id": "node/1372827973"}, "geometry": {"type": "Point", "coordinates": ["9.512062825750467", "47.056757020863294"]}}, {"type": "Feature", "properties": {"identifier": "6e9200d3-8871-4ba0-9aca-8034a1fda361", "name": "Pfarrkirche St. Laurentius", "description": "<p>Der neugotische Bau stammt vom Wiener Architekten Gustav von Neumann, der in f&uuml;rstlichen Diensten stand. Mit ihrem 81 Meter hohen Turm dominiert die Kirche die Ebene des Rheintals und ist ein weithin sichtbares Wahrzeichen. Die Natursteinfassade war zur Zeit ihrer Errichtung ein ungew&ouml;hnliches Element im Kirchenbau. Seit 2002 steht die Pfarrkirche unter Denkmalschutz.</p>", "image": "https://ltmpimtsoch.sos-ch-dk-2.exoscale-cdn.com/catalog/9/b/a/f/9bafa4adda140852b1be72c37cb7a18fa0dfd5a1_kirche_st.laurentius_schaan.jpeg", "openstreetmap_id": "way/47307298"}, "geometry": {"type": "Point", "coordinates": ["9.51195001602173", "47.166445342886526"]}}, {"type": "Feature", "properties": {"identifier": "84f7a125-1058-41b2-8b95-00219f83026c", "name": "Liechtenstein Center", "description": "<p>Das Liechtenstein Center in Vaduz ist die zentrale Anlaufstelle f&uuml;r G&auml;ste des F&uuml;rstentums. Sieben Tage die Woche stehen unsere Fachpersonen mit Informationen und Tipps zur Verf&uuml;gung. Neben kostenlosen Brosch&uuml;ren und Karten gibt es eine grosse Auswahl an regionalen Produkten, Spezialit&auml;ten, Souvenirs, Postkarten und Briefmarken.</p><p>Besonders beliebt ist der <a href=\"https://tourismus.li/map/poi/souvenir-stempel-b516c756-2c39-448c-9fa1-bfbfc6cb1c24.html\">Souvenir-Stempel</a>, mit dem man seinen Pass f&uuml;r CHF 3 / EUR 3.30 (kostenlos f&uuml;r alle mit dem &laquo;<a href=\"https://tourismus.li/angebote/freizeit/erlebnispass-2/all-inclusive-erlebnispass.html\">ALL INCLUSIVE Erlebnispass</a>&raquo;) verzieren lassen kann. Zudem sind verschiedene Geschenkk&ouml;rbe erh&auml;ltlich, die auf Wunsch auch individuell gestaltet werden. Bezahlen kannst du mit Schweizer Franken, Euro oder Karte.</p><p>Das Liechtenstein Center bietet ausserdem von Fr&uuml;hling bis Herbst die M&ouml;glichkeit, E-Bikes sowie ein spezielles Fahrrad f&uuml;r Menschen mit beschr&auml;nkter Mobilit&auml;t zu mieten. Damit l&auml;sst sich die Umgebung auf zwei R&auml;dern bequem erkunden.</p><p>Die Lokalit&auml;t kann auch f&uuml;r Veranstaltungen wie Empf&auml;nge, Referate und Pr&auml;sentationen gemietet werden.</p>", "url": "https://www.liechtenstein-marketing.li/", "image": "https://ltmpimtsoch.sos-ch-dk-2.exoscale-cdn.com/catalog/b/c/a/6/bca652f2a59a8dc7795c61cd025cc08e951d9b6c_2021_11_16_Liechtenstein_Center_0005__2_.JPG", "openstreetmap_id": "way/243055691"}, "geometry": {"type": "Point", "coordinates": ["9.522662753277771", "47.13846827655561"]}}, {"type": "Feature", "properties": {"identifier": "902d3a52-da0f-492a-a74e-fadddf0ac2fe", "name": "Alp Val\u00fcna", "description": "<p class=\"isSelectedEnd\">Die Alp mit Sennereibetrieb ist w&auml;hrend der Sommersaison bewirtschaftet. Vor Ort werden frische Milchprodukte wie Alpk&auml;se, Mutschli, Sauerk&auml;se, Butter und Joghurt hergestellt und angeboten. Die Spezialit&auml;ten k&ouml;nnen direkt auf der Alp genossen oder mit nach Hause genommen werden.</p><p class=\"isSelectedEnd\">Im Innen- und Aussenbereich der Alp l&auml;sst es sich herrlich verweilen. Nebst verschiedenen Getr&auml;nken werden Zvieripl&auml;ttli, K&auml;se und weitere regionale Produkte angeboten.</p><p class=\"isSelectedEnd\">Auf der Alp leben Mutterk&uuml;he, Rinder, K&auml;lber, Esel und Schweine.</p><p>Parkpl&auml;tze sind beim G&auml;nglesee vorhanden.</p>", "url": "https://www.alpkaeseproduzenten.ch/unsere-alpen/valuena/", "image": "https://ltmpimtsoch.sos-ch-dk-2.exoscale-cdn.com/catalog/5/0/0/d/500d1f05169c5f2bff7d311b66e369c5eb53397b_IMG_9952.jpeg", "openstreetmap_id": "way/298855541"}, "geometry": {"type": "Point", "coordinates": ["9.58787798881531", "47.08494656552271"]}}, {"type": "Feature", "properties": {"identifier": "9cad17df-842d-405e-a0f5-1bece86ebaae", "name": "Pfarrkirche St. Peter und Paul", "description": "<p>Die Pfarrkirche St. Peter und Paul in Mauren geh&ouml;rt zur katholischen Pfarrei der Gemeinde und wurde zwischen 1842 und 1843 nach Pl&auml;nen von Laurenz Vogel errichtet. Der klassizistische Bau steht an einem geschichtstr&auml;chtigen Ort: Bereits zwischen 1290 und 1298 wurde hier eine Kirche erstmals erw&auml;hnt. Ausgrabungen in den Jahren 1986 bis 1988 brachten Fundamente &auml;lterer Vorg&auml;ngerbauten ans Licht und lieferten Hinweise auf eine r&ouml;mische Besiedlung des Platzes.</p>", "image": "https://ltmpimtsoch.sos-ch-dk-2.exoscale-cdn.com/catalog/1/7/7/5/17755c4beb346fc10886bac824ce43cdf375227b_kirche_mauren.jpeg", "openstreetmap_id": "way/982211607"}, "geometry": {"type": "Point", "coordinates": ["9.54367518424988", "47.2202166428854"]}}, {"type": "Feature", "properties": {"identifier": "9f77f579-7fd0-499a-809d-838e4907450b", "name": "Kapelle St. Josef", "description": "<p>Die Kapelle St. Josef liegt auf 490 Metern im ruhigen Ortsteil Ebaholz in Vaduz. Der Bau wurde 1930 nach Pl&auml;nen des Churer Architekten Johann Baptist Willi begonnen und ein Jahr sp&auml;ter geweiht. Es handelt sich um eine einschiffige Kirche mit einem flach abschliessenden, eingeschn&uuml;rten Chor.</p>", "image": "https://ltmpimtsoch.sos-ch-dk-2.exoscale-cdn.com/catalog/d/1/f/8/d1f8e692a942964b697719bbbcc831609f671771_kapelle_vaduz.jpeg", "openstreetmap_id": "way/351913193"}, "geometry": {"type": "Point", "coordinates": ["9.513843655586244", "47.150461293594645"]}}, {"type": "Feature", "properties": {"identifier": "a8e7a75c-45f8-4b27-b62c-97fdde5b813e", "name": "Kneipp-Anlage", "image": "https://ltmpimtsoch.sos-ch-dk-2.exoscale-cdn.com/catalog/d/8/6/d/d86df086e2d6029ae901ab7d2d8577cef524a6e7_kneippanlage_malbun.jpeg", "openstreetmap_id": "node/10106607390"}, "geometry": {"type": "Point", "coordinates": ["9.609893560409548", "47.101081766833104"]}}, {"type": "Feature", "properties": {"identifier": "d9d5c690-6fea-4693-946f-de690b3bfb0c", "name": "Minigolfanlage Schaan-Vaduz", "description": "<p>Auf den 18 Bahnen der homologierten Betonanlage finden auch internationale Turniere statt. Nach einer spannenden Runde Minigolf l&auml;dt das Restaurant mit Kiosk zum Verweilen ein &ndash; mit erfrischenden Getr&auml;nken und leckeren Pizzas.</p><p>Minigolfschl&auml;ger und B&auml;lle&nbsp;k&ouml;nnen vor Ort&nbsp;ausgeliehen werden.</p><p>Mit dem &laquo;<a href=\"https://tourismus.li/angebote/freizeit/erlebnispass-2/all-inclusive-erlebnispass.html\">ALL INCLUSIVE Erlebnispass</a>&raquo; spielst du eine Runde gratis Minigolf.</p>", "image": "https://ltmpimtsoch.sos-ch-dk-2.exoscale-cdn.com/catalog/2/5/0/e/250e52bc68e29d0891fbaf9ce492b1a6824cc1c8_shared_image.jpeg", "openstreetmap_id": "way/46953737"}, "geometry": {"type": "Point", "coordinates": ["9.505797039055997", "47.15168339368632"]}}, {"type": "Feature", "properties": {"identifier": "e7e9eda4-f07a-4f43-bb4b-f58006674111", "name": "Walsermuseum", "description": "<p>Die Besucherinnen und Besucher erfahren viel Interessantes &uuml;ber die Geschichte der Walser, die Pfarreigeschichte sowie die Land-, Holz- und Viehwirtschaft als Existenzgrundlage der Bev&ouml;lkerung.&nbsp;Das b&auml;uerliche und h&auml;usliche Leben ist eindr&uuml;cklich dargestellt. Durch die Pr&auml;sentation der Eigenheiten der Walser grenzt sich das Walsermuseum spannend von anderen Heimatmuseen ab.</p><p>Das Walserhaus nebenan dokumentiert die Wohnkultur des 19. Jahrhunderts und gibt einen bewegenden Bescheid &uuml;ber die Einfachheit des Wohnens. Die Besichtigung ist nur im Rahmen einer F&uuml;hrung m&ouml;glich.</p><p>Die Multivisionsschau informiert innert 25 Minuten mit wunderbaren Bildern, spannenden Texten und typischer Musik &uuml;ber das Dorfleben von gestern und heute.</p><p>Mit dem &laquo;<a href=\"https://tourismus.li/angebote/freizeit/erlebnispass-2/all-inclusive-erlebnispass.html\">ALL INCLUSIVE Erlebnispass</a>&raquo; geniesst du kostenlosen Eintritt in das Walsermuseum.<br>Mit dem &laquo;<a href=\"https://tourismus.li/angebote/freizeit/welcome-erlebnispass.html\">WELCOME Erlebnispass</a>&raquo; erh&auml;ltst du 20\u202f% Rabatt auf den Eintritt.<br><br><u>Anreise</u></p><ul><li>Nahegelegene Bushaltestellen: &laquo;Triesenberg, Dorfzentrum&raquo;</li><li>Nahegelegene Parkpl&auml;tze: <a href=\"https://maps.app.goo.gl/1jtC4J3S4PtKxVtCA\" target=\"_blank\" rel=\"noopener noreferrer\">Parkplatz Dorfzentrum</a></li></ul>", "url": "http://www.walsermuseum.li", "image": "https://ltmpimtsoch.sos-ch-dk-2.exoscale-cdn.com/catalog/8/6/7/8/8678e5995be5b0fdbe662e480bfca7b837ecac7a_Walsermuseum_231007_walser_006.jpg", "openstreetmap_id": "node/761534749"}, "geometry": {"type": "Point", "coordinates": ["9.5429402589798", "47.11856637712402"]}}, {"type": "Feature", "properties": {"identifier": "eae2ccc8-8868-46ef-b2a2-451bc5b3d81c", "name": "Kirche St. Peter", "description": "<p>Die Kirche St. Peter in Schaan z&auml;hlt zu den &auml;ltesten Sakralbauten der Region und geht auf ein r&ouml;misches Kastell aus dem 4. Jahrhundert zur&uuml;ck. Bereits im 5. Jahrhundert entstand dort ein Baptisterium, das mit einem Gr&auml;berfeld der christianisierten r&auml;toromanischen Bev&ouml;lkerung verbunden ist. Die Kirche war Teil des r&ouml;mischen Reichsguts und fiel sp&auml;ter an das karolingische Reich. Um 1450 wurde unter den Herren von Brandis ein vollst&auml;ndiger Neubau errichtet. Nach einem Brand im Jahr 1849 wurde die Kirche mehrfach baulich ver&auml;ndert, zuletzt 1958 und 1995. Seit 1951 steht sie unter Denkmalschutz.</p>", "image": "https://ltmpimtsoch.sos-ch-dk-2.exoscale-cdn.com/catalog/2/7/e/8/27e8cd9b66a469a94ab7f0235941148068761aa3_kirche_st.peter_schaan.jpeg", "openstreetmap_id": "way/104857472"}, "geometry": {"type": "Point", "coordinates": ["9.509305357933046", "47.16370264500135"]}}, {"type": "Feature", "properties": {"identifier": "eb42f7b6-f975-45c3-ac76-6ef3a34fdc6d", "name": "Kapelle St. Peter", "description": "<p>Die Kapelle St. Peter wurde um 1300 erbaut und gilt als Kern der Siedlung M&auml;ls. Urspr&uuml;nglich vermutlich als private Hauskapelle errichtet, entwickelte sie sich &uuml;ber die Jahrhunderte zu einem bedeutenden Ort des Glaubens. Seit 1951 steht die Kapelle unter Denkmalschutz und wird bis heute regelm&auml;ssig f&uuml;r Gottesdienste genutzt. Sie bildet gemeinsam mit dem mittelalterlichen Turmhaus ein einzigartiges Ensemble.</p><p>Die Kapelle St. Peter ist eine der Erlebnisstationen des&nbsp;<a href=\"https://tourismus.li/entdecken/liechtensteinweg.html\">Liechtenstein-Wegs</a>.</p>", "image": "https://ltmpimtsoch.sos-ch-dk-2.exoscale-cdn.com/catalog/7/1/e/c/71ecca1d0ab46308a63b4c23fa103fe47a848e8d_kapelle_balzers.jpeg", "openstreetmap_id": "way/299591976"}, "geometry": {"type": "Point", "coordinates": ["9.496908187866213", "47.06025952120238"]}}]}