{"type": "FeatureCollection", "features": [{"type": "Feature", "properties": {"identifier": "4ac32674-679e-4b9f-a7f2-a524b090bc14", "name": "Greifvogel-Show", "description": "<p>Bei der Greifvogel-Show kannst du die beeindruckenden J&auml;ger der L&uuml;fte aus n&auml;chster N&auml;he erleben. Steinadler, Harris Hawk, Uhu, Bussard und Falke zeigen auf der Sonnenterrasse des Hotel Galina ihre Flugk&uuml;nste und erstaunlichen F&auml;higkeiten.</p><p>Die Show bietet spannende Einblicke in die Tradition der Falknerei. Ein besonderes Erlebnis f&uuml;r alle, die sich f&uuml;r die Natur und ihre faszinierenden J&auml;ger interessieren.</p><p><strong>Durchf&uuml;hrung</strong>: Die &ouml;ffentliche Greifvogel-Show findet von Anfang Juni bis Anfang Oktober jeden Samstag und Sonntag um 14:00 Uhr statt. Private Greifvogel-Shows sind t&auml;glich buchbar.</p><p>Mit dem &laquo;<a href=\"https://tourismus.li/angebote/freizeit/erlebnispass-2/all-inclusive-erlebnispass.html\">ALL INCLUSIVE Erlebnispass</a>&raquo; geniesst du freien Eintritt zur Greifvogel-Show.<br>Mit dem &laquo;<a href=\"https://tourismus.li/angebote/freizeit/welcome-erlebnispass.html\">WELCOME Erlebnispass</a>&raquo; erh&auml;ltst du 20\u202f% Rabatt auf den Eintritt.</p>", "url": "https://www.galina.li/greifvogel-flugshow", "image": "https://ltmpimtsoch.sos-ch-dk-2.exoscale-cdn.com/catalog/8/c/b/3/8cb30a973be94b0f2876c3a2e29e60c16b21b520_Kinderregion_Malbun_SELECTS_HR_131.jpg", "openstreetmap_id": "node/6520959387"}, "geometry": {"type": "Point", "coordinates": ["9.608225226402284", "47.10224293695368"]}}, {"type": "Feature", "properties": {"identifier": "63875bbc-3c42-4df6-bb54-75ed47ef00c1", "name": "Harris-Hawk Erlebnis \u2013 Selbst falknern", "description": "<p>Erlebe die Faszination der Falknerei hautnah! In der Falknerei Galina in Malbun kannst du mit einem Harris-Hawk auf Tour gehen und selbst zum Falkner werden.</p><p>Nach einer Einf&uuml;hrung und mit der passenden Ausr&uuml;stung begleitest du einen professionell trainierten Harris-Hawk auf eine rund 90-min&uuml;tige Wanderung durch die malerische Bergwelt Liechtensteins. Der Harris-Hawk fliegt frei &uuml;ber dir, kehrt immer wieder auf deinen Arm zur&uuml;ck und sorgt f&uuml;r unvergessliche Momente.</p><p>Ein einzigartiges Naturerlebnis, das Abenteuer und die Kunst der Falknerei verbindet!</p><p><strong>Durchf&uuml;hrung:</strong></p><ul><li>t&auml;glich von Juni bis Oktober</li><li>eine fr&uuml;hzeitige Reservation ist erforderlich</li><li>Teilnehmeranzahl: max. 4 Personen</li></ul>", "url": "https://www.galina.li/kopie-von-harris-hawk-erlebnis", "image": "https://ltmpimtsoch.sos-ch-dk-2.exoscale-cdn.com/catalog/5/a/7/d/5a7dffd6a1298657111139f5c0a2cbd1d9a058e9_FF250710A1_240a.jpg", "openstreetmap_id": "node/6520959387"}, "geometry": {"type": "Point", "coordinates": ["9.60832178592682", "47.10225830545281"]}}, {"type": "Feature", "properties": {"identifier": "b516c756-2c39-448c-9fa1-bfbfc6cb1c24", "name": "Souvenir-Stempel", "description": "<p>Verleihe deinem Reisepass eine besondere Erinnerung an deinen Aufenthalt im F&uuml;rstentum Liechtenstein. Der beliebte Souvenir-Stempel ist ein einzigartiges Andenken und erfreut sich bei G&auml;sten aus aller Welt grosser Beliebtheit.</p><p>Den Souvenir-Stempel erh&auml;ltst du im Liechtenstein Center in Vaduz sowie im Malbun Center. Mit dem &laquo;<a href=\"https://tourismus.li/angebote/freizeit/erlebnispass-2/all-inclusive-erlebnispass.html\">ALL INCLUSIVE Erlebnispass</a>&raquo; erh&auml;ltst du den Stempel kostenlos.</p><p><strong>Info: </strong>Der Souvenir-Stempel ist ein offiziell angebotenes touristisches Andenken. Er wird auf einer daf&uuml;r vorgesehenen Visaseite angebracht, ist von den liechtensteinischen Beh&ouml;rden genehmigt und macht deinen Reisepass nicht ung&uuml;ltig.</p>", "image": "https://ltmpimtsoch.sos-ch-dk-2.exoscale-cdn.com/catalog/5/e/3/3/5e3344e484f4f5ba215d12192f028d1c568807d5_souvenir_stempel_pass_liechtenstein.jpg"}}]}